Street ID,Street Name,Street Suffix,Street Suffix Direction,Official Street Name,Thomas Brothers Map,Street Type
10345,BAYVIEW,LANE,,BAYVIEW LANE,794B4,PRIVATE STREET NAMES
8507,BROADMOOR,ST,,BROADMOOR STREET,501H7,PUBLIC STREET NAMES
8736,BIMINI,PL,,BIMINI PLACE,634A1,PUBLIC STREET NAMES
8502,BROADWAY,CT,,BROADWAY COURT,671H5,PUBLIC STREET NAMES
8411,BURNLEY,PL,,BURNLEY PLACE,592C1,PUBLIC STREET NAMES
8491,BRONSON,AVE,,BRONSON AVENUE,593G3,PUBLIC STREET NAMES
8854,BELLEVUE,AVE,,BELLEVUE AVENUE,594B7,PUBLIC STREET NAMES
785,BARRACUDA,ST,,BARRACUDA STREET,824E5,PRIVATE STREET NAMES
8570,BRASILIA,DR,,BRASILIA DRIVE,500J1,PUBLIC STREET NAMES
8538,BRIARWOOD,DR,,BRIARWOOD DRIVE,592A2,PUBLIC STREET NAMES
8653,BOLIVAR,ROAD,,BOLIVAR ROAD,560A5,PUBLIC STREET NAMES
8728,BIRKDALE,ST,,BIRKDALE STREET,594G5,PUBLIC STREET NAMES
10415,BLUFF CREEK,DR,,BLUFF CREEK DRIVE,672G6,PUBLIC STREET NAMES
8970,BARNABY,ROAD,,BARNABY ROAD,591J7,PUBLIC STREET NAMES
8408,BURR,ST,,BURR STREET,595E4,PUBLIC STREET NAMES
8533,BRIDLE,TR,,BRIDLE TRAIL,630H5,PUBLIC STREET NAMES
8457,BRUSSELS,AVE,,BRUSSELS AVENUE,502H1,PUBLIC STREET NAMES
8593,BRADBURY,ROAD,,BRADBURY ROAD,632E6,PUBLIC STREET NAMES
8769,BEVERLY,PL,,BEVERLY PLACE,592D4,PUBLIC STREET NAMES
8986,BARBOUR,CT,,BARBOUR COURT,824B7,PUBLIC STREET NAMES
8440,BUCKLER,AVE,,BUCKLER AVENUE,673C6,PUBLIC STREET NAMES
8956,BARRINGTON,PL,,BARRINGTON PLACE,631G2,PUBLIC STREET NAMES
8475,BROOKS,AVE,,BROOKS AVENUE,671J4,PUBLIC STREET NAMES
8610,BOVEY,AVE,,BOVEY AVENUE,530F4,PUBLIC STREET NAMES
8420,BURGUNDY,ROAD,,BURGUNDY ROAD,559H4,PUBLIC STREET NAMES
8409,BURNSIDE,AVE,,BURNSIDE AVENUE,633C2,PUBLIC STREET NAMES
8602,BOWMORE,AVE,,BOWMORE AVENUE,480G6,PUBLIC STREET NAMES
8512,BROAD,AVE,,BROAD AVENUE,794E4,PUBLIC STREET NAMES
8648,BOMBAY,AVE,,BOMBAY AVENUE,794E3,PUBLIC STREET NAMES
10964,BUZZ,CT,,BUZZ COURT,594D3,LIMITED ACCESS AREA NAMES
8640,BOND,ST,,BOND STREET,634C5,PUBLIC STREET NAMES
8894,BECKFORD,AVE,,BECKFORD AVENUE,500G1,PUBLIC STREET NAMES
8946,BARTO,DR,,BARTO DRIVE,481C4,PUBLIC STREET NAMES
777,BENEDICT,ST,,BENEDICT STREET,NA,PRIVATE STREET NAMES
8480,BROOKLAKE,ST,,BROOKLAKE STREET,672A3,PUBLIC STREET NAMES
8770,BEVERLY,PL,,BEVERLY PLACE,632J1,PUBLIC STREET NAMES
8783,BERWYN,LANE,,BERWYN LANE,NA,PUBLIC STREET NAMES
772,BERKELEY,SQ,,BERKELEY SQUARE,NA,PRIVATE STREET NAMES
10516,BELLANDO,CT,,BELLANDO COURT,481A6,PRIVATE STREET NAMES
8490,BRONSON HILL,DR,,BRONSON HILL DRIVE,593G2,PUBLIC STREET NAMES
8635,BONITA,TER,,BONITA TERRACE,593D4,PUBLIC STREET NAMES
8606,BOWFIN,AVE,,BOWFIN AVENUE,823H7,PUBLIC STREET NAMES
788,BALTAR,ST,,BALTAR STREET,531C2,PRIVATE STREET NAMES
8486,BROOKDALE,LANE,,BROOKDALE LANE,592H1,PUBLIC STREET NAMES
8453,BRYMER,CT,,BRYMER COURT,480H7,PUBLIC STREET NAMES
9007,BANBURY,PL,,BANBURY PLACE,564J7,PUBLIC STREET NAMES
8978,BARHAM,BLVD,,BARHAM BOULEVARD,563D6,PUBLIC STREET NAMES
8659,BOEING,AVE,,BOEING AVENUE,702H1,PUBLIC STREET NAMES
8438,BUDAU,AVE,,BUDAU AVENUE,595E7,PUBLIC STREET NAMES
9000,BANK,ST,,BANK STREET,594G4,PUBLIC STREET NAMES
10226,BRIARHILL,DR,,BRIARHILL DRIVE,481H7,PUBLIC STREET NAMES
9951,BEVERLY PARK,LANE,,BEVERLY PARK LANE,592E1,PRIVATE STREET NAMES
8808,BERGER,AVE,,BERGER AVENUE,702C2,PUBLIC STREET NAMES
8598,BOYD,ST,,BOYD STREET,634G4,PUBLIC STREET NAMES
8932,BATON ROUGE,PL,,BATON ROUGE PLACE,500G3,PUBLIC STREET NAMES
8567,BRAXTON,ST,,BRAXTON STREET,481C5,PUBLIC STREET NAMES
8929,BAXTER,PL,,BAXTER PLACE,594F6,PUBLIC STREET NAMES
8481,BROOKHAVEN,AVE,,BROOKHAVEN AVENUE,632B7,PUBLIC STREET NAMES
8918,BAYWOOD,CT,,BAYWOOD COURT,592B2,PUBLIC STREET NAMES
8856,BELLEGLADE,AVE,,BELLEGLADE AVENUE,635E1,PUBLIC STREET NAMES
9028,BAJIO,ROAD,,BAJIO ROAD,561D5,PUBLIC STREET NAMES
779,BECKMAN,ROAD,,BECKMAN ROAD,593C1,PRIVATE STREET NAMES
8464,BROXTON,AVE,,BROXTON AVENUE,632A3,PUBLIC STREET NAMES
9859,BRIAN,LANE,,BRIAN LANE,561E3,PRIVATE STREET NAMES
8419,BURKSHIRE,AVE,,BURKSHIRE AVENUE,672B1,PUBLIC STREET NAMES
8874,BELAND,AVE,,BELAND AVENUE,702F1,PUBLIC STREET NAMES
10100,BELFORD,CT,,BELFORD COURT,529D4,PUBLIC STREET NAMES
8501,BROADWAY,PL,,BROADWAY PLACE,634E6,PUBLIC STREET NAMES
8965,BARNETT,ROAD,,BARNETT ROAD,564J3,PUBLIC STREET NAMES
8554,BRENTA,PL,,BRENTA PLACE,672A5,PUBLIC STREET NAMES
8679,BLUE HILL,ROAD,,BLUE HILL ROAD,565C5,PUBLIC STREET NAMES
8506,BROADVIEW,TER,,BROADVIEW TERRACE,593D3,PUBLIC STREET NAMES
8815,BERDON,ST,,BERDON STREET,560C2,PUBLIC STREET NAMES
8605,BOWLING GREEN,WAY,,BOWLING GREEN WAY,631G3,PUBLIC STREET NAMES
8948,BARTEE,AVE,,BARTEE AVENUE,502B4,PUBLIC STREET NAMES
8645,BONAIR,PL,,BONAIR PLACE,595E3,PUBLIC STREET NAMES
8847,BELLWOOD,AVE,,BELLWOOD AVENUE,632E4,PUBLIC STREET NAMES
8388,BYRON,AVE,,BYRON AVENUE,481B5,PUBLIC STREET NAMES
8534,BRIDLE,TR,,BRIDLE TRAIL,592C6,PUBLIC STREET NAMES
8398,BUSHROD,LANE,,BUSHROD LANE,592A3,PUBLIC STREET NAMES
9890,BEL AIR CREST,ROAD,NORTH,BEL AIR CREST ROAD NORTH,591F3,PRIVATE STREET NAMES
8441,BUCKINGHAM,ROAD,,BUCKINGHAM ROAD,633E6,PUBLIC STREET NAMES
9011,BALTIC,ST,,BALTIC STREET,631F5,PUBLIC STREET NAMES
8903,BEATIE,PL,,BEATIE PLACE,635F1,PUBLIC STREET NAMES
8742,BIG TUJUNGA CANYON,ROAD,,BIG TUJUNGA CANYON ROAD,503J1,PUBLIC STREET NAMES
8817,BENVENUE,ST,,BENVENUE STREET,631F5,PUBLIC STREET NAMES
8529,BRIER,DR,,BRIER DRIVE,592J4,PUBLIC STREET NAMES
8675,BLUE SKY,CT,,BLUE SKY COURT,529D5,PUBLIC STREET NAMES
8830,BENEFIT,ST,,BENEFIT STREET,562A5,PUBLIC STREET NAMES
8498,BROKAW,PL,,BROKAW PLACE,NA,PUBLIC STREET NAMES
8707,BLANCHARD,ST,,BLANCHARD STREET,635C4,PUBLIC STREET NAMES
8535,BRIDGEPORT,DR,,BRIDGEPORT DRIVE,594H4,PUBLIC STREET NAMES
10333,BIRMINGHAM HIGHSCHOOL,DRWY,,BIRMINGHAM HIGHSCHOOL DRIVEWAY,531C6,PRIVATE ROADWAY NAMES
8673,BLUFFDALE,DR,,BLUFFDALE DRIVE,533B1,PUBLIC STREET NAMES
8741,BILLOWVISTA,DR,,BILLOWVISTA DRIVE,702B3,PUBLIC STREET NAMES
8452,BRYMER,LANE,,BRYMER LANE,500J1,PUBLIC STREET NAMES
8693,BLIX,ST,,BLIX STREET,563A3,PUBLIC STREET NAMES
8890,BEDEL,ST,,BEDEL STREET,560C4,PUBLIC STREET NAMES
9017,BALLINA,DR,,BALLINA DRIVE,561E5,PUBLIC STREET NAMES
9008,BAMFORD,PL,,BAMFORD PLACE,595A2,PUBLIC STREET NAMES
8811,BERENICE,PL,,BERENICE PLACE,595B5,PUBLIC STREET NAMES
10461,BERGAMO,WAY,,BERGAMO WAY,500D1,PRIVATE STREET NAMES
8855,BELLE PORTE,AVE,,BELLE PORTE AVENUE,794A6,PUBLIC STREET NAMES
8432,BUFFALO,AVE,,BUFFALO AVENUE,562C3,PUBLIC STREET NAMES
10054,BROOKSHIRE,LANE,,BROOKSHIRE LANE,591G3,PRIVATE STREET NAMES
8755,BEVERLYWOOD,ST,,BEVERLYWOOD STREET,632H6,PUBLIC STREET NAMES
8656,BOISE,AVE,,BOISE AVENUE,672B3,PUBLIC STREET NAMES
8812,BERENICE,AVE,,BERENICE AVENUE,595B5,PUBLIC STREET NAMES
8860,BELLA VISTA,WAY,,BELLA VISTA WAY,593E3,PUBLIC STREET NAMES
8471,BROOM,WAY,,BROOM WAY,631F1,PUBLIC STREET NAMES
9002,BANFF,LANE,,BANFF LANE,631G3,PUBLIC STREET NAMES
8609,BOWCROFT,ST,,BOWCROFT STREET,673A1,PUBLIC STREET NAMES
8934,BATHURST,ST,,BATHURST STREET,500J1,PUBLIC STREET NAMES
757,BOWMONT,DR,,BOWMONT DRIVE,592G2,PRIVATE STREET NAMES
8652,BOLKER,PL,,BOLKER PLACE,824A2,PUBLIC STREET NAMES
9038,BACK BAY,PL,,BACK BAY PLACE,702A2,PUBLIC STREET NAMES
784,BASS,ST,,BASS STREET,824E5,PRIVATE STREET NAMES
8449,BRYN MAWR,CT,,BRYN MAWR COURT,593F3,PUBLIC STREET NAMES
8574,BRANDEN,ST,,BRANDEN STREET,594D5,PUBLIC STREET NAMES
8474,BROOKS,CT,,BROOKS COURT,671H5,PUBLIC STREET NAMES
10305,BEAR VALLEY,LANE,,BEAR VALLEY LANE,480E7,PRIVATE STREET NAMES
8467,BROWNING,BLVD,,BROWNING BOULEVARD,674A2,PUBLIC STREET NAMES
745,BUCHER,AVE,,BUCHER AVENUE,481J1,PRIVATE STREET NAMES
8581,BRAEWOOD,CT,,BRAEWOOD COURT,560F6,PUBLIC STREET NAMES
8785,BERTRAND,AVE,,BERTRAND AVENUE,561A1,PUBLIC STREET NAMES
8543,BRIAR KNOLL,DR,,BRIAR KNOLL DRIVE,592J1,PUBLIC STREET NAMES
8914,BEACH,AVE,,BEACH AVENUE,671H6,PUBLIC STREET NAMES
8999,BANKS COURT,DR,,BANKS COURT DRIVE,595A2,PUBLIC STREET NAMES
8841,BELVOIR,AVE,,BELVOIR AVENUE,504C6,PUBLIC STREET NAMES
8418,BURLAND,AVE,,BURLAND AVENUE,504A2,PUBLIC STREET NAMES
9627,BAER,ROAD,,BAER ROAD,565A7,UNOFFICIAL PRIVATE STREET NAMES
9024,BALBOA,BLVD,,BALBOA BOULEVARD,561D3,PUBLIC STREET NAMES
8393,BUTTERFIELD,ROAD,,BUTTERFIELD ROAD,632E6,PUBLIC STREET NAMES
8629,BONSALLO,AVE,,BONSALLO AVENUE,634C6,PUBLIC STREET NAMES
8806,BERKELEY,AVE,,BERKELEY AVENUE,594C5,PUBLIC STREET NAMES
8771,BEVERLY,DR,,BEVERLY DRIVE,592E1,PUBLIC STREET NAMES
8460,BRUNO,ST,,BRUNO STREET,634G2,PUBLIC STREET NAMES
9022,BALCOM,AVE,,BALCOM AVENUE,561B1,PUBLIC STREET NAMES
8922,BAYLOR,ST,,BAYLOR STREET,630H5,PUBLIC STREET NAMES
8926,BAY,ST,,BAY STREET,634H6,PUBLIC STREET NAMES
8466,BROWNSTONE,ST,,BROWNSTONE STREET,503G2,PUBLIC STREET NAMES
9631,BELLEZA,,,BELLEZA,823F7,UNOFFICIAL PRIVATE STREET NAMES
8947,BARTLETT,ST,,BARTLETT STREET,634F2,PUBLIC STREET NAMES
8893,BECKFORD,PL,,BECKFORD PLACE,500G6,PUBLIC STREET NAMES
8897,BEAVER,ST,,BEAVER STREET,482C2,PUBLIC STREET NAMES
786,BANDERA,ST,,BANDERA STREET,674G4,PRIVATE STREET NAMES
8687,BLUCHER,AVE,,BLUCHER AVENUE,531G7,PUBLIC STREET NAMES
10800,BROWNS CREEK,LANE,,BROWNS CREEK LANE,530B2,PRIVATE STREET NAMES
8909,BEACHY,AVE,,BEACHY AVENUE,532D1,PUBLIC STREET NAMES
10349,BAYSIDE,PL,,BAYSIDE PLACE,794B4,PRIVATE STREET NAMES
8541,BRIAR SUMMIT,DR,,BRIAR SUMMIT DRIVE,593A1,PUBLIC STREET NAMES
8721,BLACKHAWK,ST,,BLACKHAWK STREET,501J4,PUBLIC STREET NAMES
8595,BOYNE,ST,,BOYNE STREET,675B2,PUBLIC STREET NAMES
8870,BELHAVEN,ST,,BELHAVEN STREET,704F6,PUBLIC STREET NAMES
8456,BRYAN,AVE,,BRYAN AVENUE,671J6,PUBLIC STREET NAMES
8513,BRIXTON,ROAD,,BRIXTON ROAD,565D6,PUBLIC STREET NAMES
10861,BLACK OAK,CT,,BLACK OAK COURT,501H6,PRIVATE ROADWAY NAMES
8592,BRADDOCK,DR,,BRADDOCK DRIVE,672E5,PUBLIC STREET NAMES
8555,BRENNAN,AVE,,BRENNAN AVENUE,529F6,PUBLIC STREET NAMES
8966,BARNESTON,ST,,BARNESTON STREET,481C7,PUBLIC STREET NAMES
8639,BONFIELD,AVE,,BONFIELD AVENUE,532E2,PUBLIC STREET NAMES
8669,BOARDMAN,LANE,,BOARDMAN LANE,NA,PUBLIC STREET NAMES
8957,BARRINGTON,CT,,BARRINGTON COURT,631H3,PUBLIC STREET NAMES
8516,BRISTOL,CIR,NORTH,BRISTOL CIRCLE NORTH,631E3,PUBLIC STREET NAMES
8430,BULLOCK,ST,,BULLOCK STREET,561A1,PUBLIC STREET NAMES
8941,BASIL,LANE,,BASIL LANE,592A1,PUBLIC STREET NAMES
8622,BORGOS,PL,,BORGOS PLACE,631B6,PUBLIC STREET NAMES
9927,BEL AIR,TER,,BEL AIR TERRACE,592B5,PRIVATE STREET NAMES
8859,BELLA,WAY,,BELLA WAY,NA,PUBLIC STREET NAMES
8983,BARCELONA,DR,,BARCELONA DRIVE,592J3,PUBLIC STREET NAMES
8468,BEL AIR CREST,ROAD,NORTH,BEL AIR CREST ROAD NORTH,591F3,PUBLIC STREET NAMES
10629,BELL CREST,DR,,BELL CREST DRIVE,702C2,PUBLIC STREET NAMES
8696,BLEWETT,AVE,,BLEWETT AVENUE,531F4,PUBLIC STREET NAMES
9600,BIENVENEDA,AVE,,BIENVENEDA AVENUE,630H3,PRIVATE STREET NAMES
8519,BRINGHAM,AVE,,BRINGHAM AVENUE,631H4,PUBLIC STREET NAMES
8494,BROMWICH,PL,,BROMWICH PLACE,502C6,PUBLIC STREET NAMES
9039,BACHRY,PL,,BACHRY PLACE,503F2,PUBLIC STREET NAMES
10706,BILMOOR,CT,,BILMOOR COURT,560F3,PUBLIC STREET NAMES
8831,BENEDICT CANYON,LANE,,BENEDICT CANYON LANE,562B6,PUBLIC STREET NAMES
8774,BETTY LOU,LANE,,BETTY LOU LANE,503J2,PUBLIC STREET NAMES
8557,BREIDT,AVE,,BREIDT AVENUE,504C4,PUBLIC STREET NAMES
8786,BERTHA,ST,,BERTHA STREET,595D2,PUBLIC STREET NAMES
8469,BROWNELL,ST,,BROWNELL STREET,482C7,PUBLIC STREET NAMES
8590,BRADLEY,AVE,,BRADLEY AVENUE,481F3,PUBLIC STREET NAMES
8470,BROWNE,AVE,,BROWNE AVENUE,595D6,PUBLIC STREET NAMES
8465,BROWNWOOD,PL,,BROWNWOOD PLACE,591H1,PUBLIC STREET NAMES
8908,BEACON,AVE,,BEACON AVENUE,634C4,PUBLIC STREET NAMES
9010,BALTIMORE,ST,,BALTIMORE STREET,595A1,PUBLIC STREET NAMES
8988,BARBEE,ST,,BARBEE STREET,635B1,PUBLIC STREET NAMES
8391,BUTTONWILLOW,DR,,BUTTONWILLOW DRIVE,530E3,PUBLIC STREET NAMES
8819,BENTLEY,CIR,,BENTLEY CIRCLE,631J1,PUBLIC STREET NAMES
10816,BAEK,CT,,BAEK COURT,531H4,PRIVATE STREET NAMES
8718,BLACK WALNUT,TR,,BLACK WALNUT TRAIL,504C4,PUBLIC STREET NAMES
9021,BALDWIN,ST,,BALDWIN STREET,635A1,PUBLIC STREET NAMES
8795,BERNARD,ST,,BERNARD STREET,634G1,PUBLIC STREET NAMES
8496,BROMLEY,ST,,BROMLEY STREET,561B1,PUBLIC STREET NAMES
9035,BAGLEY,AVE,,BAGLEY AVENUE,632H5,PUBLIC STREET NAMES
8520,BRIMFIELD,AVE,,BRIMFIELD AVENUE,531H1,PUBLIC STREET NAMES
10902,BELIEVE,LANE,,BELIEVE LANE,502F1,LIMITED ACCESS AREA NAMES
8682,BLUE CANYON,DR,,BLUE CANYON DRIVE,562H6,PUBLIC STREET NAMES
8913,BEACH,CT,,BEACH COURT,671J6,PUBLIC STREET NAMES
8445,BUCCANEER,ST,,BUCCANEER STREET,671H7,PUBLIC STREET NAMES
8907,BEACON,ST,,BEACON STREET,824C4,PUBLIC STREET NAMES
8879,BEIRUT,AVE,,BEIRUT AVENUE,631A6,PUBLIC STREET NAMES
8969,BARNER,AVE,,BARNER AVENUE,482B1,PUBLIC STREET NAMES
8437,BUDAU,PL,,BUDAU PLACE,595E7,PUBLIC STREET NAMES
8428,BULWER,WAY,,BULWER WAY,592J2,PUBLIC STREET NAMES
8781,BESSEMER,ST,,BESSEMER STREET,532E7,PUBLIC STREET NAMES
9841,BRYAN,PL,,BRYAN PLACE,481A6,PUBLIC STREET NAMES
8454,BRYCE,ST,,BRYCE STREET,559G4,PUBLIC STREET NAMES
10608,BARGELLO,WAY,,BARGELLO WAY,500D1,PRIVATE ROADWAY NAMES
8686,BLUCHER,CT,,BLUCHER COURT,531G7,PUBLIC STREET NAMES
8734,BIONA,DR,,BIONA DRIVE,672D3,PUBLIC STREET NAMES
8667,BOBBYBOYAR,AVE,,BOBBYBOYAR AVENUE,529G2,PUBLIC STREET NAMES
8921,BAYPOINT,AVE,,BAYPOINT AVENUE,794E3,PUBLIC STREET NAMES
8935,BATEY,PL,,BATEY PLACE,794A2,PUBLIC STREET NAMES
8484,BROOKE,AVE,,BROOKE AVENUE,499J4,PUBLIC STREET NAMES
8462,BRUGES,AVE,,BRUGES AVENUE,559H4,PUBLIC STREET NAMES
8943,BASE LINE,TR,,BASE LINE TRAIL,593C2,PUBLIC STREET NAMES
8612,BOULDER,ST,,BOULDER STREET,635C4,PUBLIC STREET NAMES
8573,BRANDENBURG,PL,,BRANDENBURG PLACE,560G4,PUBLIC STREET NAMES
8429,BULWER,DR,,BULWER DRIVE,592J2,PUBLIC STREET NAMES
769,BEVERLY RIDGE,DR,,BEVERLY RIDGE DRIVE,562A6,PRIVATE STREET NAMES
770,BEVERLY,PARK,,BEVERLY PARK,592E1,PRIVATE STREET NAMES
8773,BEVERLY,BLVD,,BEVERLY BOULEVARD,634B1,PUBLIC STREET NAMES
752,BRENTRIDGE,LANE,,BRENTRIDGE LANE,591G7,PRIVATE STREET NAMES
8572,BRANFORD,ST,,BRANFORD STREET,502G4,PUBLIC STREET NAMES
8616,BOSWORTH,ST,,BOSWORTH STREET,532D6,PUBLIC STREET NAMES
8746,BIGGY,ST,,BIGGY STREET,635B2,PUBLIC STREET NAMES
8660,BODEN,ST,,BODEN STREET,633A7,PUBLIC STREET NAMES
8514,BRITTANIA,ST,,BRITTANIA STREET,635B3,PUBLIC STREET NAMES
9033,BAILE,AVE,,BAILE AVENUE,500F2,PUBLIC STREET NAMES
8545,BRIARCLIFF,ROAD,,BRIARCLIFF ROAD,593G3,PUBLIC STREET NAMES
8940,BASIN,ST,,BASIN STREET,824A3,PUBLIC STREET NAMES
8920,BAY VIEW,AVE,,BAY VIEW AVENUE,794D4,PUBLIC STREET NAMES
8444,BUCHANAN,ST,,BUCHANAN STREET,595A1,PUBLIC STREET NAMES
8882,BEESON,DR,,BEESON DRIVE,592D3,PUBLIC STREET NAMES
8959,BARRETT,ROAD,,BARRETT ROAD,595F5,PUBLIC STREET NAMES
766,BLAIRWOOD,DR,,BLAIRWOOD DRIVE,562E6,PRIVATE STREET NAMES
8499,BROCKTON,AVE,,BROCKTON AVENUE,631H5,PUBLIC STREET NAMES
8463,BRUCE,CT,,BRUCE COURT,594E7,PUBLIC STREET NAMES
10832,BRUNELLO,WAY,,BRUNELLO WAY,480E6,PRIVATE STREET NAMES
8542,BRIARSTONE,LANE,,BRIARSTONE LANE,529D5,PUBLIC STREET NAMES
8666,BOBOLINK,PL,,BOBOLINK PLACE,592G5,PUBLIC STREET NAMES
8944,BASCULE,AVE,,BASCULE AVENUE,560C3,PUBLIC STREET NAMES
8477,BROOKLYN,PL,,BROOKLYN PLACE,635D5,PUBLIC STREET NAMES
774,BERENICE,PL,,BERENICE PLACE,595B6,PRIVATE STREET NAMES
759,BOULDER RIDGE,TER,,BOULDER RIDGE TERRACE,499H3,PRIVATE STREET NAMES
10249,BALBOA,ROAD,,BALBOA ROAD,481D2,PUBLIC STREET NAMES
8442,BUCKEYE,AVE,,BUCKEYE AVENUE,481J6,PUBLIC STREET NAMES
8925,BAYBERRY,PL,,BAYBERRY PLACE,561F7,PUBLIC STREET NAMES
8705,BLANCHE,PL,,BLANCHE PLACE,481C6,PUBLIC STREET NAMES
8747,BIG CANYON,PL,,BIG CANYON PLACE,823J5,PUBLIC STREET NAMES
8991,BARBARA,CT,,BARBARA COURT,593C1,PUBLIC STREET NAMES
8597,BOYLE,AVE,,BOYLE AVENUE,635A3,PUBLIC STREET NAMES
8394,BUTTE,ST,,BUTTE STREET,601B2,PUBLIC STREET NAMES
775,BENWOOD,LANE,,BENWOOD LANE,NA,PRIVATE STREET NAMES
10722,BOECKMAN,AVE,,BOECKMAN AVENUE,531H1,PRIVATE ROADWAY NAMES
8540,BRIARVALE,LANE,,BRIARVALE LANE,562G7,PUBLIC STREET NAMES
8989,BARBARA ANN,ST,,BARBARA ANN STREET,532D5,PUBLIC STREET NAMES
8509,BROADLAWN,DR,,BROADLAWN DRIVE,563B7,PUBLIC STREET NAMES
8884,BEELER,AVE,,BEELER AVENUE,559E2,PUBLIC STREET NAMES
8492,BRONHOLLY,DR,,BRONHOLLY DRIVE,593G2,PUBLIC STREET NAMES
9630,BAUCHET,ST,,BAUCHET STREET,634H3,UNOFFICIAL PRIVATE STREET NAMES
8642,BONAVITA,DR,,BONAVITA DRIVE,561D5,PUBLIC STREET NAMES
9004,BANDERA,ST,,BANDERA STREET,560C4,PUBLIC STREET NAMES
8556,BRENFORD,ST,,BRENFORD STREET,559G5,PUBLIC STREET NAMES
8752,BEVON,PL,,BEVON PLACE,504B6,PUBLIC STREET NAMES
9037,BADEN,AVE,,BADEN AVENUE,499H5,PUBLIC STREET NAMES
8508,BROADLEAF,AVE,,BROADLEAF AVENUE,532B3,PUBLIC STREET NAMES
8532,BRIDLE RIDGE,ROAD,,BRIDLE RIDGE ROAD,481E2,PUBLIC STREET NAMES
8967,BARNESTON,CT,,BARNESTON COURT,481B7,PUBLIC STREET NAMES
8751,BIANCA,AVE,,BIANCA AVENUE,561B1,PUBLIC STREET NAMES
8996,BANNING,ST,,BANNING STREET,634G4,PUBLIC STREET NAMES
8800,BERMUDA,ST,,BERMUDA STREET,500F3,PUBLIC STREET NAMES
10692,BODEGA,CT,,BODEGA COURT,634J4,PRIVATE ROADWAY NAMES
8933,BATON ROUGE,AVE,,BATON ROUGE AVENUE,500G2,PUBLIC STREET NAMES
8765,BEVERLY GLEN,BLVD,,BEVERLY GLEN BOULEVARD,561J7,PUBLIC STREET NAMES
8630,BONPAS,LANE,,BONPAS LANE,NA,PUBLIC STREET NAMES
8738,BILOXI,AVE,,BILOXI AVENUE,563B4,PUBLIC STREET NAMES
8425,BUNKER HILL,AVE,,BUNKER HILL AVENUE,634F2,PUBLIC STREET NAMES
755,BRADLEY,AVE,,BRADLEY AVENUE,532J1,PRIVATE STREET NAMES
10566,BAY PARK,DR,,BAY PARK DRIVE,702D1,PUBLIC STREET NAMES
8550,BRETT,PL,,BRETT PLACE,823J2,PUBLIC STREET NAMES
8553,BRENTWOOD,ST,,BRENTWOOD STREET,674C6,PUBLIC STREET NAMES
8756,BEVERLY VIEW,DR,,BEVERLY VIEW DRIVE,592C5,PUBLIC STREET NAMES
8433,BUENA VISTA,TER,,BUENA VISTA TERRACE,565D6,PUBLIC STREET NAMES
783,BAUCHET,PL,,BAUCHET PLACE,NA,PRIVATE STREET NAMES
8671,BLYTHE,AVE,,BLYTHE AVENUE,632D6,PUBLIC STREET NAMES
8803,BERKSHIRE,AVE,,BERKSHIRE AVENUE,595G4,PUBLIC STREET NAMES
8517,BRISTOL,AVE,,BRISTOL AVENUE,631F5,PUBLIC STREET NAMES
8877,BEL-AIR,CT,,BEL-AIR COURT,592B5,PUBLIC STREET NAMES
8876,BEL-AIR,PL,,BEL-AIR PLACE,592B5,PUBLIC STREET NAMES
8735,BINKLEY,DR,,BINKLEY DRIVE,NA,PUBLIC STREET NAMES
8961,BARODA,DR,,BARODA DRIVE,592C7,PUBLIC STREET NAMES
8400,BURWOOD,TER,,BURWOOD TERRACE,565D7,PUBLIC STREET NAMES
8650,BOLT,ST,,BOLT STREET,NA,PUBLIC STREET NAMES
9950,BEVERLY PARK,CIR,,BEVERLY PARK CIRCLE,592E1,PRIVATE STREET NAMES
8717,BLACKWELDER,ST,,BLACKWELDER STREET,633A7,PUBLIC STREET NAMES
8953,BARRY,AVE,,BARRY AVENUE,631J4,PUBLIC STREET NAMES
8562,BREED,ST,,BREED STREET,635B4,PUBLIC STREET NAMES
8993,BANYAN,DR,,BANYAN DRIVE,631D1,PUBLIC STREET NAMES
8974,BARLING,ST,,BARLING STREET,503C4,PUBLIC STREET NAMES
8479,BROOKLAWN,DR,,BROOKLAWN DRIVE,592C6,PUBLIC STREET NAMES
8923,BAYLISS,ROAD,,BAYLISS ROAD,631C1,PUBLIC STREET NAMES
8848,BELLOTA,WAY,,BELLOTA WAY,594C2,PUBLIC STREET NAMES
8632,BONNIE HILL,DR,,BONNIE HILL DRIVE,563B7,PUBLIC STREET NAMES
9040,BACH,PL,,BACH PLACE,500H1,PUBLIC STREET NAMES
10579,BEVERLY PARK,DRWY,,BEVERLY PARK DRIVEWAY,592D3,PRIVATE ROADWAY NAMES
8416,BURLINGTON,AVE,,BURLINGTON AVENUE,634D1,PUBLIC STREET NAMES
8649,BOLTON,ROAD,,BOLTON ROAD,632G5,PUBLIC STREET NAMES
8684,BLUEBELL,AVE,,BLUEBELL AVENUE,562E5,PUBLIC STREET NAMES
8641,BONAVITA,PL,,BONAVITA PLACE,561D5,PUBLIC STREET NAMES
8439,BUCKNELL,AVE,,BUCKNELL AVENUE,562G1,PUBLIC STREET NAMES
756,BOX CANYON,ROAD,,BOX CANYON ROAD,499E5,PRIVATE STREET NAMES
8525,BRIGHTWOOD,CT,,BRIGHTWOOD COURT,501C6,PUBLIC STREET NAMES
748,BROOKTREE,ROAD,,BROOKTREE ROAD,631C6,PRIVATE STREET NAMES
8544,BRIARCREST,LANE,,BRIARCREST LANE,592G2,PUBLIC STREET NAMES
9820,BRIARCLIFF,LANE,,BRIARCLIFF LANE,592H1,PRIVATE STREET NAMES
10344,BAYCREST,LANE,,BAYCREST LANE,794B4,PRIVATE STREET NAMES
8952,BARRYKNOLL,DR,,BARRYKNOLL DRIVE,594J1,PUBLIC STREET NAMES
8472,BROOKVIEW,DR,,BROOKVIEW DRIVE,563A5,PUBLIC STREET NAMES
8793,BERNETTA,PL,,BERNETTA PLACE,560G3,PUBLIC STREET NAMES
8904,BEARD,ST,,BEARD STREET,595D1,PUBLIC STREET NAMES
8578,BRAMBLE,WAY,,BRAMBLE WAY,631F1,PUBLIC STREET NAMES
8582,BRAERIDGE,DR,,BRAERIDGE DRIVE,592D5,PUBLIC STREET NAMES
8761,BEVERLY GROVE,DR,,BEVERLY GROVE DRIVE,592C5,PUBLIC STREET NAMES
8403,BURTON,ST,,BURTON STREET,532J2,PUBLIC STREET NAMES
10180,BURNET,AVE,,BURNET AVENUE,531H5,PRIVATE STREET NAMES
8618,BOSTON,ST,,BOSTON STREET,634F2,PUBLIC STREET NAMES
8778,BETH,PL,,BETH PLACE,592D3,PUBLIC STREET NAMES
8772,BEVERLY,CT,,BEVERLY COURT,631H2,PUBLIC STREET NAMES
8901,BEAUDRY,AVE,,BEAUDRY AVENUE,634F2,PUBLIC STREET NAMES
8791,BERRIDGE,ROAD,,BERRIDGE ROAD,NA,PUBLIC STREET NAMES
8654,BOLERO,LANE,,BOLERO LANE,634H2,PUBLIC STREET NAMES
8987,BARBERRY,LANE,,BARBERRY LANE,560E6,PUBLIC STREET NAMES
8422,BURFORD,LANE,,BURFORD LANE,NA,PUBLIC STREET NAMES
10718,BIRCH GROVE,LANE,,BIRCH GROVE LANE,482G7,PRIVATE ROADWAY NAMES
8919,BAYWATER,AVE,,BAYWATER AVENUE,854B1,PUBLIC STREET NAMES
8627,BOONE,AVE,,BOONE AVENUE,671J6,PUBLIC STREET NAMES
8796,BERNARD,AVE,,BERNARD AVENUE,671H4,PUBLIC STREET NAMES
8511,BROADACRE,DR,,BROADACRE DRIVE,533C1,PUBLIC STREET NAMES
8722,BLACKFRIAR,ROAD,,BLACKFRIAR ROAD,559H4,PUBLIC STREET NAMES
8668,BOAZ,ST,,BOAZ STREET,674F2,PUBLIC STREET NAMES
9025,BALBOA,AVE,,BALBOA AVENUE,561D4,PUBLIC STREET NAMES
8930,BAUCHET,ST,,BAUCHET STREET,634H3,PUBLIC STREET NAMES
8651,BOLLINGER,DR,,BOLLINGER DRIVE,630G6,PUBLIC STREET NAMES
8601,BOWMORE,PL,,BOWMORE PLACE,480G6,PUBLIC STREET NAMES
10111,BRIARFIELD,WAY,,BRIARFIELD WAY,560G6,PRIVATE STREET NAMES
8715,BLADES,ST,,BLADES STREET,635C4,PUBLIC STREET NAMES
8827,BEN LOMOND,DR,,BEN LOMOND DRIVE,564C1,PUBLIC STREET NAMES
8867,BELLAGIO,PL,,BELLAGIO PLACE,591J7,PUBLIC STREET NAMES
8866,BELLAGIO,ROAD,,BELLAGIO ROAD,592A7,PUBLIC STREET NAMES
8599,BOYCE,AVE,,BOYCE AVENUE,594D1,PUBLIC STREET NAMES
8415,BURMA,ST,,BURMA STREET,561B1,PUBLIC STREET NAMES
8577,BRAMPTON,ROAD,,BRAMPTON ROAD,565D6,PUBLIC STREET NAMES
10023,BELLA OCEANA VISTA,,,BELLA OCEANA VISTA,630H3,PRIVATE STREET NAMES
8423,BURCHARD,AVE,,BURCHARD AVENUE,633A6,PUBLIC STREET NAMES
8528,BRIGHT,LANE,,BRIGHT LANE,594D4,PUBLIC STREET NAMES
8700,BLEDSOE,AVE,,BLEDSOE AVENUE,672D3,PUBLIC STREET NAMES
8646,BOMER,DR,,BOMER DRIVE,595C3,PUBLIC STREET NAMES
8939,BASSETT,ST,,BASSETT STREET,532E5,PUBLIC STREET NAMES
9001,BANGOR,ST,,BANGOR STREET,633B6,PUBLIC STREET NAMES
8753,BEVIS,AVE,,BEVIS AVENUE,561J2,PUBLIC STREET NAMES
8942,BASHFORD,ST,,BASHFORD STREET,631B5,PUBLIC STREET NAMES
8788,BERRYMAN,AVE,,BERRYMAN AVENUE,672D2,PUBLIC STREET NAMES
8510,BROADACRE,PL,,BROADACRE PLACE,533C1,PUBLIC STREET NAMES
8392,BUTTERFLY,LANE,,BUTTERFLY LANE,595D6,PUBLIC STREET NAMES
8818,BENTON,WAY,,BENTON WAY,594D6,PUBLIC STREET NAMES
8624,BORDEN,AVE,,BORDEN AVENUE,503A6,PUBLIC STREET NAMES
8427,BUNAL,DR,,BUNAL DRIVE,561J6,PUBLIC STREET NAMES
8729,BIRD,ST,,BIRD STREET,635B4,PUBLIC STREET NAMES
8663,BOCA DE CANON,LANE,,BOCA DE CANON LANE,631E1,PUBLIC STREET NAMES
8973,BARLOCK,AVE,,BARLOCK AVENUE,631J1,PUBLIC STREET NAMES
8564,BRAZIL,ST,,BRAZIL STREET,564C5,PUBLIC STREET NAMES
8615,BOTHWELL,ROAD,,BOTHWELL ROAD,560F2,PUBLIC STREET NAMES
8685,BLUE,ST,,BLUE STREET,NA,PUBLIC STREET NAMES
8853,BELLFIELD,WAY,,BELLFIELD WAY,563A7,PUBLIC STREET NAMES
8552,BRENTWOOD,TER,,BRENTWOOD TERRACE,631E5,PUBLIC STREET NAMES
8862,BELLANCA,AVE,,BELLANCA AVENUE,702J3,PUBLIC STREET NAMES
8657,BOHLIG,ROAD,,BOHLIG ROAD,635F1,PUBLIC STREET NAMES
8763,BEVERLY GLEN,PL,,BEVERLY GLEN PLACE,592A3,PUBLIC STREET NAMES
8473,BROOKTREE,ROAD,,BROOKTREE ROAD,631C6,PUBLIC STREET NAMES
8591,BRADFORD,PL,,BRADFORD PLACE,481B6,PUBLIC STREET NAMES
9629,BASSETT,ST,,BASSETT STREET,529H6,UNOFFICIAL PRIVATE STREET NAMES
9632,BIRD,ROAD,,BIRD ROAD,565A7,UNOFFICIAL PRIVATE STREET NAMES
8537,BRIDEWELL,ST,,BRIDEWELL STREET,595E2,PUBLIC STREET NAMES
10657,BALASIANO,AVE,,BALASIANO AVENUE,529G4,PUBLIC STREET NAMES
9034,BAHAMA,ST,,BAHAMA STREET,501D7,PUBLIC STREET NAMES
8617,BOSWELL,PL,,BOSWELL PLACE,481C4,PUBLIC STREET NAMES
8407,BURRELL,PL,,BURRELL PLACE,672A6,PUBLIC STREET NAMES
10577,BELCANTO,,,BELCANTO,591H1,PRIVATE ROADWAY NAMES
8488,BRONWOOD,AVE,,BRONWOOD AVENUE,631H1,PUBLIC STREET NAMES
8672,BLUFFSIDE,DR,,BLUFFSIDE DRIVE,563A6,PUBLIC STREET NAMES
8485,BROOKDALE,ROAD,,BROOKDALE ROAD,592G1,PUBLIC STREET NAMES
8580,BRAEWOOD,DR,,BRAEWOOD DRIVE,560F6,PUBLIC STREET NAMES
789,BALFOUR,LANE,,BALFOUR LANE,559H3,PRIVATE STREET NAMES
8733,BIRCH,ST,,BIRCH STREET,634G7,PUBLIC STREET NAMES
8725,BIXEL,ST,,BIXEL STREET,634E3,PUBLIC STREET NAMES
9031,BAINBRIDGE,AVE,,BAINBRIDGE AVENUE,592B7,PUBLIC STREET NAMES
8764,BEVERLY GLEN,CIR,,BEVERLY GLEN CIRCLE,592A1,PUBLIC STREET NAMES
8620,BORLAND,ROAD,,BORLAND ROAD,635F1,PUBLIC STREET NAMES
10170,BUCKEYE MEADOW,LANE,,BUCKEYE MEADOW LANE,500E1,PRIVATE STREET NAMES
8401,BURWOOD,AVE,,BURWOOD AVENUE,565C7,PUBLIC STREET NAMES
8708,BLAKESLEE,AVE,,BLAKESLEE AVENUE,563A2,PUBLIC STREET NAMES
8958,BARRINGTON,AVE,,BARRINGTON AVENUE,631G2,PUBLIC STREET NAMES
8585,BRAEBURN,WAY,,BRAEBURN WAY,594B2,PUBLIC STREET NAMES
8748,BIG BEND,AVE,,BIG BEND AVENUE,503G2,PUBLIC STREET NAMES
8680,BLUEGRASS,WAY,,BLUEGRASS WAY,631F1,PUBLIC STREET NAMES
8683,BLUEBIRD,AVE,,BLUEBIRD AVENUE,592G5,PUBLIC STREET NAMES
8458,BRUSHTON,ST,,BRUSHTON STREET,673A2,PUBLIC STREET NAMES
8928,BAXTER,ST,,BAXTER STREET,594E5,PUBLIC STREET NAMES
8414,BURNELL,DR,,BURNELL DRIVE,594H4,PUBLIC STREET NAMES
8828,BENJAMIN,AVE,,BENJAMIN AVENUE,703A2,PUBLIC STREET NAMES
8757,BEVERLY RIDGE,DR,,BEVERLY RIDGE DRIVE,562A6,PUBLIC STREET NAMES
8838,BENARES,PL,,BENARES PLACE,533C2,PUBLIC STREET NAMES
9043,BABBITT,AVE,,BABBITT AVENUE,561C1,PUBLIC STREET NAMES
8710,BLAIRWOOD,DR,,BLAIRWOOD DRIVE,562D6,PUBLIC STREET NAMES
9749,BOUQUET,DR,,BOUQUET DRIVE,529F5,PRIVATE ROADWAY NAMES
8868,BELLA,DR,,BELLA DRIVE,592C5,PUBLIC STREET NAMES
8701,BLAUVELT,PL,,BLAUVELT PLACE,531A1,PUBLIC STREET NAMES
10419,BRISA,WAY,,BRISA WAY,NA,PUBLIC STREET NAMES
9026,BAKMAN,AVE,,BAKMAN AVENUE,562J5,PUBLIC STREET NAMES
8489,BRONTE,PL,,BRONTE PLACE,481B4,PUBLIC STREET NAMES
9009,BAMBI,PL,,BAMBI PLACE,481C6,PUBLIC STREET NAMES
8917,BAYWOOD,ST,,BAYWOOD STREET,564C6,PUBLIC STREET NAMES
8638,BONHAM,AVE,,BONHAM AVENUE,482J7,PUBLIC STREET NAMES
8839,BEN,AVE,,BEN AVENUE,562G5,PUBLIC STREET NAMES
8637,BONHILL,ROAD,,BONHILL ROAD,631F1,PUBLIC STREET NAMES
8995,BANNOCKBURN,DR,,BANNOCKBURN DRIVE,632F6,PUBLIC STREET NAMES
746,BRUNSWICK,AVE,,BRUNSWICK AVENUE,NA,PRIVATE STREET NAMES
8503,BROADWAY,,,BROADWAY,671J4,PUBLIC STREET NAMES
9036,BADGER,AVE,,BADGER AVENUE,482C1,PUBLIC STREET NAMES
8916,BAZA,AVE,,BAZA AVENUE,560A3,PUBLIC STREET NAMES
8621,BORIS,DR,,BORIS DRIVE,561A4,PUBLIC STREET NAMES
8505,BROADWAY,,,BROADWAY,634F3,PUBLIC STREET NAMES
10297,BALDWIN VILLA,DRWY,,BALDWIN VILLA DRIVEWAY,673E1,PRIVATE ROADWAY NAMES
10896,BILL ROBERTSON,LANE,,BILL ROBERTSON LANE,674A2,PUBLIC STREET NAMES
9628,BALI,LANE,,BALI LANE,630J6,UNOFFICIAL PRIVATE STREET NAMES
8820,BENTLEY,AVE,,BENTLEY AVENUE,631J1,PUBLIC STREET NAMES
8743,BIG ROCK,TR,,BIG ROCK TRAIL,529E1,PUBLIC STREET NAMES
8745,BIGLER,ST,,BIGLER STREET,559G3,PUBLIC STREET NAMES
10527,BRIARWOOD,CT,,BRIARWOOD COURT,NA,PRIVATE ROADWAY NAMES
8823,BENNER,ST,,BENNER STREET,595C3,PUBLIC STREET NAMES
8720,BLACK OAK,DR,,BLACK OAK DRIVE,593H3,PUBLIC STREET NAMES
753,BRENTRIDGE,DR,,BRENTRIDGE DRIVE,591G7,PRIVATE STREET NAMES
9018,BALLINA CANYON,ROAD,,BALLINA CANYON ROAD,561E6,PUBLIC STREET NAMES
8972,BARLOW,ST,,BARLOW STREET,635B3,PUBLIC STREET NAMES
8633,BONNIE BRAE,ST,,BONNIE BRAE STREET,594D7,PUBLIC STREET NAMES
8949,BARSTOW,ST,,BARSTOW STREET,595E6,PUBLIC STREET NAMES
8805,BERKELEY,CIR,,BERKELEY CIRCLE,594C6,PUBLIC STREET NAMES
8387,BYRON,PL,,BYRON PLACE,592H2,PUBLIC STREET NAMES
8835,BENDA,ST,,BENDA STREET,563D7,PUBLIC STREET NAMES
8681,BLUEGRASS,LANE,,BLUEGRASS LANE,631F1,PUBLIC STREET NAMES
8628,BONVUE,AVE,,BONVUE AVENUE,593J2,PUBLIC STREET NAMES
8975,BARKER,DR,,BARKER DRIVE,565B7,PUBLIC STREET NAMES
782,BAY CLUB,DR,,BAY CLUB DRIVE,630H6,PRIVATE STREET NAMES
8719,BLACKSTONE,CT,,BLACKSTONE COURT,634E5,PUBLIC STREET NAMES
8992,BARBARA,AVE,,BARBARA AVENUE,672C4,PUBLIC STREET NAMES
8607,BOWESFIELD,ST,,BOWESFIELD STREET,673A1,PUBLIC STREET NAMES
8526,BRIGHTWATER,PL,,BRIGHTWATER PLACE,793J2,PUBLIC STREET NAMES
8902,BEATRICE,ST,,BEATRICE STREET,672F6,PUBLIC STREET NAMES
9953,BEVERLY PARK,WAY,,BEVERLY PARK WAY,592E1,PRIVATE STREET NAMES
8731,BIRCHTON,AVE,,BIRCHTON AVENUE,529F6,PUBLIC STREET NAMES
787,BAMBOO,LANE,,BAMBOO LANE,634G2,PRIVATE STREET NAMES
8560,BREEZE,AVE,,BREEZE AVENUE,671G6,PUBLIC STREET NAMES
8695,BLIMP,ST,,BLIMP STREET,594G5,PUBLIC STREET NAMES
10261,BUSINESS PARK,WAY,,BUSINESS PARK WAY,NA,PRIVATE STREET NAMES
750,BRIAR SUMMIT,DR,,BRIAR SUMMIT DRIVE,593A1,PRIVATE STREET NAMES
8390,BYNNER,DR,,BYNNER DRIVE,823H5,PUBLIC STREET NAMES
8704,BLANCO,AVE,,BLANCO AVENUE,559D2,PUBLIC STREET NAMES
8789,BERRY,DR,,BERRY DRIVE,562J6,PUBLIC STREET NAMES
8688,BLOOMWOOD,ROAD,,BLOOMWOOD ROAD,824A2,PUBLIC STREET NAMES
8476,BROOKS,AVE,,BROOKS AVENUE,594G7,PUBLIC STREET NAMES
8699,BLEDSOE,ST,,BLEDSOE STREET,482A2,PUBLIC STREET NAMES
8521,BRILLIANT,WAY,,BRILLIANT WAY,594J2,PUBLIC STREET NAMES
8676,BLUE SAIL,DR,,BLUE SAIL DRIVE,630E5,PUBLIC STREET NAMES
9006,BANCROFT,AVE,,BANCROFT AVENUE,594E4,PUBLIC STREET NAMES
8727,BISMARCK,AVE,,BISMARCK AVENUE,500G3,PUBLIC STREET NAMES
8527,BRIGHTON,AVE,,BRIGHTON AVENUE,633J7,PUBLIC STREET NAMES
8603,BOWMONT,DR,,BOWMONT DRIVE,592G2,PUBLIC STREET NAMES
10376,BEVERLY RANCH,ROAD,,BEVERLY RANCH ROAD,562C7,PUBLIC STREET NAMES
8911,BEACHWOOD,DR,,BEACHWOOD DRIVE,563G7,PUBLIC STREET NAMES
8726,BIXBY,AVE,,BIXBY AVENUE,794B5,PUBLIC STREET NAMES
8851,BELLGAVE,PL,,BELLGAVE PLACE,593A4,PUBLIC STREET NAMES
10535,BELLA VISTA,LANE,,BELLA VISTA LANE,530C7,PRIVATE ROADWAY NAMES
8740,BILMOOR,AVE,,BILMOOR AVENUE,560F3,PUBLIC STREET NAMES
8863,BELLAIRE,AVE,,BELLAIRE AVENUE,562E4,PUBLIC STREET NAMES
8412,BURNHAM,ST,,BURNHAM STREET,631J3,PUBLIC STREET NAMES
8558,BREGER,AVE,,BREGER AVENUE,482C1,PUBLIC STREET NAMES
778,BELLCLAIRE,ST,,BELLCLAIRE STREET,504B3,PRIVATE STREET NAMES
8435,BUENA PARK,DR,,BUENA PARK DRIVE,562H6,PUBLIC STREET NAMES
8837,BEND,DR,,BEND DRIVE,594J2,PUBLIC STREET NAMES
10632,BLUFF TRAIL,ROAD,,BLUFF TRAIL ROAD,702C2,PUBLIC STREET NAMES
8413,BURNET,AVE,,BURNET AVENUE,501H2,PUBLIC STREET NAMES
8963,BARNSDALL,AVE,,BARNSDALL AVENUE,594A4,PUBLIC STREET NAMES
8504,BROADWAY,,,BROADWAY,564J5,PUBLIC STREET NAMES
9576,BROOKMONT,PL,,BROOKMONT PLACE,529E4,PUBLIC STREET NAMES
8787,BERTELLA,DR,,BERTELLA DRIVE,561E4,PUBLIC STREET NAMES
8977,BARHUGH,PL,,BARHUGH PLACE,824A2,PUBLIC STREET NAMES
8822,BENNETT,DR,,BENNETT DRIVE,563C7,PUBLIC STREET NAMES
8397,BUSHWICK,ST,,BUSHWICK STREET,594G2,PUBLIC STREET NAMES
8709,BLAKE,AVE,,BLAKE AVENUE,594G5,PUBLIC STREET NAMES
8702,BLANTYRE,DR,,BLANTYRE DRIVE,592D1,PUBLIC STREET NAMES
8426,BUNDY,DR,,BUNDY DRIVE,591F7,PUBLIC STREET NAMES
8625,BORDEAUX,AVE,,BORDEAUX AVENUE,502A4,PUBLIC STREET NAMES
8443,BUCHET,DR,,BUCHET DRIVE,481E7,PUBLIC STREET NAMES
8777,BETTY,DR,,BETTY DRIVE,595D6,PUBLIC STREET NAMES
8500,BROADWELL,AVE,,BROADWELL AVENUE,794B3,PUBLIC STREET NAMES
8424,BURBANK,BLVD,,BURBANK BOULEVARD,563A1,PUBLIC STREET NAMES
8840,BEMIS,ST,,BEMIS STREET,564C6,PUBLIC STREET NAMES
8749,BIENVENEDA,PL,,BIENVENEDA PLACE,630H3,PUBLIC STREET NAMES
8636,BONITA,ST,,BONITA STREET,824B4,PUBLIC STREET NAMES
8794,BERNARDINE,LANE,,BERNARDINE LANE,NA,PUBLIC STREET NAMES
8524,BRILL,DR,,BRILL DRIVE,562J6,PUBLIC STREET NAMES
8739,BILMOOR,PL,,BILMOOR PLACE,560F3,PUBLIC STREET NAMES
8892,BECKLEY,AVE,,BECKLEY AVENUE,559H3,PUBLIC STREET NAMES
8459,BRUNSWICK,AVE,,BRUNSWICK AVENUE,564C6,PUBLIC STREET NAMES
10015,BRANDON,CT,,BRANDON COURT,501B6,PRIVATE STREET NAMES
8896,BECK,AVE,,BECK AVENUE,562H5,PUBLIC STREET NAMES
9912,BUCKINGHAM,LANE,,BUCKINGHAM LANE,591G2,PRIVATE STREET NAMES
8900,BEAUFAIT,AVE,,BEAUFAIT AVENUE,480H6,PUBLIC STREET NAMES
8548,BREVE,WAY,,BREVE WAY,630F6,PUBLIC STREET NAMES
8754,BEVERWIL,DR,,BEVERWIL DRIVE,632G3,PUBLIC STREET NAMES
8661,BODA,PL,,BODA PLACE,559F3,PUBLIC STREET NAMES
8563,BREAKWATER,DR,,BREAKWATER DRIVE,NA,PUBLIC STREET NAMES
8834,BENECIA,AVE,,BENECIA AVENUE,632D4,PUBLIC STREET NAMES
8850,BELLINGHAM,AVE,,BELLINGHAM AVENUE,562G5,PUBLIC STREET NAMES
9974,BARBACAN,CT,,BARBACAN COURT,NA,PRIVATE STREET NAMES
8565,BRAYTON,PL,,BRAYTON PLACE,565D6,PUBLIC STREET NAMES
760,BOUGHTON,PL,,BOUGHTON PLACE,562F6,PRIVATE STREET NAMES
8782,BERYL,ST,,BERYL STREET,595D6,PUBLIC STREET NAMES
9030,BAIRD,AVE,,BAIRD AVENUE,560J1,PUBLIC STREET NAMES
758,BOWCROFT,ST,,BOWCROFT STREET,673A1,PRIVATE STREET NAMES
8885,BEECH KNOLL,ROAD,,BEECH KNOLL ROAD,592J3,PUBLIC STREET NAMES
8984,BARBYDELL,DR,,BARBYDELL DRIVE,632F7,PUBLIC STREET NAMES
8604,BOWMAN,BLVD,,BOWMAN BOULEVARD,595D7,PUBLIC STREET NAMES
8759,BEVERLY GROVE,PL,,BEVERLY GROVE PLACE,592D5,PUBLIC STREET NAMES
8832,BENEDICT CANYON,DR,,BENEDICT CANYON DRIVE,592B1,PUBLIC STREET NAMES
9042,BABCOCK,AVE,,BABCOCK AVENUE,562F5,PUBLIC STREET NAMES
8964,BARNETT,WAY,,BARNETT WAY,635F1,PUBLIC STREET NAMES
8631,BONNY,LANE,,BONNY LANE,631G3,PUBLIC STREET NAMES
8689,BLOOMINGTON,AVE,,BLOOMINGTON AVENUE,533D3,PUBLIC STREET NAMES
8891,BECKWITH,AVE,,BECKWITH AVENUE,631E4,PUBLIC STREET NAMES
8483,BROOKFIELD,ROAD,,BROOKFIELD ROAD,500C3,PUBLIC STREET NAMES
8945,BARTON,AVE,,BARTON AVENUE,593E6,PUBLIC STREET NAMES
8792,BERQUIST,AVE,,BERQUIST AVENUE,529F7,PUBLIC STREET NAMES
8955,BARRINGTON,WALK,,BARRINGTON WALK,631H2,PUBLIC STREET NAMES
9015,BALMER,DR,,BALMER DRIVE,594D5,PUBLIC STREET NAMES
8613,BOUETT,ST,,BOUETT STREET,594G7,PUBLIC STREET NAMES
9023,BALBOA,PL,,BALBOA PLACE,531D2,PUBLIC STREET NAMES
8596,BOYLSTON,ST,,BOYLSTON STREET,594F7,PUBLIC STREET NAMES
8826,BEN LOMOND,PL,,BEN LOMOND PLACE,594B2,PUBLIC STREET NAMES
8584,BRAEMORE,PL,,BRAEMORE PLACE,480G6,PUBLIC STREET NAMES
10007,BEVERLY GLEN,TER,,BEVERLY GLEN TERRACE,562A7,PRIVATE STREET NAMES
8985,BARBOUR,ST,,BARBOUR STREET,702B3,PUBLIC STREET NAMES
10853,BETTY,CT,,BETTY COURT,530J3,PRIVATE STREET NAMES
8910,BEACHWOOD,TER,,BEACHWOOD TERRACE,593G3,PUBLIC STREET NAMES
764,BLUE GUM,LANE,,BLUE GUM LANE,504B4,PRIVATE STREET NAMES
8762,BEVERLY GREEN,DR,,BEVERLY GREEN DRIVE,632F3,PUBLIC STREET NAMES
8865,BELLAGIO,WAY,,BELLAGIO WAY,631J1,PUBLIC STREET NAMES
9575,BISHOPS,ROAD,,BISHOPS ROAD,634H1,PUBLIC STREET NAMES
8844,BELOIT,AVE,,BELOIT AVENUE,631H2,PUBLIC STREET NAMES
8587,BRADSON,PL,,BRADSON PLACE,672F5,PUBLIC STREET NAMES
8737,BILTMORE,AVE,,BILTMORE AVENUE,482J7,PUBLIC STREET NAMES
8539,BRIARWOOD,DR,,BRIARWOOD DRIVE,561G6,PUBLIC STREET NAMES
10478,BERGREEN,PL,,BERGREEN PLACE,591G1,PRIVATE ROADWAY NAMES
8451,BRYMER,ST,,BRYMER STREET,500H1,PUBLIC STREET NAMES
8875,BEL-AIR,ROAD,,BEL-AIR ROAD,592A4,PUBLIC STREET NAMES
780,BECKFORD,AVE,,BECKFORD AVENUE,500G1,PRIVATE STREET NAMES
10973,BRYANT,LANE,,BRYANT LANE,482B1,PRIVATE ROADWAY NAMES
8821,BENTEL,AVE,,BENTEL AVENUE,631E4,PUBLIC STREET NAMES
8869,BELINDA,ST,,BELINDA STREET,561B4,PUBLIC STREET NAMES
9954,BEVERLY PARK,TER,,BEVERLY PARK TERRACE,592E1,PRIVATE STREET NAMES
8887,BEDILION,ST,,BEDILION STREET,595D6,PUBLIC STREET NAMES
8716,BLADEN,ST,,BLADEN STREET,530E1,PUBLIC STREET NAMES
8732,BIRCHER,ST,,BIRCHER STREET,501E1,PUBLIC STREET NAMES
9014,BALMORAL,LANE,,BALMORAL LANE,529F5,PUBLIC STREET NAMES
8836,BENDA,PL,,BENDA PLACE,563D7,PUBLIC STREET NAMES
9012,BALTAR,ST,,BALTAR STREET,531C2,PUBLIC STREET NAMES
8614,BOTTLEBRUSH,DR,,BOTTLEBRUSH DRIVE,592A1,PUBLIC STREET NAMES
8665,BOBSTONE,DR,,BOBSTONE DRIVE,562C6,PUBLIC STREET NAMES
8833,BENEDICT,ST,,BENEDICT STREET,594F4,PUBLIC STREET NAMES
10341,BAYCREST,CT,,BAYCREST COURT,794B4,PRIVATE STREET NAMES
8643,BONAPARTE,AVE,,BONAPARTE AVENUE,672C6,PUBLIC STREET NAMES
754,BREEZIE,LANE,,BREEZIE LANE,504B4,PRIVATE STREET NAMES
8399,BUSHNELL,WAY,,BUSHNELL WAY,595D4,PUBLIC STREET NAMES
8954,BARROWS,DR,,BARROWS DRIVE,633B3,PUBLIC STREET NAMES
8713,BLAIR,CRES,,BLAIR CRESCENT,563C7,PUBLIC STREET NAMES
8790,BERRY,CT,,BERRY COURT,562H6,PUBLIC STREET NAMES
8690,BLOOMFIELD,ST,,BLOOMFIELD STREET,563B5,PUBLIC STREET NAMES
8697,BLERIOT,AVE,,BLERIOT AVENUE,702H3,PUBLIC STREET NAMES
8905,BEALE,ST,,BEALE STREET,NA,PUBLIC STREET NAMES
781,BEACHWOOD,DR,,BEACHWOOD DRIVE,563G7,PRIVATE STREET NAMES
8980,BARDALE,AVE,,BARDALE AVENUE,824A1,PUBLIC STREET NAMES
8927,BAY,ST,,BAY STREET,672D7,PUBLIC STREET NAMES
8600,BOXWOOD,PL,,BOXWOOD PLACE,532B2,PUBLIC STREET NAMES
8406,BURRELL,ST,,BURRELL STREET,672A6,PUBLIC STREET NAMES
8694,BLINN,AVE,,BLINN AVENUE,794G5,PUBLIC STREET NAMES
8482,BROOKFORD,AVE,,BROOKFORD AVENUE,559G5,PUBLIC STREET NAMES
8802,BERKSHIRE,DR,,BERKSHIRE DRIVE,595G4,PUBLIC STREET NAMES
8779,BESWICK,ST,,BESWICK STREET,635B7,PUBLIC STREET NAMES
8405,BURROUGHS,ROAD,,BURROUGHS ROAD,592G2,PUBLIC STREET NAMES
8487,BRONZE,LANE,,BRONZE LANE,631E1,PUBLIC STREET NAMES
8881,BEETHOVEN,ST,,BEETHOVEN STREET,672A3,PUBLIC STREET NAMES
790,BAIRD,ROAD,,BAIRD ROAD,593A3,PRIVATE STREET NAMES
8692,BLOCK,PL,,BLOCK PLACE,635F1,PUBLIC STREET NAMES
8924,BAYER,PL,,BAYER PLACE,559F2,PUBLIC STREET NAMES
8691,BLOOM,ST,,BLOOM STREET,634H2,PUBLIC STREET NAMES
8775,BETTY,PL,,BETTY PLACE,565C7,PUBLIC STREET NAMES
10260,BLEDSOE,ST,,BLEDSOE STREET,NA,PRIVATE STREET NAMES
9891,BEL AIR CREST,ROAD,SOUTH,BEL AIR CREST ROAD SOUTH,591G3,PRIVATE STREET NAMES
10386,BLACKHAWK,ST,,BLACKHAWK STREET,500H4,PRIVATE STREET NAMES
8523,BRILLIANT,DR,,BRILLIANT DRIVE,594H2,PUBLIC STREET NAMES
8447,BRYN MAWR,ROAD,,BRYN MAWR ROAD,593J2,PUBLIC STREET NAMES
8846,BELMAR,AVE,,BELMAR AVENUE,530F4,PUBLIC STREET NAMES
8522,BRILLIANT,PL,,BRILLIANT PLACE,594H2,PUBLIC STREET NAMES
8852,BELLFLOWER,AVE,,BELLFLOWER AVENUE,562J4,PUBLIC STREET NAMES
741,BYRD,ST,,BYRD STREET,531F3,PRIVATE STREET NAMES
8402,BURTON,WAY,,BURTON WAY,632G1,PUBLIC STREET NAMES
8809,BERGAMO,DR,,BERGAMO DRIVE,561E4,PUBLIC STREET NAMES
9003,BANDINI,ST,,BANDINI STREET,824A4,PUBLIC STREET NAMES
8706,BLANCHARD CANYON,ROAD,,BLANCHARD CANYON ROAD,504C4,PUBLIC STREET NAMES
10157,BEDFORD,LANE,,BEDFORD LANE,501H7,PRIVATE ROADWAY NAMES
8798,BERNADINE,AVE,,BERNADINE AVENUE,529F5,PUBLIC STREET NAMES
8623,BOREL,ST,,BOREL STREET,595C6,PUBLIC STREET NAMES
8849,BELLINO,DR,,BELLINO DRIVE,630F5,PUBLIC STREET NAMES
747,BROWNS CANYON,ROAD,,BROWNS CANYON ROAD,480A4,PRIVATE STREET NAMES
8997,BANNING,BLVD,,BANNING BOULEVARD,794E4,PUBLIC STREET NAMES
744,BUDLONG,AVE,,BUDLONG AVENUE,704A1,PRIVATE STREET NAMES
8864,BELLAGIO,TER,,BELLAGIO TERRACE,591H7,PUBLIC STREET NAMES
8670,BLYTHE,ST,,BLYTHE STREET,532J2,PUBLIC STREET NAMES
8493,BROMWICH,ST,,BROMWICH STREET,502E5,PUBLIC STREET NAMES
8895,BECKETT,ST,,BECKETT STREET,504B4,PUBLIC STREET NAMES
8971,BARMAN,ST,,BARMAN STREET,672F4,PUBLIC STREET NAMES
10406,BEECHTREE,WAY,,BEECHTREE WAY,532C2,PUBLIC STREET NAMES
8436,BUDLONG,AVE,,BUDLONG AVENUE,634A5,PUBLIC STREET NAMES
765,BLOOM,ST,,BLOOM STREET,634H2,PRIVATE STREET NAMES
8845,BELMONT,AVE,,BELMONT AVENUE,634D1,PUBLIC STREET NAMES
8410,BURNS,AVE,,BURNS AVENUE,594A6,PUBLIC STREET NAMES
8873,BELDEN,DR,,BELDEN DRIVE,593F1,PUBLIC STREET NAMES
8843,BEL,TER,,BEL TERRACE,591G6,PUBLIC STREET NAMES
8804,BERKELEY,DR,,BERKELEY DRIVE,672A6,PUBLIC STREET NAMES
8784,BERWICK,ST,,BERWICK STREET,631J3,PUBLIC STREET NAMES
8703,BLANDIN,ST,,BLANDIN STREET,481G5,PUBLIC STREET NAMES
8566,BRAY,ST,,BRAY STREET,672F6,PUBLIC STREET NAMES
8559,BREEZE,CT,,BREEZE COURT,671G6,PUBLIC STREET NAMES
8758,BEVERLY PARK,DR,,BEVERLY PARK DRIVE,NA,PUBLIC STREET NAMES
8714,BLAINE,ST,,BLAINE STREET,634C5,PUBLIC STREET NAMES
8883,BEEMAN,AVE,,BEEMAN AVENUE,562F4,PUBLIC STREET NAMES
768,BIG TUJUNGA CANYON,BLVD,,BIG TUJUNGA CANYON BOULEVARD,NA,PRIVATE STREET NAMES
8768,BEVERLYCREST,DR,,BEVERLYCREST DRIVE,592F4,PUBLIC STREET NAMES
10594,BERINGER,WAY,,BERINGER WAY,500E1,PRIVATE ROADWAY NAMES
749,BRIDGEPORT,DR,,BRIDGEPORT DRIVE,594H4,PRIVATE STREET NAMES
8608,BOWDOIN,ST,,BOWDOIN STREET,631A5,PUBLIC STREET NAMES
8571,BRANTON,PL,,BRANTON PLACE,562B3,PUBLIC STREET NAMES
8912,BEACH,ST,,BEACH STREET,704G2,PUBLIC STREET NAMES
8878,BEJAY,PL,,BEJAY PLACE,824A2,PUBLIC STREET NAMES
9901,BERESFORD,ROAD,,BERESFORD ROAD,562B7,PRIVATE STREET NAMES
9952,BEVERLY PARK,CT,,BEVERLY PARK COURT,592E1,PRIVATE STREET NAMES
8569,BRAWLEY,ST,,BRAWLEY STREET,635E1,PUBLIC STREET NAMES
8767,BEVERLY ESTATE,DR,,BEVERLY ESTATE DRIVE,592C5,PUBLIC STREET NAMES
8799,BERNADETTE,ST,,BERNADETTE STREET,502E3,PUBLIC STREET NAMES
10350,BEVERLY CONNECTION,WAY,,BEVERLY CONNECTION WAY,632J1,PRIVATE ROADWAY NAMES
9823,BONNIE,PL,,BONNIE PLACE,530G4,PRIVATE STREET NAMES
8518,BRINKLEY,AVE,,BRINKLEY AVENUE,631E4,PUBLIC STREET NAMES
8871,BELFORD,AVE,,BELFORD AVENUE,702J2,PUBLIC STREET NAMES
751,BRIARCREST,ROAD,,BRIARCREST ROAD,592G2,PRIVATE STREET NAMES
8937,BATES,AVE,,BATES AVENUE,594B5,PUBLIC STREET NAMES
8744,BIG OAK,DR,,BIG OAK DRIVE,562H6,PUBLIC STREET NAMES
9027,BAKER,ST,,BAKER STREET,634H1,PUBLIC STREET NAMES
8434,BUENAVENTURA,ST,,BUENAVENTURA STREET,560A4,PUBLIC STREET NAMES
8872,BELFAST,DR,,BELFAST DRIVE,592J5,PUBLIC STREET NAMES
8990,BARBARA,ST,,BARBARA STREET,854A1,PUBLIC STREET NAMES
9005,BANDERA,ST,,BANDERA STREET,674G5,PUBLIC STREET NAMES
8888,BEDFORD,ST,,BEDFORD STREET,632J3,PUBLIC STREET NAMES
8723,BLACKBURN,AVE,,BLACKBURN AVENUE,633B1,PUBLIC STREET NAMES
8842,BELTON,DR,,BELTON DRIVE,702E2,PUBLIC STREET NAMES
8857,BELLE,DR,,BELLE DRIVE,592B3,PUBLIC STREET NAMES
767,BLACKFRIAR,ROAD,,BLACKFRIAR ROAD,559H5,PRIVATE STREET NAMES
8968,BARNES,LANE,,BARNES LANE,592J4,PUBLIC STREET NAMES
9041,BABETTE,AVE,,BABETTE AVENUE,672E6,PUBLIC STREET NAMES
8619,BOSQUE,DR,,BOSQUE DRIVE,635F1,PUBLIC STREET NAMES
8766,BEVERLY ESTATE,TER,,BEVERLY ESTATE TERRACE,592C3,PUBLIC STREET NAMES
8677,BLUERIDGE,DR,,BLUERIDGE DRIVE,592D5,PUBLIC STREET NAMES
8936,BATEY,AVE,,BATEY AVENUE,794A2,PUBLIC STREET NAMES
8780,BESTOR,BLVD,,BESTOR BOULEVARD,631A4,PUBLIC STREET NAMES
8389,BYRAM,ST,,BYRAM STREET,NA,PUBLIC STREET NAMES
742,BULL CANYON,ROAD,,BULL CANYON ROAD,481A5,PRIVATE STREET NAMES
8814,BEREA,PL,,BEREA PLACE,631B4,PUBLIC STREET NAMES
743,BUENA VISTA,DR,,BUENA VISTA DRIVE,594H7,PRIVATE STREET NAMES
8448,BRYN MAWR,DR,,BRYN MAWR DRIVE,593F2,PUBLIC STREET NAMES
8858,BELL CANYON,BLVD,,BELL CANYON BOULEVARD,NA,PUBLIC STREET NAMES
8658,BOEING,PL,,BOEING PLACE,702H1,PUBLIC STREET NAMES
8396,BUSINESS CENTER,DR,,BUSINESS CENTER DRIVE,530F1,PUBLIC STREET NAMES
8880,BEGONIA,AVE,,BEGONIA AVENUE,565C7,PUBLIC STREET NAMES
8461,BRUNA,PL,,BRUNA PLACE,593J2,PUBLIC STREET NAMES
8678,BLUE JAY,WAY,,BLUE JAY WAY,592H4,PUBLIC STREET NAMES
8829,BENGAL,ST,,BENGAL STREET,503D2,PUBLIC STREET NAMES
8549,BRETTON,PL,,BRETTON PLACE,559G5,PUBLIC STREET NAMES
8816,BERCLAIR,LANE,,BERCLAIR LANE,560G5,PUBLIC STREET NAMES
8889,BEDFORD,DR,,BEDFORD DRIVE,632F2,PUBLIC STREET NAMES
8431,BULLARD,AVE,,BULLARD AVENUE,595F7,PUBLIC STREET NAMES
8906,BEAGLE,ST,,BEAGLE STREET,595C7,PUBLIC STREET NAMES
10499,BEVERLY RIDGE,TER,,BEVERLY RIDGE TERRACE,592F2,PRIVATE STREET NAMES
8712,BLAIR,DR,,BLAIR DRIVE,563D7,PUBLIC STREET NAMES
8976,BARING CROSS,ST,,BARING CROSS STREET,704B2,PUBLIC STREET NAMES
10988,BROTHERS,LANE,,BROTHERS LANE,532E5,PRIVATE STREET NAMES
9013,BALSAM,AVE,,BALSAM AVENUE,632D4,PUBLIC STREET NAMES
8579,BRAINARD,AVE,,BRAINARD AVENUE,503A1,PUBLIC STREET NAMES
8797,BERNAL,AVE,,BERNAL AVENUE,635C5,PUBLIC STREET NAMES
10301,BETRON,ST,,BETRON STREET,560C3,PUBLIC STREET NAMES
9961,BRANTON,PL,,BRANTON PLACE,NA,PUBLIC STREET NAMES
8395,BUTLER,AVE,,BUTLER AVENUE,631J5,PUBLIC STREET NAMES
8674,BLUFF,PL,,BLUFF PLACE,854B2,PUBLIC STREET NAMES
8810,BERG,ST,,BERG STREET,482C2,PUBLIC STREET NAMES
773,BERGSTROM,PL,,BERGSTROM PLACE,482A2,PRIVATE STREET NAMES
9803,BEECHTREE,LANE,,BEECHTREE LANE,500H3,PRIVATE STREET NAMES
8589,BRADLEY,PL,,BRADLEY PLACE,673A7,PUBLIC STREET NAMES
8915,BEACH,AVE,,BEACH AVENUE,672B5,PUBLIC STREET NAMES
8547,BREVIS,ST,,BREVIS STREET,565C7,PUBLIC STREET NAMES
8813,BERENDO,ST,,BERENDO STREET,634A1,PUBLIC STREET NAMES
8750,BIENVENEDA,AVE,,BIENVENEDA AVENUE,630H3,PUBLIC STREET NAMES
8536,BRIDGE,ST,,BRIDGE STREET,596D3,PUBLIC STREET NAMES
8938,BATAC,ST,,BATAC STREET,500C2,PUBLIC STREET NAMES
8583,BRAEMORE,ROAD,,BRAEMORE ROAD,480G6,PUBLIC STREET NAMES
8981,BARD,ST,,BARD STREET,594F5,PUBLIC STREET NAMES
776,BENTON,WAY,,BENTON WAY,NA,PRIVATE STREET NAMES
8588,BRADNER,PL,,BRADNER PLACE,500G2,PUBLIC STREET NAMES
8886,BEECH,ST,,BEECH STREET,594J5,PUBLIC STREET NAMES
8421,BURGEN,AVE,,BURGEN AVENUE,632G6,PUBLIC STREET NAMES
10289,BROOKMONT,AVE,,BROOKMONT AVENUE,481H6,PUBLIC STREET NAMES
8951,BARRYKNOLL,WALK,,BARRYKNOLL WALK,594H2,PUBLIC STREET NAMES
10078,BAUHANIA,CT,,BAUHANIA COURT,559J1,PRIVATE ROADWAY NAMES
8807,BERGER,PL,,BERGER PLACE,702C2,PUBLIC STREET NAMES
8495,BROMONT,AVE,,BROMONT AVENUE,482C4,PUBLIC STREET NAMES
8899,BEAUMONT,ST,,BEAUMONT STREET,NA,PUBLIC STREET NAMES
762,BOCA DE CANON,LANE,,BOCA DE CANON LANE,631D1,PRIVATE STREET NAMES
10043,BOBBYBOYAR,AVE,,BOBBYBOYAR AVENUE,529G4,PRIVATE STREET NAMES
9016,BALLINGER,ST,,BALLINGER STREET,501D6,PUBLIC STREET NAMES
9032,BAILEY,ST,,BAILEY STREET,634A4,PUBLIC STREET NAMES
8575,BRAND,BLVD,,BRAND BOULEVARD,482D5,PUBLIC STREET NAMES
9029,BAJIO,CT,,BAJIO COURT,561D5,PUBLIC STREET NAMES
8644,BONANZA,ST,,BONANZA STREET,502C5,PUBLIC STREET NAMES
8446,BRYSON,ST,,BRYSON STREET,502D7,PUBLIC STREET NAMES
11031,BIG CANYON,DR,,BIG CANYON DRIVE,503G1,PRIVATE STREET NAMES
8824,BENNER,PL,,BENNER PLACE,561C5,PUBLIC STREET NAMES
8611,BOUNDARY,AVE,,BOUNDARY AVENUE,595C6,PUBLIC STREET NAMES
8515,BRISTOL,CIR,SOUTH,BRISTOL CIRCLE SOUTH,631E4,PUBLIC STREET NAMES
8664,BOCA,AVE,,BOCA AVENUE,635D2,PUBLIC STREET NAMES
8626,BORA BORA,WAY,,BORA BORA WAY,701J1,PUBLIC STREET NAMES
8898,BEAUVAIS,AVE,,BEAUVAIS AVENUE,595A4,PUBLIC STREET NAMES
9020,BALERIA,DR,,BALERIA DRIVE,823G6,PUBLIC STREET NAMES
8568,BRAXTON,PL,,BRAXTON PLACE,481C5,PUBLIC STREET NAMES
10966,BENJAMIN,LANE,,BENJAMIN LANE,501E2,PRIVATE ROADWAY NAMES
8994,BANTAM,PL,,BANTAM PLACE,593B2,PUBLIC STREET NAMES
8998,BANNER,AVE,,BANNER AVENUE,593F5,PUBLIC STREET NAMES
8730,BIRCHWOOD,DR,,BIRCHWOOD DRIVE,632C2,PUBLIC STREET NAMES
8801,BERMAX,AVE,,BERMAX AVENUE,482B1,PUBLIC STREET NAMES
8530,BRIER,AVE,,BRIER AVENUE,594E4,PUBLIC STREET NAMES
8698,BLEEKER,ST,,BLEEKER STREET,481J6,PUBLIC STREET NAMES
8647,BOMBAY,ST,,BOMBAY STREET,482E2,PUBLIC STREET NAMES
10317,BELL CANYON,ROAD,,BELL CANYON ROAD,529C4,PUBLIC STREET NAMES
8724,BIZET,PL,,BIZET PLACE,559G4,PUBLIC STREET NAMES
8450,BRYNHURST,AVE,,BRYNHURST AVENUE,673E5,PUBLIC STREET NAMES
8455,BRYANT,ST,,BRYANT STREET,531D1,PUBLIC STREET NAMES
8931,BATTERY,ST,,BATTERY STREET,824B3,PUBLIC STREET NAMES
8404,BURTON,PL,,BURTON PLACE,531A2,PUBLIC STREET NAMES
8950,BARRYWOOD,AVE,,BARRYWOOD AVENUE,824A1,PUBLIC STREET NAMES
8551,BRENTWOOD GROVE,DR,,BRENTWOOD GROVE DRIVE,591G7,PUBLIC STREET NAMES
8825,BENMORE,TER,,BENMORE TERRACE,631G2,PUBLIC STREET NAMES
9800,BLACKBURN,AVE,,BLACKBURN AVENUE,633C1,PRIVATE STREET NAMES
8594,BRACKEN,ST,,BRACKEN STREET,502D6,PUBLIC STREET NAMES
763,BLUE HEIGHTS,DR,,BLUE HEIGHTS DRIVE,592J4,PRIVATE STREET NAMES
8634,BONNER,AVE,,BONNER AVENUE,562J2,PUBLIC STREET NAMES
8586,BRADWELL,AVE,,BRADWELL AVENUE,481H4,PUBLIC STREET NAMES
8497,BROMLEY,CT,,BROMLEY COURT,561A1,PUBLIC STREET NAMES
8417,BURLINGAME,AVE,,BURLINGAME AVENUE,631E4,PUBLIC STREET NAMES
10965,BENJAMIN,CT,,BENJAMIN COURT,501E3,PRIVATE ROADWAY NAMES
761,BODIE,ST,,BODIE STREET,634J4,PRIVATE STREET NAMES
8776,BETTY,LANE,,BETTY LANE,592F2,PUBLIC STREET NAMES
8546,BREWSTER,DR,,BREWSTER DRIVE,560H3,PUBLIC STREET NAMES
8662,BOCCACCIO,AVE,,BOCCACCIO AVENUE,671J6,PUBLIC STREET NAMES
8561,BREEN,AVE,,BREEN AVENUE,702J2,PUBLIC STREET NAMES
9019,BALLARD,ST,,BALLARD STREET,595E7,PUBLIC STREET NAMES
8655,BOLAS,ST,,BOLAS STREET,631H2,PUBLIC STREET NAMES
9799,BURNSIDE,AVE,,BURNSIDE AVENUE,633C1,PRIVATE STREET NAMES
8711,BLAIRMOORE,ST,,BLAIRMOORE STREET,500C3,PUBLIC STREET NAMES
8531,BRIDLEVALE,DR,,BRIDLEVALE DRIVE,632F6,PUBLIC STREET NAMES
8982,BARCLAY,ST,,BARCLAY STREET,594H6,PUBLIC STREET NAMES
771,BEVERLY,DR,,BEVERLY DRIVE,592D3,PRIVATE STREET NAMES
8576,BRANCH,ST,,BRANCH STREET,595D1,PUBLIC STREET NAMES
8979,BARDWELL,AVE,,BARDWELL AVENUE,532C1,PUBLIC STREET NAMES
8960,BARRANCA,ST,,BARRANCA STREET,594J7,PUBLIC STREET NAMES
8962,BARNSLEY,AVE,,BARNSLEY AVENUE,702J2,PUBLIC STREET NAMES
10278,BLOOM,WALK,,BLOOM WALK,674A1,PRIVATE ROADWAY NAMES
11174,BUCKINGHAM,CT,,BUCKINGHAM COURT,480D7,PRIVATE STREET NAMES
11106,BELLA VISTA,WAY,,BELLA VISTA WAY,480C6,PRIVATE STREET NAMES
11063,BANCROFT,ST,,BANCROFT STREET,594E6,LIMITED ACCESS AREA NAMES
11178,BIRMINGHAM,WAY,,BIRMINGHAM WAY,480D7,PRIVATE STREET NAMES
11151,BONITA,LANE,,BONITA LANE,501J2,LIMITED ACCESS AREA NAMES
10847,BUDDY HOLLY,DR,,BUDDY HOLLY DRIVE,NA,PUBLIC STREET NAMES
11085,BRIAR ROSE,LANE,,BRIAR ROSE LANE,633A6,PRIVATE STREET NAMES
11161,BENTLEY,WAY,,BENTLEY WAY,500D1,PRIVATE STREET NAMES
11191,BARBARA,LANE,,BARBARA LANE,481J2,PRIVATE ROADWAY NAMES
11066,BREWER,TR,,BREWER TRAIL,594F6,LIMITED ACCESS AREA NAMES
11149,BETZ,DR,,BETZ DRIVE,530E1,PRIVATE ROADWAY NAMES
11107,BRINDISI,LANE,,BRINDISI LANE,480C6,PRIVATE STREET NAMES
11065,BLACKBIRDS,WAY,,BLACKBIRDS WAY,594F6,LIMITED ACCESS AREA NAMES
11134,BEACON,PL,,BEACON PLACE,702E1,PRIVATE ROADWAY NAMES
11136,BLOOMFIELD,LANE,,BLOOMFIELD LANE,562E5,LIMITED ACCESS AREA NAMES
11054,BIRCH,LANE,,BIRCH LANE,532B4,LIMITED ACCESS AREA NAMES
11182,BIRCHWOOD,CT,,BIRCHWOOD COURT,481J3,PRIVATE ROADWAY NAMES
11081,BLUE BUTTERFLY,WAY,,BLUE BUTTERFLY WAY,794A6,PRIVATE STREET NAMES
11064,BLACKBIRDS,DR,,BLACKBIRDS DRIVE,594F6,LIMITED ACCESS AREA NAMES
11101,BOWMONT,WAY,,BOWMONT WAY,592G2,PRIVATE STREET NAMES
11223,BALBOA,LANE,,BALBOA LANE,531D5,LIMITED ACCESS AREA NAMES
11228,BATES,CT,,BATES COURT,594B5,LIMITED ACCESS AREA NAMES
11232,BETZ,BLVD,,BETZ BLVD,482C5,PRIVATE ROADWAY NAMES
11237,BEACHWOOD,LANE,,BEACHWOOD LANE,593G5,LIMITED ACCESS AREA NAMES
11252,BALBOA VISTA,WAY,,BALBOA VISTA WAY,531C6,PRIVATE STREET NAMES
11259,BARTH,WAY,,BARTH WAY,594E5,LIMITED ACCESS AREA NAMES
