Street ID,Street Name,Street Suffix,Street Suffix Direction,Official Street Name,Thomas Brothers Map,Street Type
8199,CARMONA,AVE,,CARMONA AVENUE,633C4,PUBLIC STREET NAMES
8295,CAMPBELL,DR,,CAMPBELL DRIVE,672E5,PUBLIC STREET NAMES
735,CALLE DEL JONELA,,,CALLE DEL JONELA,630E1,PRIVATE STREET NAMES
8063,CERVERA,AVE,,CERVERA AVENUE,595A5,PUBLIC STREET NAMES
8054,CHALMERS,DR,,CHALMERS DRIVE,632J3,PUBLIC STREET NAMES
7683,COURT,ST,,COURT STREET,634F3,PUBLIC STREET NAMES
7567,CURSON,AVE,EAST,CURSON AVENUE EAST,632C2,PRIVATE STREET NAMES
7595,CROWNRIDGE,PL,,CROWNRIDGE PLACE,561G6,PUBLIC STREET NAMES
7597,CROWN HILL,AVE,,CROWN HILL AVENUE,634D2,PUBLIC STREET NAMES
7656,CRANFORD,AVE,,CRANFORD AVENUE,502E7,PUBLIC STREET NAMES
7592,CRUCES,ST,,CRUCES STREET,794G4,PUBLIC STREET NAMES
7918,CLARENCE,ST,,CLARENCE STREET,634J5,PUBLIC STREET NAMES
7931,CIRCLE DIAMOND,ROAD,,CIRCLE DIAMOND ROAD,481F2,PUBLIC STREET NAMES
10183,CALLE DEL CIELO,,,CALLE DEL CIELO,630H1,PRIVATE STREET NAMES
8051,CHAMBERLAIN,ST,,CHAMBERLAIN STREET,502A2,PUBLIC STREET NAMES
10368,CELEDON,CK,,CELEDON CREEK,702D1,PUBLIC STREET NAMES
7694,COTTAGE,PL,,COTTAGE PLACE,634D5,PUBLIC STREET NAMES
10040,CALLE ARBOLADA,,,CALLE ARBOLADA,630G1,PRIVATE STREET NAMES
7946,CHIVERS,AVE,,CHIVERS AVENUE,481H2,PUBLIC STREET NAMES
7731,CORDELL,DR,,CORDELL DRIVE,592G5,PUBLIC STREET NAMES
8298,CAMINO REAL,,,CAMINO REAL,595A4,PUBLIC STREET NAMES
7773,COMSTOCK,AVE,,COMSTOCK AVENUE,632B1,PUBLIC STREET NAMES
8268,CANTATA,DR,,CANTATA DRIVE,593D3,PUBLIC STREET NAMES
10442,CAMPUS CENTER,DR,,CAMPUS CENTER DRIVE,672F7,PUBLIC STREET NAMES
8165,CASE,AVE,,CASE AVENUE,533A6,PUBLIC STREET NAMES
8338,CALIFA,ST,,CALIFA STREET,563A1,PUBLIC STREET NAMES
8039,CHANUTE,ST,,CHANUTE STREET,502E3,PUBLIC STREET NAMES
7632,CRESTA,PL,,CRESTA PLACE,632F5,PUBLIC STREET NAMES
8196,CARNEGIE,ST,,CARNEGIE STREET,595D5,PUBLIC STREET NAMES
8067,CERROLA,LANE,,CERROLA LANE,NA,PUBLIC STREET NAMES
7842,COLCHESTER,WAY,,COLCHESTER WAY,500J1,PUBLIC STREET NAMES
7929,CISCO,ST,,CISCO STREET,632G5,PUBLIC STREET NAMES
10761,CASCADE,CT,,CASCADE COURT,502D6,PRIVATE ROADWAY NAMES
10712,COMO,CIR,,COMO CIRCLE,559J2,PRIVATE ROADWAY NAMES
8357,CAITHNESS,ST,,CAITHNESS STREET,480H6,PUBLIC STREET NAMES
10827,CALABRIA,WAY,,CALABRIA WAY,480E6,PRIVATE STREET NAMES
704,CHIANG KAI-SHEK,HWY,,CHIANG KAI-SHEK HIGHWAY,NA,PRIVATE STREET NAMES
701,CINDY,LANE,,CINDY LANE,564J6,PRIVATE STREET NAMES
8152,CASSARA,AVE,,CASSARA AVENUE,503B1,PUBLIC STREET NAMES
8024,CHARLEMONT,AVE,,CHARLEMONT AVENUE,559H5,PUBLIC STREET NAMES
711,CENTURY WOODS,WAY,,CENTURY WOODS WAY,632E4,PRIVATE STREET NAMES
8142,CASTILIAN,DR,,CASTILIAN DRIVE,593D2,PUBLIC STREET NAMES
10865,CONCERT PARK,DR,,CONCERT PARK DRIVE,702D1,PUBLIC STREET NAMES
10089,CORAL PINK,CIR,,CORAL PINK CIRCLE,529J7,PRIVATE ROADWAY NAMES
7594,CROYDON,AVE,,CROYDON AVENUE,702H2,PUBLIC STREET NAMES
7556,CUTTER,ST,,CUTTER STREET,564B4,PUBLIC STREET NAMES
7978,CHEROKEE,AVE,,CHEROKEE AVENUE,593E4,PUBLIC STREET NAMES
8025,CHARL,PL,,CHARL PLACE,592H2,PUBLIC STREET NAMES
716,CATSKILL,ROAD,,CATSKILL ROAD,503C4,PRIVATE STREET NAMES
8117,CATHEDRAL,PL,,CATHEDRAL PLACE,561A5,PUBLIC STREET NAMES
674,CRESTON,WAY,,CRESTON WAY,593F2,PRIVATE STREET NAMES
8332,CALLE DE MADRID,,,CALLE DE MADRID,630G2,PUBLIC STREET NAMES
8055,CHAFFEE,ST,,CHAFFEE STREET,504C4,PUBLIC STREET NAMES
7925,CITY VIEW,AVE,,CITY VIEW AVENUE,635A3,PUBLIC STREET NAMES
7561,CURWOOD,PL,,CURWOOD PLACE,592C3,PUBLIC STREET NAMES
7626,CRESTMOORE,PL,,CRESTMOORE PLACE,594G2,PUBLIC STREET NAMES
7669,COWPER,AVE,,COWPER AVENUE,529E3,PUBLIC STREET NAMES
7930,CIRRUS,WAY,,CIRRUS WAY,529F5,PUBLIC STREET NAMES
10447,CAMPUS CENTER,DR,,CAMPUS CENTER DRIVE,672F7,PRIVATE STREET NAMES
8270,CANTALOUPE,AVE,,CANTALOUPE AVENUE,532B1,PUBLIC STREET NAMES
8304,CAMERON,LANE,,CAMERON LANE,634D5,PUBLIC STREET NAMES
8057,CHADWICK,CIR,,CHADWICK CIRCLE,595E7,PUBLIC STREET NAMES
7971,CHESAPEAKE,AVE,,CHESAPEAKE AVENUE,633D7,PUBLIC STREET NAMES
8200,CARMEN,PL,,CARMEN PLACE,593F3,PUBLIC STREET NAMES
679,CORSAUT,PL,,CORSAUT PLACE,561D4,PRIVATE STREET NAMES
7907,CLARK,ST,,CLARK STREET,592H5,PUBLIC STREET NAMES
9638,CAMINO VEGA,,,CAMINO VEGA,794A6,UNOFFICIAL PRIVATE STREET NAMES
7609,CROFT,AVE,,CROFT AVENUE,593A4,PUBLIC STREET NAMES
8160,CASHMERE,ST,,CASHMERE STREET,631J1,PUBLIC STREET NAMES
8125,CATALON,AVE,,CATALON AVENUE,560C3,PUBLIC STREET NAMES
7696,COSTELLO,AVE,,COSTELLO AVENUE,502A7,PUBLIC STREET NAMES
8124,CATALONIA,AVE,,CATALONIA AVENUE,630G5,PUBLIC STREET NAMES
8225,CARIBETH,DR,,CARIBETH DRIVE,561E7,PUBLIC STREET NAMES
8026,CHARL,LANE,,CHARL LANE,735E7,PUBLIC STREET NAMES
8385,CABALLO,ROAD,,CABALLO ROAD,566J6,PUBLIC STREET NAMES
8340,CALHOUN,AVE,,CALHOUN AVENUE,532B2,PUBLIC STREET NAMES
7771,CONCORD,AVE,,CONCORD AVENUE,595G6,PUBLIC STREET NAMES
8329,CALLEJUELA,DR,,CALLEJUELA DRIVE,592G2,PUBLIC STREET NAMES
7853,COCHRAN,PL,,COCHRAN PLACE,633C5,PUBLIC STREET NAMES
8252,CANYON RIDGE,LANE,,CANYON RIDGE LANE,481C3,PUBLIC STREET NAMES
8177,CARTER,DR,,CARTER DRIVE,595D7,PUBLIC STREET NAMES
9643,CAROLYN,,,CAROLYN,501H2,UNOFFICIAL PRIVATE STREET NAMES
10298,CALLE DE MARISA,,,CALLE DE MARISA,630G1,PRIVATE ROADWAY NAMES
7554,CYNTHIA,AVE,,CYNTHIA AVENUE,595A2,PUBLIC STREET NAMES
8130,CASTLEWOODS,DR,,CASTLEWOODS DRIVE,561G7,PUBLIC STREET NAMES
8322,CALVERT,ST,,CALVERT STREET,533A7,PUBLIC STREET NAMES
720,CARLA,LANE,,CARLA LANE,529G2,PRIVATE STREET NAMES
8315,CAMARILLO,ST,,CAMARILLO STREET,563C3,PUBLIC STREET NAMES
8151,CASSATT,ST,,CASSATT STREET,595D5,PUBLIC STREET NAMES
8186,CARR,LANE,,CARR LANE,635A1,PUBLIC STREET NAMES
7882,CLEOMOORE,AVE,,CLEOMOORE AVENUE,529E6,PUBLIC STREET NAMES
8212,CARLTON,WAY,,CARLTON WAY,593H4,PUBLIC STREET NAMES
9943,CONTINENTAL CITY,DR,WEST,CONTINENTAL CITY DRIVE WEST,NA,PUBLIC STREET NAMES
7689,COUNCIL,ST,,COUNCIL STREET,634B1,PUBLIC STREET NAMES
8121,CATENIA,DR,,CATENIA DRIVE,481D6,PUBLIC STREET NAMES
8356,CAJON,CT,,CAJON COURT,NA,PUBLIC STREET NAMES
7562,CURTS,AVE,,CURTS AVENUE,632H7,PUBLIC STREET NAMES
8261,CANTON,WAY,,CANTON WAY,562H7,PUBLIC STREET NAMES
8216,CARLOS,AVE,,CARLOS AVENUE,593F4,PUBLIC STREET NAMES
8241,CAPPS,AVE,,CAPPS AVENUE,530H2,PUBLIC STREET NAMES
721,CARL,PL,,CARL PLACE,502D2,PRIVATE STREET NAMES
696,COBALT,AVE,,COBALT AVENUE,481J1,PRIVATE STREET NAMES
7741,CORALINE,PL,,CORALINE PLACE,500D3,PUBLIC STREET NAMES
709,CHARLES,ST,,CHARLES STREET,NA,PRIVATE STREET NAMES
7675,COVE,WAY,,COVE WAY,594E5,PUBLIC STREET NAMES
7788,COMET,ST,,COMET STREET,595F1,PUBLIC STREET NAMES
694,COHASSET,ST,,COHASSET STREET,533B4,PRIVATE STREET NAMES
8312,CAMBRIDGE,ST,,CAMBRIDGE STREET,633H5,PUBLIC STREET NAMES
667,CUMMINGS,DR,,CUMMINGS DRIVE,593J3,PRIVATE STREET NAMES
8255,CANYON HEIGHTS,LANE,,CANYON HEIGHTS LANE,593G2,PUBLIC STREET NAMES
7776,COMMUNITY,ST,,COMMUNITY STREET,532G1,PUBLIC STREET NAMES
7659,CRANDALL,ST,,CRANDALL STREET,634C2,PUBLIC STREET NAMES
7605,CROSBY,LANE,,CROSBY LANE,594E7,PUBLIC STREET NAMES
8376,CABRINI,DR,EAST,CABRINI DRIVE EAST,533D3,PUBLIC STREET NAMES
8156,CASITAS,AVE,,CASITAS AVENUE,594E1,PUBLIC STREET NAMES
708,CHATSBORO,DR,,CHATSBORO DRIVE,560C5,PRIVATE STREET NAMES
7843,COLBY,AVE,,COLBY AVENUE,632A5,PUBLIC STREET NAMES
10728,CADILLAC,CT,,CADILLAC COURT,481H4,PRIVATE STREET NAMES
7758,CONSUELO,ROAD,,CONSUELO ROAD,560C5,PUBLIC STREET NAMES
8300,CAMINO DE SOLANA,,,CAMINO DE SOLANA,562A6,PUBLIC STREET NAMES
7923,CLAIRE,AVE,,CLAIRE AVENUE,500G2,PUBLIC STREET NAMES
9851,COYOTE,,,COYOTE,481H1,UNOFFICIAL PRIVATE STREET NAMES
7960,CHEYENNE,ST,,CHEYENNE STREET,500G3,PUBLIC STREET NAMES
8240,CAPRI,DR,,CAPRI DRIVE,631D3,PUBLIC STREET NAMES
7990,CHAUTAUQUA,BLVD,,CHAUTAUQUA BOULEVARD,631B4,PUBLIC STREET NAMES
8383,CABORA,DR,,CABORA DRIVE,702D2,PUBLIC STREET NAMES
8050,CHAMINADE,AVE,,CHAMINADE AVENUE,529F4,PUBLIC STREET NAMES
7635,CREST,DR,,CREST DRIVE,632H3,PUBLIC STREET NAMES
7886,CLEMENT,AVE,,CLEMENT AVENUE,671J6,PUBLIC STREET NAMES
10321,CHALK,HILL,,CHALK HILL,560D2,PRIVATE ROADWAY NAMES
7894,CLEAR VALLEY,DR,,CLEAR VALLEY DRIVE,561F5,PUBLIC STREET NAMES
10295,CALLE MARIA,,,CALLE MARIA,530F3,PRIVATE STREET NAMES
7796,COLWELL,DR,,COLWELL DRIVE,533C3,PUBLIC STREET NAMES
736,CALLE DE ESTRIBO,,,CALLE DE ESTRIBO,590E7,PRIVATE STREET NAMES
8100,CECINA,WAY,,CECINA WAY,592A6,PUBLIC STREET NAMES
7794,COMANCHE,AVE,,COMANCHE AVENUE,500D5,PUBLIC STREET NAMES
7837,COLE,AVE,,COLE AVENUE,593F6,PUBLIC STREET NAMES
7600,CROTHERS,CT,,CROTHERS COURT,529E3,PUBLIC STREET NAMES
7993,CHAUCER,ST,,CHAUCER STREET,594A4,PUBLIC STREET NAMES
7974,CHERRYSTONE,AVE,,CHERRYSTONE AVENUE,532B3,PUBLIC STREET NAMES
8075,CENTURY,PARK,EAST,CENTURY PARK EAST,632E3,PUBLIC STREET NAMES
7619,CRESTWOOD,WAY,,CRESTWOOD WAY,565D7,PUBLIC STREET NAMES
8278,CANDLEWOOD,DR,,CANDLEWOOD DRIVE,482E1,PUBLIC STREET NAMES
8242,CAPITOL,DR,,CAPITOL DRIVE,824B2,PUBLIC STREET NAMES
8260,CANTURA,ST,,CANTURA STREET,562F6,PUBLIC STREET NAMES
12,CABRILLO VILLAS,,,CABRILLO VILLAS,595D4,LIMITED ACCESS AREA NAMES
7685,COURBET,LANE,,COURBET LANE,481C4,PUBLIC STREET NAMES
7708,CORONET,DR,,CORONET DRIVE,561B5,PUBLIC STREET NAMES
8114,CATO,ST,,CATO STREET,595D7,PUBLIC STREET NAMES
8021,CHARLESTON,WAY,,CHARLESTON WAY,563D7,PUBLIC STREET NAMES
7645,CRENSHAW,BLVD,,CRENSHAW BOULEVARD,633F4,PUBLIC STREET NAMES
7903,CLAYBECK,AVE,,CLAYBECK AVENUE,533C3,PUBLIC STREET NAMES
10248,CAPE,TER,,CAPE TERRACE,823J6,PRIVATE ROADWAY NAMES
7845,COLBATH,AVE,,COLBATH AVENUE,502B7,PUBLIC STREET NAMES
718,CASA,DR,,CASA DRIVE,560G3,PRIVATE STREET NAMES
7723,CORINGA,DR,,CORINGA DRIVE,565B7,PUBLIC STREET NAMES
8287,CANADA,ST,,CANADA STREET,594H2,PUBLIC STREET NAMES
7729,CORDERO,AVE,,CORDERO AVENUE,504B6,PUBLIC STREET NAMES
10675,CLYDESDALE,ROAD,,CLYDESDALE ROAD,480H6,PUBLIC STREET NAMES
9850,CEDAR,,,CEDAR,481G1,UNOFFICIAL PRIVATE STREET NAMES
7963,CHEVIOTDALE,PL,,CHEVIOTDALE PLACE,565E7,PUBLIC STREET NAMES
7999,CHATHAM,LANE,,CHATHAM LANE,500J1,PUBLIC STREET NAMES
9655,CORBIN,DR,,CORBIN DRIVE,NA,UNOFFICIAL PRIVATE STREET NAMES
8122,CATAMARAN,ST,,CATAMARAN STREET,671H7,PUBLIC STREET NAMES
672,CRUSADO,LANE,,CRUSADO LANE,635C3,PRIVATE STREET NAMES
7816,COLLINA STRADA,,,COLLINA STRADA,591G2,PUBLIC STREET NAMES
7620,CRESTWOOD,TER,,CRESTWOOD TERRACE,565C7,PUBLIC STREET NAMES
8087,CELTIC,ST,,CELTIC STREET,501G2,PUBLIC STREET NAMES
8221,CARITINA,DR,,CARITINA DRIVE,560G4,PUBLIC STREET NAMES
9911,CARDIGAN,CT,,CARDIGAN COURT,591G2,PRIVATE STREET NAMES
8058,CHADRON,AVE,,CHADRON AVENUE,482D7,PUBLIC STREET NAMES
8136,CASTLE CREST,DR,,CASTLE CREST DRIVE,564J6,PUBLIC STREET NAMES
7662,CRAIG,PL,,CRAIG PLACE,823H5,PUBLIC STREET NAMES
8375,CABRINI,DR,WEST,CABRINI DRIVE WEST,533D2,PUBLIC STREET NAMES
7764,CONNECTICUT,ST,,CONNECTICUT STREET,634C4,PUBLIC STREET NAMES
9652,COPPER,ST,,COPPER STREET,501G2,UNOFFICIAL PRIVATE STREET NAMES
7992,CHAUCER,WALK,,CHAUCER WALK,594H4,PUBLIC STREET NAMES
8034,CHAPIN,WAY,,CHAPIN WAY,503G4,PUBLIC STREET NAMES
7642,CRESCENT,AVE,,CRESCENT AVENUE,824C7,PUBLIC STREET NAMES
7583,CULVER,DR,,CULVER DRIVE,672F4,PUBLIC STREET NAMES
8134,CASTLE HEIGHTS,AVE,,CASTLE HEIGHTS AVENUE,632G7,PUBLIC STREET NAMES
8033,CHAPLIN,AVE,,CHAPLIN AVENUE,561D4,PUBLIC STREET NAMES
7848,COEUR D'ALENE,AVE,,COEUR D'ALENE AVENUE,672A6,PUBLIC STREET NAMES
10918,CHERRY HILL,ST,,CHERRY HILL STREET,502E5,PRIVATE ROADWAY NAMES
7819,COLLETT,AVE,,COLLETT AVENUE,481F7,PUBLIC STREET NAMES
717,CASTAIR,DR,,CASTAIR DRIVE,593B3,PRIVATE STREET NAMES
7573,CUNARD,ST,,CUNARD STREET,564H7,PUBLIC STREET NAMES
7844,COLBERT,AVE,,COLBERT AVENUE,672C2,PUBLIC STREET NAMES
7806,COLONY,CIR,,COLONY CIRCLE,594C2,PUBLIC STREET NAMES
7905,CLAUDINA,AVE,,CLAUDINA AVENUE,633D6,PUBLIC STREET NAMES
8020,CHARLESWORTH,AVE,,CHARLESWORTH AVENUE,532E6,PUBLIC STREET NAMES
10303,COORSGOLD,LANE,,COORSGOLD LANE,480E7,PRIVATE STREET NAMES
8078,CENTRE,ST,,CENTRE STREET,824C4,PUBLIC STREET NAMES
7772,CONCHITA,WAY,,CONCHITA WAY,560F4,PUBLIC STREET NAMES
8299,CAMINO PALMERO,,,CAMINO PALMERO,593C4,PUBLIC STREET NAMES
9,CENTURY PARK,LANE,,CENTURY PARK LANE,632E3,LIMITED ACCESS AREA NAMES
9968,CANDIA,CT,,CANDIA COURT,481A5,PUBLIC STREET NAMES
8081,CENTER,ST,,CENTER STREET,824C3,PUBLIC STREET NAMES
7697,COSTANSO,ST,,COSTANSO STREET,560A2,PUBLIC STREET NAMES
7858,CLYBOURN,AVE,,CLYBOURN AVENUE,501J1,PUBLIC STREET NAMES
8352,CALABASH,ST,,CALABASH STREET,559G4,PUBLIC STREET NAMES
668,CRYSTAL SPRINGS,DR,,CRYSTAL SPRINGS DRIVE,564B5,PRIVATE STREET NAMES
8281,CANDACE,PL,,CANDACE PLACE,565C5,PUBLIC STREET NAMES
8301,CAMINO DE LA RONDA,,,CAMINO DE LA RONDA,562A6,PUBLIC STREET NAMES
8159,CASHMERE,TER,,CASHMERE TERRACE,631J2,PUBLIC STREET NAMES
8072,CERES,AVE,,CERES AVENUE,634G6,PUBLIC STREET NAMES
10093,CLIFFSIDE,CT,,CLIFFSIDE COURT,529E4,PUBLIC STREET NAMES
8080,CENTINELA,AVE,,CENTINELA AVENUE,632A7,PUBLIC STREET NAMES
8373,CABRITO,ROAD,,CABRITO ROAD,532A3,PUBLIC STREET NAMES
7715,CORNING,ST,,CORNING STREET,632J4,PUBLIC STREET NAMES
7584,CULVER,BLVD,,CULVER BOULEVARD,632H7,PUBLIC STREET NAMES
7647,CREEMORE,PL,,CREEMORE PLACE,504C6,PUBLIC STREET NAMES
8197,CARNAVON,WAY,,CARNAVON WAY,594B2,PUBLIC STREET NAMES
7831,COLFAX,AVE,,COLFAX AVENUE,532H7,PUBLIC STREET NAMES
7775,COMPASS,DR,,COMPASS DRIVE,702J1,PUBLIC STREET NAMES
8250,CANYON VISTA,DR,,CANYON VISTA DRIVE,595A4,PUBLIC STREET NAMES
7939,CHURCH,ST,,CHURCH STREET,565F7,PUBLIC STREET NAMES
8007,CHARTERS,AVE,,CHARTERS AVENUE,595A1,PUBLIC STREET NAMES
7688,COUNTESS,PL,,COUNTESS PLACE,561C5,PUBLIC STREET NAMES
7563,CURTIS,ST,,CURTIS STREET,634G1,PUBLIC STREET NAMES
9640,CAMINO VISTA,,,CAMINO VISTA,794A6,UNOFFICIAL PRIVATE STREET NAMES
7998,CHATLAKE,DR,,CHATLAKE DRIVE,529E1,PUBLIC STREET NAMES
8331,CALLE DE PALERMO,,,CALLE DE PALERMO,109F5,PUBLIC STREET NAMES
10076,CARISSA,CT,,CARISSA COURT,559J1,PRIVATE ROADWAY NAMES
7872,CLONLEE,AVE,,CLONLEE AVENUE,481D7,PUBLIC STREET NAMES
10497,CAMMIE,LANE,,CAMMIE LANE,560G2,PRIVATE STREET NAMES
8230,CARDIFF,AVE,,CARDIFF AVENUE,632H3,PUBLIC STREET NAMES
8070,CERRITOS,PL,,CERRITOS PLACE,593E3,PUBLIC STREET NAMES
8006,CHASE,AVE,,CHASE AVENUE,672C5,PUBLIC STREET NAMES
7965,CHETWOOD,DR,,CHETWOOD DRIVE,504A2,PUBLIC STREET NAMES
8068,CERRO GORDO,ST,,CERRO GORDO STREET,594F5,PUBLIC STREET NAMES
10533,CHARLOTTE,CT,,CHARLOTTE COURT,530A4,PUBLIC STREET NAMES
9647,CHESTNUT,,,CHESTNUT,481G1,UNOFFICIAL PRIVATE STREET NAMES
7755,CONVERSE,ST,,CONVERSE STREET,595E6,PUBLIC STREET NAMES
7849,CODY,ROAD,,CODY ROAD,561H6,PUBLIC STREET NAMES
7799,COLUSA,ST,,COLUSA STREET,NA,PUBLIC STREET NAMES
8093,CEDAR LODGE,TER,,CEDAR LODGE TERRACE,594C4,PUBLIC STREET NAMES
7821,COLLEGE VIEW,AVE,,COLLEGE VIEW AVENUE,564J5,PUBLIC STREET NAMES
9829,CLOVER,ROAD,,CLOVER ROAD,502F1,PRIVATE ROADWAY NAMES
8220,CARL,ST,,CARL STREET,482G7,PUBLIC STREET NAMES
10835,CETONA,WAY,,CETONA WAY,480E6,PRIVATE STREET NAMES
703,CHILDS,WAY,,CHILDS WAY,674B1,PRIVATE ROADWAY NAMES
7712,CORONA DEL MAR,,,CORONA DEL MAR,631A7,PUBLIC STREET NAMES
8223,CARILLON,ST,,CARILLON STREET,594F3,PUBLIC STREET NAMES
7973,CHERRYWOOD,AVE,,CHERRYWOOD AVENUE,673F2,PUBLIC STREET NAMES
10622,CHUNG KING,ROAD,,CHUNG KING ROAD,634G2,UNOFFICIAL PRIVATE STREET NAMES
9970,CASCADE CANYON,DR,,CASCADE CANYON DRIVE,481A5,PUBLIC STREET NAMES
7824,COLLEGE CREST,DR,,COLLEGE CREST DRIVE,594H2,PUBLIC STREET NAMES
8381,CABOT,ST,,CABOT STREET,594G5,PUBLIC STREET NAMES
8153,CASSANDRA,ST,,CASSANDRA STREET,560H3,PUBLIC STREET NAMES
8079,CENTRAL,AVE,,CENTRAL AVENUE,674E7,PUBLIC STREET NAMES
7874,CLINTON,ST,,CLINTON STREET,594A7,PUBLIC STREET NAMES
8339,CALIFA,PL,,CALIFA PLACE,560D1,PUBLIC STREET NAMES
10184,CALLE ALICANTE,,,CALLE ALICANTE,NA,PRIVATE STREET NAMES
7792,COMBER,AVE,,COMBER AVENUE,561B4,PUBLIC STREET NAMES
7611,CROCKETT,ST,,CROCKETT STREET,533A2,PUBLIC STREET NAMES
7586,CULEBRA,LANE,,CULEBRA LANE,NA,PUBLIC STREET NAMES
7574,CUMPSTON,ST,,CUMPSTON STREET,563A2,PUBLIC STREET NAMES
7784,COMMERCIAL,CT,,COMMERCIAL COURT,NA,PUBLIC STREET NAMES
7663,CRAIG,DR,,CRAIG DRIVE,563D6,PUBLIC STREET NAMES
719,CARSE,DR,,CARSE DRIVE,593C1,PRIVATE STREET NAMES
691,COLISEUM SOUTH,DR,,COLISEUM SOUTH DRIVE,674B2,PRIVATE STREET NAMES
10186,CALLE BELLEVISTA,,,CALLE BELLEVISTA,630G1,PRIVATE STREET NAMES
7557,CUTLER,PL,,CUTLER PLACE,482D3,PUBLIC STREET NAMES
8180,CARROLL CANAL,CT,,CARROLL CANAL COURT,671H6,PUBLIC STREET NAMES
7787,COMETA,AVE,,COMETA AVENUE,482B4,PUBLIC STREET NAMES
7640,CRESCENT,DR,,CRESCENT DRIVE,592H3,PUBLIC STREET NAMES
7726,CORETTA,AVE,,CORETTA AVENUE,562H1,PUBLIC STREET NAMES
8366,CAERN,AVE,,CAERN AVENUE,503J1,PUBLIC STREET NAMES
9656,CORDELL MUSE,,,CORDELL MUSE,592G5,UNOFFICIAL PRIVATE STREET NAMES
10392,CARMEL CREST,DR,,CARMEL CREST DRIVE,560H6,PRIVATE STREET NAMES
8053,CHALET,TER,,CHALET TERRACE,630H4,PUBLIC STREET NAMES
7730,CORDELL,PL,,CORDELL PLACE,592G5,PUBLIC STREET NAMES
7777,COMMUNITY,CT,,COMMUNITY COURT,531E2,PUBLIC STREET NAMES
7625,CRESTMOORE,PL,,CRESTMOORE PLACE,672A5,PUBLIC STREET NAMES
8178,CARTER,AVE,,CARTER AVENUE,672A6,PUBLIC STREET NAMES
8353,CALABASH,PL,,CALABASH PLACE,559H3,PUBLIC STREET NAMES
8335,CALIMALI,ROAD,,CALIMALI ROAD,560C5,PUBLIC STREET NAMES
8251,CANYON VIEW,DR,,CANYON VIEW DRIVE,631F3,PUBLIC STREET NAMES
8239,CAPRINO,PL,,CAPRINO PLACE,531B4,PUBLIC STREET NAMES
9774,CENTER,DR,WEST,CENTER DRIVE WEST,672H7,PUBLIC STREET NAMES
7847,COHASSET,ST,,COHASSET STREET,533C3,PUBLIC STREET NAMES
7607,CROMWELL,AVE,,CROMWELL AVENUE,594A2,PUBLIC STREET NAMES
7638,CRESCENT,ST,,CRESCENT STREET,595E2,PUBLIC STREET NAMES
10934,COAST GUARD,ROAD,,COAST GUARD ROAD,502E5,PRIVATE STREET NAMES
7588,CUDAHY,ST,,CUDAHY STREET,595D5,PUBLIC STREET NAMES
7801,COLUMBINE,LANE,,COLUMBINE LANE,NA,PUBLIC STREET NAMES
10462,CATANIA,LANE,,CATANIA LANE,500C1,PRIVATE STREET NAMES
9637,CAMINO RASO,,,CAMINO RASO,794A6,UNOFFICIAL PRIVATE STREET NAMES
7916,CLARETTA,ST,,CLARETTA STREET,482F7,PUBLIC STREET NAMES
8094,CEDARHURST,DR,,CEDARHURST DRIVE,594B3,PUBLIC STREET NAMES
710,CERRILOS,DR,,CERRILOS DRIVE,559J4,PRIVATE STREET NAMES
7950,CHIQUITA,ST,,CHIQUITA STREET,563B5,PUBLIC STREET NAMES
8098,CEDARBROOK,DR,,CEDARBROOK DRIVE,592F3,PUBLIC STREET NAMES
7996,CHATSWORTH,ST,,CHATSWORTH STREET,502A3,PUBLIC STREET NAMES
9579,CRABAPPLE,CT,,CRABAPPLE COURT,529D5,PUBLIC STREET NAMES
8249,CANYONWOOD,DR,,CANYONWOOD DRIVE,529C5,PUBLIC STREET NAMES
7877,CLIFFORD,ST,,CLIFFORD STREET,594D6,PUBLIC STREET NAMES
690,COLLINS,ST,,COLLINS STREET,559G1,PRIVATE STREET NAMES
8012,CHARNOCK,AVE,,CHARNOCK AVENUE,632G7,PUBLIC STREET NAMES
10631,COASTAL VIEW,DR,,COASTAL VIEW DRIVE,702C2,PUBLIC STREET NAMES
7957,CHICKORY,LANE,,CHICKORY LANE,591F7,PUBLIC STREET NAMES
10621,CHUNGKING,ROAD,,CHUNGKING ROAD,634G2,PRIVATE STREET NAMES
7767,CONEJO,AVE,,CONEJO AVENUE,559J4,PUBLIC STREET NAMES
7721,CORINTHIAN,DR,,CORINTHIAN DRIVE,563B3,PUBLIC STREET NAMES
9753,CRYSTAL RIDGE,WAY,,CRYSTAL RIDGE WAY,480F6,PRIVATE STREET NAMES
7613,CROCKER,ST,,CROCKER STREET,634F6,PUBLIC STREET NAMES
7762,CONRAD,ST,,CONRAD STREET,565C6,PUBLIC STREET NAMES
7713,CORONA,DR,,CORONA DRIVE,595F4,PUBLIC STREET NAMES
7910,CLARK,AVE,,CLARK AVENUE,563C3,PUBLIC STREET NAMES
7855,COBALT,ST,,COBALT STREET,481J2,PUBLIC STREET NAMES
731,CAMELOT,WAY,,CAMELOT WAY,704E3,PRIVATE STREET NAMES
7793,COMANCHE,PL,,COMANCHE PLACE,530E5,PUBLIC STREET NAMES
740,C,CT,,C COURT,NA,PRIVATE STREET NAMES
8282,CANBY,AVE,,CANBY AVENUE,500J2,PUBLIC STREET NAMES
8000,CHATHAM,DR,,CHATHAM DRIVE,NA,PUBLIC STREET NAMES
7890,CLEARWOOD,CT,,CLEARWOOD COURT,592A1,PUBLIC STREET NAMES
10710,CORE,WAY,,CORE WAY,501H6,PRIVATE ROADWAY NAMES
7828,COLISEUM,PL,,COLISEUM PLACE,673E2,PUBLIC STREET NAMES
687,COMSTOCK,WAY,,COMSTOCK WAY,481J1,PRIVATE STREET NAMES
7984,CHELAN,WAY,,CHELAN WAY,593C1,PUBLIC STREET NAMES
8022,CHARLES,ST,,CHARLES STREET,560G4,PUBLIC STREET NAMES
7904,CLAVEL,CT,,CLAVEL COURT,559J3,PUBLIC STREET NAMES
7917,CLARENDON,ST,,CLARENDON STREET,560B2,PUBLIC STREET NAMES
7707,CORRALITAS,DR,,CORRALITAS DRIVE,594E4,PUBLIC STREET NAMES
7602,CROSS,AVE,,CROSS AVENUE,595A3,PUBLIC STREET NAMES
725,CANTARA,ST,,CANTARA STREET,532H2,PRIVATE STREET NAMES
7610,CROESUS,AVE,,CROESUS AVENUE,704H2,PUBLIC STREET NAMES
10188,CALLE MONTECITO,,,CALLE MONTECITO,630G1,PRIVATE STREET NAMES
7988,CHAYOTE,ST,,CHAYOTE STREET,631H2,PUBLIC STREET NAMES
9750,CRYSTAL HILLS,LANE,,CRYSTAL HILLS LANE,480E6,PRIVATE STREET NAMES
8065,CERRO VISTA,DR,,CERRO VISTA DRIVE,504C6,PUBLIC STREET NAMES
8174,CARY,AVE,,CARY AVENUE,794F6,PUBLIC STREET NAMES
7671,COVINA,ST,,COVINA STREET,595G7,PUBLIC STREET NAMES
673,CROSS ROADS OF THE WORLD,,,CROSS ROADS OF THE WORLD,593E4,PRIVATE STREET NAMES
7681,COURTLAND,ST,,COURTLAND STREET,671J4,PUBLIC STREET NAMES
7945,CHRISTINE,PL,,CHRISTINE PLACE,500F4,PUBLIC STREET NAMES
7807,COLONIAL,AVE,,COLONIAL AVENUE,672B2,PUBLIC STREET NAMES
738,CABIN,ST,,CABIN STREET,NA,PRIVATE STREET NAMES
7884,CLEMONS,DR,,CLEMONS DRIVE,561C7,PUBLIC STREET NAMES
8056,CHADWICK,DR,,CHADWICK DRIVE,595F7,PUBLIC STREET NAMES
7859,CLUNE,AVE,,CLUNE AVENUE,671H7,PUBLIC STREET NAMES
8362,CAHUENGA,BLVD,EAST,CAHUENGA BOULEVARD EAST,593D1,PUBLIC STREET NAMES
7754,CONVOY,ST,,CONVOY STREET,702A3,PUBLIC STREET NAMES
7657,CRANER,AVE,,CRANER AVENUE,533A4,PUBLIC STREET NAMES
8088,CELINDA,PL,,CELINDA PLACE,561E5,PUBLIC STREET NAMES
7927,CITRUS,AVE,,CITRUS AVENUE,593D5,PUBLIC STREET NAMES
8106,CAYUGA,AVE,,CAYUGA AVENUE,502F6,PUBLIC STREET NAMES
10727,COLDWATER CANYON,CT,,COLDWATER CANYON COURT,532E3,PRIVATE STREET NAMES
7805,COLORADO,BLVD,,COLORADO BOULEVARD,565A6,PUBLIC STREET NAMES
9768,CONCOURSE,WAY,,CONCOURSE WAY,703A5,PUBLIC STREET NAMES
7785,COMMERCE,AVE,,COMMERCE AVENUE,504A4,PUBLIC STREET NAMES
9801,CURSON,AVE,,CURSON AVENUE,633C2,PRIVATE STREET NAMES
8328,CALLE VISTA,CIR,,CALLE VISTA CIRCLE,480H7,PUBLIC STREET NAMES
7648,CREEMORE,LANE,,CREEMORE LANE,504C5,PUBLIC STREET NAMES
9867,CHEYENNE,AVE,,CHEYENNE AVENUE,499J1,PRIVATE STREET NAMES
7815,COLLINGWOOD,DR,,COLLINGWOOD DRIVE,592H5,PUBLIC STREET NAMES
7661,CRAIGMITCHELL,LANE,,CRAIGMITCHELL LANE,503C3,PUBLIC STREET NAMES
10924,CAMINO DE YATASTO,,,CAMINO DE YATASTO,590E7,PUBLIC STREET NAMES
8236,CARARD,ST,,CARARD STREET,559E2,PUBLIC STREET NAMES
7728,CORDOVA,CT,,CORDOVA COURT,671H6,PUBLIC STREET NAMES
7902,CLAYMONT,DR,,CLAYMONT DRIVE,631E2,PUBLIC STREET NAMES
666,CUMMINGS,LANE,,CUMMINGS LANE,593J3,PRIVATE STREET NAMES
8030,CHARDON,CIR,,CHARDON CIRCLE,561A5,PUBLIC STREET NAMES
10291,CREST,AVE,,CREST AVENUE,481H6,PUBLIC STREET NAMES
8184,CARRIZAL,ROAD,,CARRIZAL ROAD,560B6,PUBLIC STREET NAMES
7975,CHERRY,ST,,CHERRY STREET,634C5,PUBLIC STREET NAMES
8311,CAMDEN,AVE,,CAMDEN AVENUE,632B5,PUBLIC STREET NAMES
684,COOK,ROAD,,COOK ROAD,560G3,PRIVATE STREET NAMES
8203,CARMEL,WAY,,CARMEL WAY,633A3,PUBLIC STREET NAMES
7934,CINCINNATI,ST,,CINCINNATI STREET,635B4,PUBLIC STREET NAMES
7841,COLDEN,AVE,,COLDEN AVENUE,704B4,PUBLIC STREET NAMES
10130,CITY VISTA,DR,,CITY VISTA DRIVE,591F4,PRIVATE ROADWAY NAMES
7953,CHILE,ST,,CHILE STREET,595C7,PUBLIC STREET NAMES
7674,COVELLO,ST,,COVELLO STREET,533C3,PUBLIC STREET NAMES
9812,CUMBRE ALTA,CT,,CUMBRE ALTA COURT,630G2,PUBLIC STREET NAMES
8110,CAVANAGH,CIR,,CAVANAGH CIRCLE,635F1,PUBLIC STREET NAMES
8168,CASALE,ROAD,,CASALE ROAD,631D3,PUBLIC STREET NAMES
7673,COVENTRY,PL,,COVENTRY PLACE,632D7,PUBLIC STREET NAMES
7711,CORONADO,ST,,CORONADO STREET,594D6,PUBLIC STREET NAMES
8232,CARDAMINE,PL,,CARDAMINE PLACE,503J2,PUBLIC STREET NAMES
8141,CASTILLO,LANE,,CASTILLO LANE,480H7,PUBLIC STREET NAMES
9634,CAMINO DE MAYO,,,CAMINO DE MAYO,794A6,UNOFFICIAL PRIVATE STREET NAMES
7912,CLARINGTON,AVE,,CLARINGTON AVENUE,632F7,PUBLIC STREET NAMES
10746,CACTI,CT,,CACTI COURT,502A6,PRIVATE ROADWAY NAMES
7977,CHEROKEE,LANE,,CHEROKEE LANE,592F3,PUBLIC STREET NAMES
7752,COOLIDGE,AVE,,COOLIDGE AVENUE,594F4,PUBLIC STREET NAMES
8064,CERVANTES,PL,,CERVANTES PLACE,593C2,PUBLIC STREET NAMES
10525,CABALLERO,CT,,CABALLERO COURT,560J4,PRIVATE STREET NAMES
8015,CHARMEL,LANE,,CHARMEL LANE,630G3,PUBLIC STREET NAMES
8217,CARLING,WAY,,CARLING WAY,633E2,PUBLIC STREET NAMES
7782,COMMODORE,ST,,COMMODORE STREET,595C7,PUBLIC STREET NAMES
8235,CARAVANA,ROAD,,CARAVANA ROAD,560C5,PUBLIC STREET NAMES
8123,CATALPA,ST,,CATALPA STREET,635D2,PUBLIC STREET NAMES
9639,CAMINO VERDE,,,CAMINO VERDE,794A6,UNOFFICIAL PRIVATE STREET NAMES
8273,CANOGA,AVE,,CANOGA AVENUE,500B5,PUBLIC STREET NAMES
7951,CHIPPEWA,ST,,CHIPPEWA STREET,482D5,PUBLIC STREET NAMES
9602,COLINA,WAY,,COLINA WAY,592A1,PRIVATE STREET NAMES
10299,CALLE DE CATALINA,,,CALLE DE CATALINA,630G1,PRIVATE ROADWAY NAMES
8091,CEDROS,AVE,,CEDROS AVENUE,501J4,PUBLIC STREET NAMES
9886,CALIFA,ST,,CALIFA STREET,560G1,PRIVATE STREET NAMES
8071,CERRILLOS,DR,,CERRILLOS DRIVE,559J3,PUBLIC STREET NAMES
10373,CRESCENT,PARK,EAST,CRESCENT PARK EAST,702D1,PUBLIC STREET NAMES
7778,COMMONWEALTH,PL,,COMMONWEALTH PLACE,594B7,PUBLIC STREET NAMES
9649,COCO,PL,,COCO PLACE,630J6,UNOFFICIAL PRIVATE STREET NAMES
7558,CUSTER,AVE,,CUSTER AVENUE,634F2,PUBLIC STREET NAMES
8320,CALVIN,AVE,,CALVIN AVENUE,632E4,PUBLIC STREET NAMES
7964,CHEVIOT,DR,,CHEVIOT DRIVE,632E6,PUBLIC STREET NAMES
10292,CANYON HILL,AVE,,CANYON HILL AVENUE,481G6,PUBLIC STREET NAMES
8189,CARONDELET,ST,,CARONDELET STREET,634C1,PUBLIC STREET NAMES
8263,CANTON,LANE,,CANTON LANE,562H7,PUBLIC STREET NAMES
10523,CHARDONNAY,CT,,CHARDONNAY COURT,533C2,PRIVATE STREET NAMES
8228,CARDINAL,ST,,CARDINAL STREET,634J2,PUBLIC STREET NAMES
686,CONTOUR,ROAD,,CONTOUR ROAD,NA,PRIVATE STREET NAMES
682,CORBETT,ST,,CORBETT STREET,673A1,PRIVATE STREET NAMES
7765,CONGRESS,AVE,,CONGRESS AVENUE,633J6,PUBLIC STREET NAMES
8303,CAMINITO,PL,,CAMINITO PLACE,560H4,PUBLIC STREET NAMES
8313,CAMBRIA,ST,,CAMBRIA STREET,634C4,PUBLIC STREET NAMES
7981,CHELTENHAM,WALK,,CHELTENHAM WALK,562D6,PUBLIC STREET NAMES
10065,COUNTRY HILL,LANE,,COUNTRY HILL LANE,591F4,PRIVATE STREET NAMES
728,CANBY,AVE,,CANBY AVENUE,530J2,PRIVATE STREET NAMES
8262,CANTON,PL,,CANTON PLACE,562H7,PUBLIC STREET NAMES
7909,CLARK,DR,,CLARK DRIVE,623H1,PUBLIC STREET NAMES
8144,CASTELLO,AVE,,CASTELLO AVENUE,632F3,PUBLIC STREET NAMES
7864,CLUB,DR,,CLUB DRIVE,600E7,PUBLIC STREET NAMES
7603,CROSNOE,AVE,,CROSNOE AVENUE,532C2,PUBLIC STREET NAMES
10623,CHUNG KING,CT,,CHUNG KING COURT,634G2,UNOFFICIAL PRIVATE STREET NAMES
7897,CLEARFIELD,AVE,,CLEARFIELD AVENUE,532B3,PUBLIC STREET NAMES
8048,CHANDELEUR,DR,,CHANDELEUR DRIVE,823H5,PUBLIC STREET NAMES
7840,COLDSTREAM,TER,,COLDSTREAM TERRACE,560F5,PUBLIC STREET NAMES
726,CANNERY,ST,,CANNERY STREET,824D5,PRIVATE STREET NAMES
8294,CAMPDELL,ST,,CAMPDELL STREET,702B3,PUBLIC STREET NAMES
7952,CHIMINEAS,AVE,,CHIMINEAS AVENUE,480J7,PUBLIC STREET NAMES
7745,COQUETTE,PL,,COQUETTE PLACE,560G5,PUBLIC STREET NAMES
7679,COURTNEY,AVE,,COURTNEY AVENUE,593B4,PUBLIC STREET NAMES
9651,COONS,ROAD,,COONS ROAD,565A7,UNOFFICIAL PRIVATE STREET NAMES
7599,CROWLEY,ST,,CROWLEY STREET,502D7,PUBLIC STREET NAMES
9993,CALLE PATRICIA,,,CALLE PATRICIA,630G1,PUBLIC STREET NAMES
8052,CHALON,ROAD,,CHALON ROAD,592A6,PUBLIC STREET NAMES
7865,CLOY,AVE,,CLOY AVENUE,671J6,PUBLIC STREET NAMES
7936,CIELO,DR,,CIELO DRIVE,592C5,PUBLIC STREET NAMES
7756,CONTOUR,DR,,CONTOUR DRIVE,562C5,PUBLIC STREET NAMES
8038,CHAPALA,DR,,CHAPALA DRIVE,631B6,PUBLIC STREET NAMES
7655,CRANSTON,AVE,,CRANSTON AVENUE,482B2,PUBLIC STREET NAMES
729,CANAL,AVE,,CANAL AVENUE,824F1,PRIVATE STREET NAMES
9913,CLAYGATE,CT,,CLAYGATE COURT,591G2,PRIVATE STREET NAMES
7926,CITY TERRACE,DR,,CITY TERRACE DRIVE,635D4,PUBLIC STREET NAMES
7915,CLARIDGE,DR,,CLARIDGE DRIVE,592D5,PUBLIC STREET NAMES
9804,CLARIDGE,ROAD,,CLARIDGE ROAD,500H3,PRIVATE STREET NAMES
7719,CORK,PL,,CORK PLACE,481J7,PUBLIC STREET NAMES
8037,CHAPARAL,ST,,CHAPARAL STREET,631G2,PUBLIC STREET NAMES
698,CLOCK,ST,,CLOCK STREET,634G6,PRIVATE STREET NAMES
7920,CLARAY,DR,,CLARAY DRIVE,592A2,PUBLIC STREET NAMES
7863,CLUB,PL,,CLUB PLACE,632F5,PUBLIC STREET NAMES
8364,CAHILL,AVE,,CAHILL AVENUE,560G1,PUBLIC STREET NAMES
671,CRYSTAL GLEN,WAY,,CRYSTAL GLEN WAY,480F6,PRIVATE STREET NAMES
8107,CAVERNA,DR,,CAVERNA DRIVE,593C1,PUBLIC STREET NAMES
8149,CASTAC,PL,,CASTAC PLACE,633H5,PUBLIC STREET NAMES
8163,CASEY,PL,,CASEY PLACE,824A2,PUBLIC STREET NAMES
8135,CASTLEGATE,DR,,CASTLEGATE DRIVE,631F1,PUBLIC STREET NAMES
10538,CARUSO,PL,,CARUSO PLACE,633B1,PRIVATE ROADWAY NAMES
8085,CENSOR,AVE,,CENSOR AVENUE,594A3,PUBLIC STREET NAMES
7714,CORNWELL,ST,,CORNWELL STREET,635B3,PUBLIC STREET NAMES
8112,CATTARAUGUS,AVE,,CATTARAUGUS AVENUE,632G6,PUBLIC STREET NAMES
8042,CHANNEL,ST,,CHANNEL STREET,824A3,PUBLIC STREET NAMES
7911,CLARISSA,AVE,,CLARISSA AVENUE,594A3,PUBLIC STREET NAMES
7725,COREYELL,PL,,COREYELL PLACE,592H1,PUBLIC STREET NAMES
7637,CRESCENT HEIGHTS,BLVD,,CRESCENT HEIGHTS BOULEVARD,593A4,PUBLIC STREET NAMES
8275,CANFIELD,AVE,,CANFIELD AVENUE,600J4,PUBLIC STREET NAMES
8150,CASSIL,PL,,CASSIL PLACE,593E4,PUBLIC STREET NAMES
8254,CANYON LAKE,DR,,CANYON LAKE DRIVE,563F7,PUBLIC STREET NAMES
8003,CHASTAIN,AVE,,CHASTAIN AVENUE,531A3,PUBLIC STREET NAMES
7870,CLOVER,AVE,,CLOVER AVENUE,632D7,PUBLIC STREET NAMES
8103,CAZAUX,DR,,CAZAUX DRIVE,593G2,PUBLIC STREET NAMES
7590,CRYSTAL VIEW,DR,,CRYSTAL VIEW DRIVE,504B5,PUBLIC STREET NAMES
8198,CARNATION,AVE,,CARNATION AVENUE,594C5,PUBLIC STREET NAMES
8195,CAROB,DR,,CAROB DRIVE,593B2,PUBLIC STREET NAMES
7695,COTNER,AVE,,COTNER AVENUE,632C7,PUBLIC STREET NAMES
10699,CAROL,LANE,,CAROL LANE,481F2,PUBLIC STREET NAMES
10037,CRILLON,CT,,CRILLON COURT,NA,PRIVATE ROADWAY NAMES
7834,COLE CREST,DR,,COLE CREST DRIVE,592J4,PUBLIC STREET NAMES
8043,CHANNEL,LANE,,CHANNEL LANE,631B7,PUBLIC STREET NAMES
10754,CANTER,LANE,,CANTER LANE,503C7,PUBLIC STREET NAMES
8176,CARTHAGE,ST,,CARTHAGE STREET,631A5,PUBLIC STREET NAMES
8158,CASIANO,CT,,CASIANO COURT,591G1,PUBLIC STREET NAMES
7813,COLLINS,PL,,COLLINS PLACE,560C1,PUBLIC STREET NAMES
7608,CROMER,PL,,CROMER PLACE,560C2,PUBLIC STREET NAMES
7744,CORA,ST,,CORA STREET,503H4,PUBLIC STREET NAMES
8204,CARMEL,ST,,CARMEL STREET,594A1,PUBLIC STREET NAMES
7835,COLEBROOK,ST,,COLEBROOK STREET,503A4,PUBLIC STREET NAMES
9633,CAMINO DE CARO,,,CAMINO DE CARO,794A6,UNOFFICIAL PRIVATE STREET NAMES
8082,CENTER,ST,,CENTER STREET,634H4,PUBLIC STREET NAMES
7808,COLON,ST,,COLON STREET,794H4,PUBLIC STREET NAMES
8316,CAMARILLO,PL,,CAMARILLO PLACE,563C3,PUBLIC STREET NAMES
10,CENTURY,HILL,,CENTURY HILL,632E4,LIMITED ACCESS AREA NAMES
8269,CANTARA,ST,,CANTARA STREET,533B2,PUBLIC STREET NAMES
7791,COMERCIO,AVE,,COMERCIO AVENUE,560B3,PUBLIC STREET NAMES
10899,CARARRA,LANE,,CARARRA LANE,500C1,PRIVATE ROADWAY NAMES
8227,CARDWELL,PL,,CARDWELL PLACE,593A1,PUBLIC STREET NAMES
8349,CALAHAN,ST,,CALAHAN STREET,502A7,PUBLIC STREET NAMES
8173,CASA,DR,,CASA DRIVE,560G3,PUBLIC STREET NAMES
7709,CORONEL,ST,,CORONEL STREET,634G1,PUBLIC STREET NAMES
7871,CLOUD,LANE,,CLOUD LANE,591E7,PUBLIC STREET NAMES
10524,CABERNET,CT,,CABERNET COURT,533C2,PRIVATE STREET NAMES
9828,CUESTA LINDA,DR,,CUESTA LINDA DRIVE,630G1,PUBLIC STREET NAMES
10860,COFLER,LANE,,COFLER LANE,562F3,PRIVATE STREET NAMES
7693,COTTAGE HOME,ST,,COTTAGE HOME STREET,634G1,PUBLIC STREET NAMES
8226,CAREY,ST,,CAREY STREET,631B5,PUBLIC STREET NAMES
739,C,WALK,,C WALK,NA,PRIVATE STREET NAMES
7956,CHICO,ST,,CHICO STREET,633F7,PUBLIC STREET NAMES
9636,CAMINO LARGO,,,CAMINO LARGO,794A6,UNOFFICIAL PRIVATE STREET NAMES
8345,CALDERON,ROAD,,CALDERON ROAD,539H3,PUBLIC STREET NAMES
7875,CLIFTON,ST,,CLIFTON STREET,595B7,PUBLIC STREET NAMES
8363,CAHUENGA,BLVD,,CAHUENGA BOULEVARD,533B7,PUBLIC STREET NAMES
8256,CANYONBACK,ROAD,,CANYONBACK ROAD,591E4,PUBLIC STREET NAMES
7664,CRAGGY VIEW,ST,,CRAGGY VIEW STREET,500A4,PUBLIC STREET NAMES
8302,CAMINO DE LA CUMBRE,,,CAMINO DE LA CUMBRE,562B5,PUBLIC STREET NAMES
7804,COLT,ST,,COLT STREET,501C2,PUBLIC STREET NAMES
8219,CARLETON,AVE,,CARLETON AVENUE,594H5,PUBLIC STREET NAMES
10933,CIRCLE,WAY,,CIRCLE WAY,702G5,PRIVATE STREET NAMES
8155,CASPAR,AVE,,CASPAR AVENUE,565A5,PUBLIC STREET NAMES
7932,CIRCLE,DR,,CIRCLE DRIVE,562A2,PUBLIC STREET NAMES
7601,CROSSON,DR,,CROSSON DRIVE,559E1,PUBLIC STREET NAMES
7579,CUMBRE,DR,,CUMBRE DRIVE,823H6,PUBLIC STREET NAMES
9845,COURTYARD,PL,,COURTYARD PLACE,633C3,PRIVATE STREET NAMES
8382,CABORA,WALK,,CABORA WALK,702B2,PUBLIC STREET NAMES
9751,CRYSTAL HILLS,DR,,CRYSTAL HILLS DRIVE,480E6,PRIVATE STREET NAMES
9788,COLGATE,AVE,,COLGATE AVENUE,633B2,PUBLIC STREET NAMES
7687,COUNTRY CLUB,DR,,COUNTRY CLUB DRIVE,633F4,PUBLIC STREET NAMES
7986,CHELAN,DR,,CHELAN DRIVE,593C2,PUBLIC STREET NAMES
8292,CAMPO,ROAD,,CAMPO ROAD,560B2,PUBLIC STREET NAMES
8132,CASTLEMAN,AVE,,CASTLEMAN AVENUE,595E7,PUBLIC STREET NAMES
8120,CATENIA,PL,,CATENIA PLACE,481D6,PUBLIC STREET NAMES
7789,COMERCIO,WAY,,COMERCIO WAY,560B3,PUBLIC STREET NAMES
8092,CEDARVALE,ROAD,,CEDARVALE ROAD,504A5,PUBLIC STREET NAMES
8325,CALMAR,CT,,CALMAR COURT,632D3,PUBLIC STREET NAMES
8138,CASTLEBAY,LANE,,CASTLEBAY LANE,480G6,PUBLIC STREET NAMES
7710,CORONADO,TER,,CORONADO TERRACE,594D7,PUBLIC STREET NAMES
9658,CRESTVIEW,LANE,,CRESTVIEW LANE,481G7,UNOFFICIAL PRIVATE STREET NAMES
8286,CANAL,CT,,CANAL COURT,671J7,PUBLIC STREET NAMES
10551,CHANTECLAIR,CT,,CHANTECLAIR COURT,503J2,PRIVATE STREET NAMES
7591,CRYSTAL,ST,,CRYSTAL STREET,594H3,PUBLIC STREET NAMES
723,CANYON,DR,,CANYON DRIVE,593G1,PRIVATE STREET NAMES
8131,CASTLE PEAK,DR,,CASTLE PEAK DRIVE,529C5,PUBLIC STREET NAMES
10227,CRESTKNOLL,DR,,CRESTKNOLL DRIVE,481H7,PUBLIC STREET NAMES
8172,CASA,LANE,,CASA LANE,480H7,PUBLIC STREET NAMES
8319,CALZADILLA,PL,,CALZADILLA PLACE,560G4,PUBLIC STREET NAMES
7862,CLUB HOUSE,AVE,,CLUB HOUSE AVENUE,671G6,PUBLIC STREET NAMES
733,CALLE PEDRO INFANTE,,,CALLE PEDRO INFANTE,635B6,PRIVATE STREET NAMES
8018,CHARLTON,LANE,,CHARLTON LANE,480J7,PUBLIC STREET NAMES
8346,CALCUTTA,ST,,CALCUTTA STREET,482C3,PUBLIC STREET NAMES
8351,CALADA,ST,,CALADA STREET,676G2,PUBLIC STREET NAMES
8166,CASCADA,WAY,,CASCADA WAY,591H7,PUBLIC STREET NAMES
8237,CARA,PL,,CARA PLACE,824A3,PUBLIC STREET NAMES
10874,COMMERCE,WAY,,COMMERCE WAY,502B1,PRIVATE STREET NAMES
8162,CASH,TR,,CASH TRAIL,593D1,PUBLIC STREET NAMES
7555,CYMBAL,LANE,,CYMBAL LANE,NA,PUBLIC STREET NAMES
8367,CADMAN,DR,,CADMAN DRIVE,594C1,PUBLIC STREET NAMES
8108,CAVENDISH,DR,,CAVENDISH DRIVE,632F6,PUBLIC STREET NAMES
9752,CRYSTAL HILLS,WAY,,CRYSTAL HILLS WAY,480F6,PRIVATE STREET NAMES
8028,CHARITON,ST,,CHARITON STREET,632J6,PUBLIC STREET NAMES
8205,CARMAR,PL,,CARMAR PLACE,592J1,PUBLIC STREET NAMES
680,CORDAMINE,DR,,CORDAMINE DRIVE,NA,PRIVATE STREET NAMES
7949,CHISHOLM,AVE,,CHISHOLM AVENUE,531G3,PUBLIC STREET NAMES
7552,CYPRESS,AVE,,CYPRESS AVENUE,594H4,PUBLIC STREET NAMES
7641,CRESCENT,CT,,CRESCENT COURT,671J5,PUBLIC STREET NAMES
7770,CONCORD,ST,,CONCORD STREET,635C5,PUBLIC STREET NAMES
676,CREST,CT,,CREST COURT,592F1,PRIVATE STREET NAMES
8233,CARDAMINE,DR,,CARDAMINE DRIVE,503J1,PUBLIC STREET NAMES
10509,CHELSEA,LANE,,CHELSEA LANE,529J2,PRIVATE ROADWAY NAMES
7906,CLARKSON,ROAD,,CLARKSON ROAD,632E6,PUBLIC STREET NAMES
8347,CALAVERAS,ST,,CALAVERAS STREET,595A5,PUBLIC STREET NAMES
7966,CHESWIC,LANE,,CHESWIC LANE,593J3,PUBLIC STREET NAMES
8267,CANTERBURY,AVE,,CANTERBURY AVENUE,600D7,PUBLIC STREET NAMES
7700,CORY,AVE,,CORY AVENUE,592H6,PUBLIC STREET NAMES
8041,CHANNING,ST,,CHANNING STREET,634G6,PUBLIC STREET NAMES
8207,CARMAN CREST,DR,,CARMAN CREST DRIVE,593C2,PUBLIC STREET NAMES
8289,CAMULOS,PL,,CAMULOS PLACE,635A7,PUBLIC STREET NAMES
10139,CANTERBURY,DR,,CANTERBURY DRIVE,500G7,PRIVATE ROADWAY NAMES
7825,COLLEGE,ST,,COLLEGE STREET,634F2,PUBLIC STREET NAMES
8285,CANAL,ST,,CANAL STREET,671H6,PUBLIC STREET NAMES
7947,CHISLEHURST,PL,,CHISLEHURST PLACE,593J2,PUBLIC STREET NAMES
8113,CATO,WAY,,CATO WAY,595D6,PUBLIC STREET NAMES
8361,CAHUENGA,BLVD,WEST,CAHUENGA BOULEVARD WEST,593D1,PUBLIC STREET NAMES
10837,COOPER,PL,,COOPER PLACE,530C2,PRIVATE STREET NAMES
10229,CANYON VIEW,CT,,CANYON VIEW COURT,481H7,PRIVATE STREET NAMES
10787,COURT A,,,COURT A,671H7,PUBLIC STREET NAMES
700,CLAWSON,PL,,CLAWSON PLACE,562A7,PRIVATE STREET NAMES
7670,COWAN,AVE,,COWAN AVENUE,702F1,PUBLIC STREET NAMES
8190,CAROLWOOD,DR,,CAROLWOOD DRIVE,592C6,PUBLIC STREET NAMES
10374,CRESCENT,PARK,WEST,CRESCENT PARK WEST,702C1,PUBLIC STREET NAMES
10717,CEDAR GROVE,LANE,,CEDAR GROVE LANE,482G7,PRIVATE ROADWAY NAMES
7937,CICERO,DR,,CICERO DRIVE,594C6,PUBLIC STREET NAMES
692,COLISEUM NORTH,DR,,COLISEUM NORTH DRIVE,674B2,PRIVATE STREET NAMES
7921,CLARA,ST,,CLARA STREET,534H3,PUBLIC STREET NAMES
7576,CUMNOCK,PL,,CUMNOCK PLACE,480H6,PUBLIC STREET NAMES
7615,CRISTOBAL,AVE,,CRISTOBAL AVENUE,594G6,PUBLIC STREET NAMES
8171,CASA,PL,,CASA PLACE,560G3,PUBLIC STREET NAMES
7780,COMMONWEALTH,AVE,,COMMONWEALTH AVENUE,594B2,PUBLIC STREET NAMES
8310,CAMDEN,DR,,CAMDEN DRIVE,632G3,PUBLIC STREET NAMES
7846,COIL,AVE,,COIL AVENUE,794G5,PUBLIC STREET NAMES
8380,CABRILLO,AVE,,CABRILLO AVENUE,824A2,PUBLIC STREET NAMES
7571,CURRAN,ST,,CURRAN STREET,594F5,PUBLIC STREET NAMES
11033,CIELO,WAY,,CIELO WAY,593H4,LIMITED ACCESS AREA NAMES
8161,CASHIO,ST,,CASHIO STREET,633A4,PUBLIC STREET NAMES
7653,CRAVEN,ST,,CRAVEN STREET,794D7,PUBLIC STREET NAMES
8245,CAPISTRANO,AVE,,CAPISTRANO AVENUE,499H6,PUBLIC STREET NAMES
8202,CARMELINA,AVE,,CARMELINA AVENUE,632A7,PUBLIC STREET NAMES
737,CALIBURN,DR,,CALIBURN DRIVE,704E3,PRIVATE STREET NAMES
8246,CAPELLO,WAY,,CAPELLO WAY,592A6,PUBLIC STREET NAMES
8126,CATALINA,ST,,CATALINA STREET,594A5,PUBLIC STREET NAMES
7649,CREEMORE,DR,,CREEMORE DRIVE,504C5,PUBLIC STREET NAMES
8333,CALLE DEL ESTRIBO,,,CALLE DEL ESTRIBO,630E1,PUBLIC STREET NAMES
8271,CANON CREST,AVE,,CANON CREST AVENUE,595A4,PUBLIC STREET NAMES
8059,CHADBOURNE,AVE,,CHADBOURNE AVENUE,631E4,PUBLIC STREET NAMES
8323,CALUMET,AVE,,CALUMET AVENUE,634E1,PUBLIC STREET NAMES
7633,CRESTA,DR,,CRESTA DRIVE,632G5,PUBLIC STREET NAMES
7759,CONSTELLATION,BLVD,,CONSTELLATION BOULEVARD,632E3,PUBLIC STREET NAMES
8099,CEDAR,ST,,CEDAR STREET,595A5,PUBLIC STREET NAMES
10552,CHANTILLY,CT,,CHANTILLY COURT,504A2,PRIVATE STREET NAMES
7948,CHISLEHURST,DR,,CHISLEHURST DRIVE,593J2,PUBLIC STREET NAMES
7885,CLEMENT,ST,,CLEMENT STREET,635A3,PUBLIC STREET NAMES
10514,CORAZON,CIR,,CORAZON CIRCLE,560J3,PRIVATE STREET NAMES
9849,CARRIAGE,,,CARRIAGE,481G1,UNOFFICIAL PRIVATE STREET NAMES
695,COBALT,WAY,,COBALT WAY,481J1,PRIVATE STREET NAMES
9577,CLARINGTON,DR,,CLARINGTON DRIVE,529D4,PUBLIC STREET NAMES
9648,CIRCLE,DR,,CIRCLE DRIVE,635F1,UNOFFICIAL PRIVATE STREET NAMES
10620,CHIANG KAI-SHEK,ROAD,,CHIANG KAI-SHEK ROAD,634G2,PRIVATE STREET NAMES
7559,CUSHING,AVE,,CUSHING AVENUE,794J6,PUBLIC STREET NAMES
8182,CARROLL,AVE,,CARROLL AVENUE,671H6,PUBLIC STREET NAMES
7717,CORNELIUS,ST,,CORNELIUS STREET,482D7,PUBLIC STREET NAMES
8090,CEILHUNT,AVE,,CEILHUNT AVENUE,632B7,PUBLIC STREET NAMES
10791,COURT E,,,COURT E,671H6,PUBLIC STREET NAMES
9995,CALLE DE SARAH,,,CALLE DE SARAH,630G1,PRIVATE STREET NAMES
8154,CASS,AVE,,CASS AVENUE,559H3,PUBLIC STREET NAMES
8170,CASABA,AVE,,CASABA AVENUE,500D5,PUBLIC STREET NAMES
8061,CEZANNE,AVE,,CEZANNE AVENUE,560A5,PUBLIC STREET NAMES
8229,CARDIGAN,PL,,CARDIGAN PLACE,592C1,PUBLIC STREET NAMES
7823,COLLEGE CREST,WALK,,COLLEGE CREST WALK,594H2,PUBLIC STREET NAMES
10470,CARRARA,PL,,CARRARA PLACE,591E7,PRIVATE STREET NAMES
7891,CLEARWATER,ST,,CLEARWATER STREET,594E3,PUBLIC STREET NAMES
8344,CALDUS,AVE,,CALDUS AVENUE,531B4,PUBLIC STREET NAMES
8348,CALATRANA,DR,,CALATRANA DRIVE,560A3,PUBLIC STREET NAMES
7699,COSMO,ST,,COSMO STREET,593F4,PUBLIC STREET NAMES
8140,CASTILLO,ST,,CASTILLO STREET,560B5,PUBLIC STREET NAMES
10339,CREEKVIEW,ROAD,,CREEKVIEW ROAD,480J6,PRIVATE STREET NAMES
8274,CANNA,ROAD,,CANNA ROAD,591F7,PUBLIC STREET NAMES
8105,CAZADOR,DR,,CAZADOR DRIVE,594H3,PUBLIC STREET NAMES
8359,CAHUENGA PARK,TR,,CAHUENGA PARK TRAIL,593D1,PUBLIC STREET NAMES
7622,CREST VIEW,DR,,CREST VIEW DRIVE,592H2,PUBLIC STREET NAMES
7690,COULSON,ST,,COULSON STREET,560D2,PUBLIC STREET NAMES
10293,CREST RANCH,LANE,,CREST RANCH LANE,481G6,PUBLIC STREET NAMES
8305,CAMERO,AVE,,CAMERO AVENUE,594B4,PUBLIC STREET NAMES
10080,CRAPE MYRTLE,CT,,CRAPE MYRTLE COURT,559J1,PRIVATE ROADWAY NAMES
7774,COMPTON,AVE,,COMPTON AVENUE,634G7,PUBLIC STREET NAMES
7901,CLAYTON,AVE,,CLAYTON AVENUE,594B4,PUBLIC STREET NAMES
7982,CHELTENHAM,DR,,CHELTENHAM DRIVE,562C6,PUBLIC STREET NAMES
7691,COTTONWOOD,AVE,,COTTONWOOD AVENUE,NA,PUBLIC STREET NAMES
10888,CELIA,PL,,CELIA PLACE,531C2,LIMITED ACCESS AREA NAMES
7962,CHEVIOT VISTA,PL,,CHEVIOT VISTA PLACE,632E7,PUBLIC STREET NAMES
8272,CANOGA,DR,,CANOGA DRIVE,560A5,PUBLIC STREET NAMES
8265,CANTO,DR,,CANTO DRIVE,595C7,PUBLIC STREET NAMES
8019,CHARLOTTE,ST,,CHARLOTTE STREET,635B3,PUBLIC STREET NAMES
8104,CAZADOR,ST,,CAZADOR STREET,594J2,PUBLIC STREET NAMES
7880,CLERMONT,ST,,CLERMONT STREET,595A4,PUBLIC STREET NAMES
7593,CROYDON,WALK,,CROYDON WALK,702H3,PUBLIC STREET NAMES
10711,CORE,LANE,,CORE LANE,501H6,PRIVATE ROADWAY NAMES
7616,CRISP CANYON,ROAD,,CRISP CANYON ROAD,561J5,PUBLIC STREET NAMES
7836,COLE,PL,,COLE PLACE,593F5,PUBLIC STREET NAMES
7735,CORCORAN,ST,,CORCORAN STREET,482D6,PUBLIC STREET NAMES
7651,CREBS,AVE,,CREBS AVENUE,500H2,PUBLIC STREET NAMES
10559,CAMPO DE CAHUENGA,WAY,,CAMPO DE CAHUENGA WAY,563A6,PUBLIC STREET NAMES
7587,CUESTA,WAY,,CUESTA WAY,592B6,PUBLIC STREET NAMES
8324,CALNEVA,DR,,CALNEVA DRIVE,561D6,PUBLIC STREET NAMES
8010,CHARRICK,DR,,CHARRICK DRIVE,504A6,PUBLIC STREET NAMES
10274,CAREY RANCH,LANE,,CAREY RANCH LANE,481H6,PUBLIC STREET NAMES
8244,CAPISTRANO,LANE,,CAPISTRANO LANE,480G7,PUBLIC STREET NAMES
8243,CAPISTRANO,WAY,,CAPISTRANO WAY,633A2,PUBLIC STREET NAMES
8164,CASEY,ST,,CASEY STREET,501E4,PUBLIC STREET NAMES
7684,COURBET,ST,,COURBET STREET,481C4,PUBLIC STREET NAMES
7922,CLAIRTON,PL,,CLAIRTON PLACE,561E7,PUBLIC STREET NAMES
8370,CADET,CT,,CADET COURT,593C1,PUBLIC STREET NAMES
7852,COCKERHAM,DR,,COCKERHAM DRIVE,594A2,PUBLIC STREET NAMES
8258,CANYON,DR,,CANYON DRIVE,593G1,PUBLIC STREET NAMES
8001,CHATEAU,ST,,CHATEAU STREET,NA,PUBLIC STREET NAMES
7985,CHELAN,PL,,CHELAN PLACE,593D3,PUBLIC STREET NAMES
8148,CASTAIR,DR,,CASTAIR DRIVE,593B3,PUBLIC STREET NAMES
683,CORA,ST,,CORA STREET,503H4,PRIVATE STREET NAMES
7976,CHERRY HILLS,LANE,,CHERRY HILLS LANE,560F5,PUBLIC STREET NAMES
8279,CANDICE,PL,,CANDICE PLACE,500B2,PUBLIC STREET NAMES
7753,CONWAY,AVE,,CONWAY AVENUE,592C7,PUBLIC STREET NAMES
7969,CHESTER,ST,,CHESTER STREET,595F7,PUBLIC STREET NAMES
8321,CALVIN,AVE,,CALVIN AVENUE,500F4,PUBLIC STREET NAMES
8330,CALLE DE SEVILLA,,,CALLE DE SEVILLA,630F2,PUBLIC STREET NAMES
7866,CLOVIS,WAY,,CLOVIS WAY,NA,PUBLIC STREET NAMES
8379,CABRILLO,AVE,,CABRILLO AVENUE,671H6,PUBLIC STREET NAMES
9798,COLGATE,AVE,,COLGATE AVENUE,633C1,PRIVATE STREET NAMES
7869,CLOVER,ST,,CLOVER STREET,634J2,PUBLIC STREET NAMES
8014,CHARMEL,PL,,CHARMEL PLACE,630G3,PUBLIC STREET NAMES
8147,CASTALIA,AVE,,CASTALIA AVENUE,595E5,PUBLIC STREET NAMES
7803,COLTON,ST,,COLTON STREET,634D2,PUBLIC STREET NAMES
8213,CARLSON,CIR,,CARLSON CIRCLE,529J5,PUBLIC STREET NAMES
9653,COPRA,LANE,,COPRA LANE,630J6,UNOFFICIAL PRIVATE STREET NAMES
7668,COY,DR,,COY DRIVE,562A7,PUBLIC STREET NAMES
8060,CEZANNE,PL,,CEZANNE PLACE,560A5,PUBLIC STREET NAMES
10734,CHAMBERLAIN,LANE,,CHAMBERLAIN LANE,530G2,PRIVATE STREET NAMES
730,CAMINO DE YATASTO,,,CAMINO DE YATASTO,630E1,PRIVATE STREET NAMES
7817,COLLIER,ST,,COLLIER STREET,560E3,PUBLIC STREET NAMES
7644,CREOLE,ROAD,,CREOLE ROAD,559H4,PUBLIC STREET NAMES
8143,CASTELLO,PL,,CASTELLO PLACE,632G4,PUBLIC STREET NAMES
9650,COLT,,,COLT,481G1,UNOFFICIAL PRIVATE STREET NAMES
7550,CYRENE,PL,,CYRENE PLACE,482A3,PUBLIC STREET NAMES
689,COLUMBIA,PL,,COLUMBIA PLACE,634D3,PRIVATE STREET NAMES
9905,CELTIC,CT,,CELTIC COURT,500A2,PUBLIC STREET NAMES
7878,CLIFF,DR,,CLIFF DRIVE,594H4,PUBLIC STREET NAMES
7627,CRESTMONT,AVE,,CRESTMONT AVENUE,594C5,PUBLIC STREET NAMES
7652,CRAWFORD,ST,,CRAWFORD STREET,674D2,PUBLIC STREET NAMES
10235,CLARITON,CT,,CLARITON COURT,561E7,PRIVATE STREET NAMES
8127,CATALINA,AVE,,CATALINA AVENUE,764A2,PUBLIC STREET NAMES
669,CRYSTAL SPRINGS,CIR,,CRYSTAL SPRINGS CIRCLE,480E6,PRIVATE STREET NAMES
8341,CALGARY,LANE,,CALGARY LANE,592A4,PUBLIC STREET NAMES
8074,CENTURY,PARK,WEST,CENTURY PARK WEST,632E3,PUBLIC STREET NAMES
7692,COTTER,PL,,COTTER PLACE,561C6,PUBLIC STREET NAMES
7701,CORTEZ,ST,,CORTEZ STREET,634D2,PUBLIC STREET NAMES
8146,CASTANO,PL,,CASTANO PLACE,532G1,PUBLIC STREET NAMES
681,CORBIN,AVE,,CORBIN AVENUE,NA,PRIVATE STREET NAMES
7783,COMMERCIAL,ST,,COMMERCIAL STREET,634H4,PUBLIC STREET NAMES
7838,COLDWATER CANYON,DR,,COLDWATER CANYON DRIVE,592F4,PUBLIC STREET NAMES
8355,CALABAR,AVE,,CALABAR AVENUE,702B3,PUBLIC STREET NAMES
7779,COMMONWEALTH,AVE,,COMMONWEALTH AVENUE,671H4,PUBLIC STREET NAMES
8293,CAMPION,DR,,CAMPION DRIVE,702D2,PUBLIC STREET NAMES
8089,CELES,ST,,CELES STREET,560A3,PUBLIC STREET NAMES
7630,CRESTHILL,ROAD,,CRESTHILL ROAD,593A5,PUBLIC STREET NAMES
7879,CLEVELAND,ST,,CLEVELAND STREET,634G2,PUBLIC STREET NAMES
7565,CURSON,PL,,CURSON PLACE,593C3,PUBLIC STREET NAMES
8116,CATHWELL,LANE,,CATHWELL LANE,504B6,PUBLIC STREET NAMES
8280,CANDIA,ST,,CANDIA STREET,481B5,PUBLIC STREET NAMES
7733,CORDA,LANE,,CORDA LANE,591E1,PUBLIC STREET NAMES
7596,CROWNRIDGE,DR,,CROWNRIDGE DRIVE,561G6,PUBLIC STREET NAMES
714,CAZAUX,PL,,CAZAUX PLACE,593G2,PRIVATE STREET NAMES
706,CHESTER,PL,,CHESTER PLACE,634C7,PRIVATE STREET NAMES
7612,CROCKETT,PL,,CROCKETT PLACE,533B2,PUBLIC STREET NAMES
8109,CAVANAGH,ROAD,,CAVANAGH ROAD,635E1,PUBLIC STREET NAMES
7854,COCHRAN,AVE,,COCHRAN AVENUE,633D2,PUBLIC STREET NAMES
7676,COVE,AVE,,COVE AVENUE,594E5,PUBLIC STREET NAMES
9813,CUMBRE VERDE,CT,,CUMBRE VERDE COURT,630G2,PUBLIC STREET NAMES
7746,COPPER,ST,,COPPER STREET,501J2,PUBLIC STREET NAMES
8044,CHANDLER,ST,,CHANDLER STREET,794E4,PUBLIC STREET NAMES
7658,CRANE,BLVD,,CRANE BOULEVARD,595A3,PUBLIC STREET NAMES
8288,CAMULOS,ST,,CAMULOS STREET,635B6,PUBLIC STREET NAMES
7757,CONTERA,ROAD,,CONTERA ROAD,561E5,PUBLIC STREET NAMES
7660,CRAIGVIEW,AVE,,CRAIGVIEW AVENUE,672D1,PUBLIC STREET NAMES
7763,CONOVER,ST,,CONOVER STREET,503D1,PUBLIC STREET NAMES
7989,CHAVEZ RAVINE,PL,,CHAVEZ RAVINE PLACE,634G2,PUBLIC STREET NAMES
7908,CLARK,ST,,CLARK STREET,562A2,PUBLIC STREET NAMES
7553,CYPREAN,DR,,CYPREAN DRIVE,592H3,PUBLIC STREET NAMES
7850,COCOS,DR,,COCOS DRIVE,593G3,PUBLIC STREET NAMES
7935,CIMARRON,ST,,CIMARRON STREET,633G6,PUBLIC STREET NAMES
8169,CASA BLANCA,ROAD,,CASA BLANCA ROAD,560C6,PUBLIC STREET NAMES
8211,CARLTON,WAY,,CARLTON WAY,672A4,PUBLIC STREET NAMES
8372,CACHALOTE,ST,,CACHALOTE STREET,560B6,PUBLIC STREET NAMES
9657,CORONADO,,,CORONADO,501H2,UNOFFICIAL PRIVATE STREET NAMES
7739,CORANTO,ST,,CORANTO STREET,482D4,PUBLIC STREET NAMES
7650,CREED,AVE,,CREED AVENUE,673F3,PUBLIC STREET NAMES
7997,CHATSWORTH,DR,,CHATSWORTH DRIVE,502A1,PUBLIC STREET NAMES
8222,CARIS,ST,,CARIS STREET,559D1,PUBLIC STREET NAMES
8066,CERRO VERDE,PL,,CERRO VERDE PLACE,560H4,PUBLIC STREET NAMES
7822,COLLEGE SQUARE,DR,,COLLEGE SQUARE DRIVE,635G1,PUBLIC STREET NAMES
7736,CORCORAN,PL,,CORCORAN PLACE,482D6,PUBLIC STREET NAMES
8192,CAROLINA,ST,,CAROLINA STREET,824B7,PUBLIC STREET NAMES
7928,CITRONIA,ST,,CITRONIA STREET,501D5,PUBLIC STREET NAMES
8084,CENTENNIAL,ST,,CENTENNIAL STREET,634F2,PUBLIC STREET NAMES
8187,CARPENTER,CT,,CARPENTER COURT,562G6,PUBLIC STREET NAMES
9992,CHASTAIN,PKWY,EAST,CHASTAIN PARKWAY EAST,630G1,PUBLIC STREET NAMES
693,COLDWATER CANYON,LANE,,COLDWATER CANYON LANE,562E7,PRIVATE STREET NAMES
7833,COLEGIO,DR,,COLEGIO DRIVE,702D2,PUBLIC STREET NAMES
10098,CHASTAIN,PKWY,WEST,CHASTAIN PARKWAY WEST,630G1,PUBLIC STREET NAMES
7698,COSMOPOLITAN,ST,,COSMOPOLITAN STREET,634A1,PUBLIC STREET NAMES
7994,CHATTANOOGA,PL,,CHATTANOOGA PLACE,630H5,PUBLIC STREET NAMES
8004,CHASE,ST,,CHASE STREET,532A1,PUBLIC STREET NAMES
688,COMMONWEALTH CANYON,ROAD,,COMMONWEALTH CANYON ROAD,594A1,PRIVATE STREET NAMES
8049,CHAMPLAIN,TER,,CHAMPLAIN TERRACE,594F5,PUBLIC STREET NAMES
10122,CHANDLER,DR,,CHANDLER DRIVE,562D2,PRIVATE STREET NAMES
8035,CHAPIN,TR,,CHAPIN TRAIL,503G4,PUBLIC STREET NAMES
9963,CAMORILLA,ST,,CAMORILLA STREET,561G4,PRIVATE STREET NAMES
7761,CONSTABLE,AVE,,CONSTABLE AVENUE,481C3,PUBLIC STREET NAMES
7892,CLEAR VIEW,DR,,CLEAR VIEW DRIVE,592C4,PUBLIC STREET NAMES
9644,CASA CON VISTA,,,CASA CON VISTA,823G7,UNOFFICIAL PRIVATE STREET NAMES
8337,CALIFORNIA,AVE,,CALIFORNIA AVENUE,671H5,PUBLIC STREET NAMES
7860,CLUB VIEW,DR,,CLUB VIEW DRIVE,632C1,PUBLIC STREET NAMES
7938,CHURCHILL,AVE,,CHURCHILL AVENUE,500A4,PUBLIC STREET NAMES
712,CENTURY WOODS,DR,,CENTURY WOODS DRIVE,632E4,PRIVATE STREET NAMES
8306,CAMERFORD,AVE,,CAMERFORD AVENUE,593F6,PUBLIC STREET NAMES
9642,CANDY,,,CANDY,501H2,UNOFFICIAL PRIVATE STREET NAMES
8009,CHARRICK,PL,,CHARRICK PLACE,504A6,PUBLIC STREET NAMES
7768,CONDON,AVE,,CONDON AVENUE,673B6,PUBLIC STREET NAMES
7795,COLYTON,ST,,COLYTON STREET,634G5,PUBLIC STREET NAMES
10468,CALVERT,ST,,CALVERT STREET,532C7,PRIVATE STREET NAMES
10550,CARDAMINE,CT,,CARDAMINE COURT,504A2,PUBLIC STREET NAMES
697,CLUSTERBERRY,CT,,CLUSTERBERRY COURT,592A1,PRIVATE STREET NAMES
678,CORYDON,DR,,CORYDON DRIVE,634D4,PRIVATE STREET NAMES
7589,CRYSTALAIRE,PL,,CRYSTALAIRE PLACE,481C6,PUBLIC STREET NAMES
7629,CRESTLAWN,ST,,CRESTLAWN STREET,559D2,PUBLIC STREET NAMES
8201,CARMEN,AVE,,CARMEN AVENUE,593F3,PUBLIC STREET NAMES
8360,CAHUENGA,TER,,CAHUENGA TERRACE,593E3,PUBLIC STREET NAMES
7568,CURSON,AVE,,CURSON AVENUE,593C3,PUBLIC STREET NAMES
7781,COMMODORE SLOAT,DR,,COMMODORE SLOAT DRIVE,633A2,PUBLIC STREET NAMES
7727,CORDOVA,ST,,CORDOVA STREET,634A6,PUBLIC STREET NAMES
7738,CORBETT,ST,,CORBETT STREET,673B1,PUBLIC STREET NAMES
8183,CARROLL,AVE,,CARROLL AVENUE,634E1,PUBLIC STREET NAMES
7857,CLYDE,AVE,,CLYDE AVENUE,633B6,PUBLIC STREET NAMES
7639,CRESCENT,PL,,CRESCENT PLACE,671J5,PUBLIC STREET NAMES
7666,COYNE,ST,,COYNE STREET,631G3,PUBLIC STREET NAMES
8133,CASTLE HEIGHTS,PL,,CASTLE HEIGHTS PLACE,632G6,PUBLIC STREET NAMES
8096,CEDAREDGE,CT,,CEDAREDGE COURT,565C5,PUBLIC STREET NAMES
7604,CROSBY,PL,,CROSBY PLACE,634E1,PUBLIC STREET NAMES
7581,CULVER,PL,,CULVER PLACE,702A3,PUBLIC STREET NAMES
8386,C,ST,,C STREET,794D7,PUBLIC STREET NAMES
7682,COURTLAND,AVE,,COURTLAND AVENUE,634B5,PUBLIC STREET NAMES
8017,CHARM ACRES,PL,,CHARM ACRES PLACE,631A4,PUBLIC STREET NAMES
10313,CALLE HALEIGH,,,CALLE HALEIGH,630H1,PRIVATE STREET NAMES
11032,CARPENTIERI,CT,,CARPENTIERI COURT,531J2,LIMITED ACCESS AREA NAMES
7881,CLEON,AVE,,CLEON AVENUE,533A4,PUBLIC STREET NAMES
8248,CANZONET,ST,,CANZONET STREET,559F3,PUBLIC STREET NAMES
8193,CAROLINA,PL,,CAROLINA PLACE,675G1,PUBLIC STREET NAMES
7551,CYPRESS POINT,DR,,CYPRESS POINT DRIVE,480F7,PUBLIC STREET NAMES
8194,CAROL,PL,,CAROL PLACE,481B5,PUBLIC STREET NAMES
7704,CORRENTI,ST,,CORRENTI STREET,502E4,PUBLIC STREET NAMES
7829,COLINA,AL,,COLINA ALLEY,595A4,PUBLIC STREET NAMES
8354,CALABASAS,ROAD,,CALABASAS ROAD,559F4,PUBLIC STREET NAMES
7980,CHENAULT,ST,,CHENAULT STREET,631J3,PUBLIC STREET NAMES
10790,COURT D,,,COURT D,671H6,PUBLIC STREET NAMES
10521,CAMERON,AVE,,CAMERON AVENUE,482D5,PUBLIC STREET NAMES
8206,CARMAR,DR,,CARMAR DRIVE,592J1,PUBLIC STREET NAMES
8076,CENTURY,BLVD,SOUTH,CENTURY BOULEVARD SOUTH,NA,PUBLIC STREET NAMES
8234,CARCASSONNE,ROAD,,CARCASSONNE ROAD,592A7,PUBLIC STREET NAMES
9899,CLERENDON,ROAD,,CLERENDON ROAD,562B7,PRIVATE STREET NAMES
7995,CHATTANOOGA,AVE,,CHATTANOOGA AVENUE,630H5,PUBLIC STREET NAMES
7888,CLELAND,PL,,CLELAND PLACE,595A2,PUBLIC STREET NAMES
8231,CARDENAS,AVE,,CARDENAS AVENUE,560A5,PUBLIC STREET NAMES
7873,CLIPSTONE,ST,,CLIPSTONE STREET,559D1,PUBLIC STREET NAMES
7643,CRESCENDA,ST,,CRESCENDA STREET,631G2,PUBLIC STREET NAMES
7919,CLAREMONT,AVE,,CLAREMONT AVENUE,594C3,PUBLIC STREET NAMES
10972,CARLTON,LANE,,CARLTON LANE,482B1,PRIVATE ROADWAY NAMES
7790,COMERCIO,LANE,,COMERCIO LANE,560B3,PUBLIC STREET NAMES
9645,CATALINA VISTA,,,CATALINA VISTA,823F7,UNOFFICIAL PRIVATE STREET NAMES
8208,CARLYNN,PL,,CARLYNN PLACE,504C6,PUBLIC STREET NAMES
7560,CUSHDON,AVE,,CUSHDON AVENUE,632D6,PUBLIC STREET NAMES
7680,COURTLEIGH,DR,,COURTLEIGH DRIVE,672E5,PUBLIC STREET NAMES
8129,CASTLEWOODS,PL,,CASTLEWOODS PLACE,561G7,PUBLIC STREET NAMES
7899,CLEARBROOK,PL,,CLEARBROOK PLACE,500H1,PUBLIC STREET NAMES
10867,CENTURY,DR,,CENTURY DRIVE,632E3,PRIVATE ROADWAY NAMES
8336,CALIFORNIA,CT,,CALIFORNIA COURT,671H5,PUBLIC STREET NAMES
7748,COPELAND,PL,,COPELAND PLACE,595F6,PUBLIC STREET NAMES
8175,CARTWRIGHT,AVE,,CARTWRIGHT AVENUE,533A4,PUBLIC STREET NAMES
8115,CATHY,ST,,CATHY STREET,482E2,PUBLIC STREET NAMES
7732,CORDELIA,ROAD,,CORDELIA ROAD,591C7,PUBLIC STREET NAMES
10842,CONDOR,CT,,CONDOR COURT,502E6,PRIVATE ROADWAY NAMES
7750,COOPER,AVE,,COOPER AVENUE,595E1,PUBLIC STREET NAMES
10224,CEDAR,PT,,CEDAR POINT,481H7,PUBLIC STREET NAMES
7577,CUMMINGS,ST,,CUMMINGS STREET,635A5,PUBLIC STREET NAMES
8296,CAMPANA,ROAD,,CAMPANA ROAD,560C5,PUBLIC STREET NAMES
7606,CRONUS,ST,,CRONUS STREET,595F6,PUBLIC STREET NAMES
10671,CAMPANIA,LANE,,CAMPANIA LANE,500C1,PRIVATE STREET NAMES
8266,CANTLAY,ST,,CANTLAY STREET,533A4,PUBLIC STREET NAMES
7705,CORREA,WAY,,CORREA WAY,631E2,PUBLIC STREET NAMES
7634,CREST,WAY,,CREST WAY,593F3,PUBLIC STREET NAMES
8095,CEDARHURST,CIR,,CEDARHURST CIRCLE,594B3,PUBLIC STREET NAMES
7959,CHICAGO,ST,,CHICAGO STREET,635B3,PUBLIC STREET NAMES
7876,CLIFFWOOD,AVE,,CLIFFWOOD AVENUE,631F3,PUBLIC STREET NAMES
9827,CARMENITA,LANE,,CARMENITA LANE,529D4,PUBLIC STREET NAMES
8264,CANTON,DR,,CANTON DRIVE,562H7,PUBLIC STREET NAMES
7706,CORRALITAS,WALK,,CORRALITAS WALK,594E4,PUBLIC STREET NAMES
8047,CHANDELLE,PL,,CHANDELLE PLACE,593A1,PUBLIC STREET NAMES
8118,CATESBY,LANE,,CATESBY LANE,634D6,PUBLIC STREET NAMES
7724,CORFU,LANE,,CORFU LANE,592A4,PUBLIC STREET NAMES
7814,COLLINGWOOD,PL,,COLLINGWOOD PLACE,592H5,PUBLIC STREET NAMES
8350,CALADERO,ST,,CALADERO STREET,560G5,PUBLIC STREET NAMES
8101,CECILIA,ST,,CECILIA STREET,634F5,PUBLIC STREET NAMES
8369,CADILLAC,AVE,,CADILLAC AVENUE,633A6,PUBLIC STREET NAMES
7672,COVERT,AVE,,COVERT AVENUE,504C4,PUBLIC STREET NAMES
8224,CARIBOU,LANE,,CARIBOU LANE,592A4,PUBLIC STREET NAMES
7718,CORLISS,ST,,CORLISS STREET,565A7,PUBLIC STREET NAMES
8365,CAGNEY,ST,,CAGNEY STREET,481B5,PUBLIC STREET NAMES
7826,COLLEGE,ST,,COLLEGE STREET,634H2,PUBLIC STREET NAMES
7617,CRISLER,WAY,,CRISLER WAY,593A4,PUBLIC STREET NAMES
8139,CASTLE,ST,,CASTLE STREET,594D5,PUBLIC STREET NAMES
7716,CORNETT,DR,,CORNETT DRIVE,592J1,PUBLIC STREET NAMES
8023,CHARLEMONT,PL,,CHARLEMONT PLACE,559H5,PUBLIC STREET NAMES
8257,CANYON,TER,,CANYON TERRACE,593G3,PUBLIC STREET NAMES
7802,COLUMBIA,AVE,,COLUMBIA AVENUE,634D3,PUBLIC STREET NAMES
7810,COLOGNE,ST,,COLOGNE STREET,633B5,PUBLIC STREET NAMES
722,CARITINA,DR,,CARITINA DRIVE,560F4,PRIVATE STREET NAMES
7740,CORAL TREE,PL,,CORAL TREE PLACE,672D7,PUBLIC STREET NAMES
10680,CASPIAN,CT,,CASPIAN COURT,480H6,PUBLIC STREET NAMES
8073,CEREDO,PL,,CEREDO PLACE,481G6,PUBLIC STREET NAMES
7968,CHESTERWOOD,ST,,CHESTERWOOD STREET,482D4,PUBLIC STREET NAMES
8317,CAMALOA,AVE,,CAMALOA AVENUE,503A1,PUBLIC STREET NAMES
8307,CAMEO,PL,,CAMEO PLACE,481C7,PUBLIC STREET NAMES
8290,CAMROSE,DR,,CAMROSE DRIVE,593D3,PUBLIC STREET NAMES
7941,CHULA VISTA,WAY,,CHULA VISTA WAY,593G3,PUBLIC STREET NAMES
7575,CUMORAH CREST,DR,,CUMORAH CREST DRIVE,559G4,PUBLIC STREET NAMES
8005,CHASE,PL,,CHASE PLACE,529H2,PUBLIC STREET NAMES
8102,CAZAUX,PL,,CAZAUX PLACE,593G2,PUBLIC STREET NAMES
7800,COLUMBUS,AVE,,COLUMBUS AVENUE,501H2,PUBLIC STREET NAMES
8045,CHANDLER,BLVD,,CHANDLER BOULEVARD,563A2,PUBLIC STREET NAMES
7569,CURRY,AVE,,CURRY AVENUE,481C7,PUBLIC STREET NAMES
7621,CRESTWOOD,ST,,CRESTWOOD STREET,824B3,PUBLIC STREET NAMES
8326,CALLICOTT,AVE,,CALLICOTT AVENUE,529F6,PUBLIC STREET NAMES
7979,CHEREMOYA,AVE,,CHEREMOYA AVENUE,593G2,PUBLIC STREET NAMES
7665,COZYCROFT,AVE,,COZYCROFT AVENUE,500C3,PUBLIC STREET NAMES
7578,CUM LAUDE,AVE,,CUM LAUDE AVENUE,702C4,PUBLIC STREET NAMES
7896,CLEAR OAK,DR,,CLEAR OAK DRIVE,561F5,PUBLIC STREET NAMES
7786,COMEY,AVE,,COMEY AVENUE,633A6,PUBLIC STREET NAMES
7832,COLEMAN,AVE,,COLEMAN AVENUE,595D4,PUBLIC STREET NAMES
7742,CORALINE,CIR,,CORALINE CIRCLE,500D3,PUBLIC STREET NAMES
7820,COLLEGE VIEW,PL,,COLLEGE VIEW PLACE,564J7,PUBLIC STREET NAMES
7766,CONEY,ROAD,,CONEY ROAD,635F1,PUBLIC STREET NAMES
8297,CAMORILLA,DR,,CAMORILLA DRIVE,594H3,PUBLIC STREET NAMES
10464,COMO,LANE,,COMO LANE,500C1,PRIVATE STREET NAMES
8327,CALLE VISTA,CT,,CALLE VISTA COURT,480G6,PUBLIC STREET NAMES
8008,CHARTER OAK,LANE,,CHARTER OAK LANE,592B3,PUBLIC STREET NAMES
8157,CASIANO,ROAD,,CASIANO ROAD,561G7,PUBLIC STREET NAMES
10573,COAL CANYON,ROAD,,COAL CANYON ROAD,503A3,PRIVATE STREET NAMES
7654,CRATER,LANE,,CRATER LANE,592B4,PUBLIC STREET NAMES
9942,CONTINENTAL CITY,DR,,CONTINENTAL CITY DRIVE,NA,PUBLIC STREET NAMES
7967,CHESTNUT,AVE,,CHESTNUT AVENUE,595E2,PUBLIC STREET NAMES
7737,CORBIN,AVE,,CORBIN AVENUE,500C1,PUBLIC STREET NAMES
727,CANDLEBERRY,LANE,,CANDLEBERRY LANE,500G4,PRIVATE STREET NAMES
7702,CORTEEN,PL,,CORTEEN PLACE,562F2,PUBLIC STREET NAMES
7624,CRESTON,DR,,CRESTON DRIVE,593F2,PUBLIC STREET NAMES
7933,CINCO,DR,,CINCO DRIVE,562H6,PUBLIC STREET NAMES
7585,CULLEN,ST,,CULLEN STREET,632J7,PUBLIC STREET NAMES
8384,CABANAS,AVE,,CABANAS AVENUE,504C5,PUBLIC STREET NAMES
9994,CALLE JERMAINE,,,CALLE JERMAINE,630H1,PUBLIC STREET NAMES
7734,CORDA,DR,,CORDA DRIVE,561E7,PUBLIC STREET NAMES
8029,CHARING CROSS,ROAD,,CHARING CROSS ROAD,592C7,PUBLIC STREET NAMES
7893,CLEAR VALLEY,PL,,CLEAR VALLEY PLACE,561F5,PUBLIC STREET NAMES
713,CENTER,WAY,,CENTER WAY,702F5,PRIVATE STREET NAMES
10789,COURT C,,,COURT C,671H6,PUBLIC STREET NAMES
7944,CHRISTINE,WAY,,CHRISTINE WAY,500J2,PUBLIC STREET NAMES
7895,CLEARPOOL,PL,,CLEARPOOL PLACE,794A2,PUBLIC STREET NAMES
7747,COPERTO,DR,,COPERTO DRIVE,630F6,PUBLIC STREET NAMES
8371,CACTUS,AVE,,CACTUS AVENUE,499H5,PUBLIC STREET NAMES
8181,CARROLL,CL,,CARROLL CANAL,671H6,PUBLIC STREET NAMES
7797,COLVILLE,PL,,COLVILLE PLACE,561D7,PUBLIC STREET NAMES
10393,COUNTRY CLUB,PL,,COUNTRY CLUB PLACE,560H6,PRIVATE STREET NAMES
10788,COURT B,,,COURT B,671H7,PUBLIC STREET NAMES
8040,CHANTILLY,ROAD,,CHANTILLY ROAD,591J5,PUBLIC STREET NAMES
8377,CABRINI,DR,,CABRINI DRIVE,533D3,PUBLIC STREET NAMES
677,COTTAGE,LANE,,COTTAGE LANE,481J1,PRIVATE STREET NAMES
7809,COLOMA,AVE,,COLOMA AVENUE,559G5,PUBLIC STREET NAMES
8277,CANDLEWOOD,WAY,,CANDLEWOOD WAY,529E5,PUBLIC STREET NAMES
7940,CHURCH,LANE,,CHURCH LANE,631H1,PUBLIC STREET NAMES
7743,CORAL,ST,,CORAL STREET,635C1,PUBLIC STREET NAMES
8032,CHAPMAN,ST,,CHAPMAN STREET,594F1,PUBLIC STREET NAMES
7958,CHICKASAW,AVE,,CHICKASAW AVENUE,565A6,PUBLIC STREET NAMES
7686,COUNTY OAK,ROAD,,COUNTY OAK ROAD,529C7,PUBLIC STREET NAMES
8374,CABRIOLE,AVE,,CABRIOLE AVENUE,500H1,PUBLIC STREET NAMES
8077,CENTURY,BLVD,,CENTURY BOULEVARD,704H4,PUBLIC STREET NAMES
7914,CLARIN,ST,,CLARIN STREET,560C4,PUBLIC STREET NAMES
10705,CITRUS RIDGE,DR,,CITRUS RIDGE DRIVE,560F3,PRIVATE STREET NAMES
9910,COBHAM,CT,,COBHAM COURT,591G2,PRIVATE STREET NAMES
7677,COURTNEY,TER,,COURTNEY TERRACE,593B4,PUBLIC STREET NAMES
8069,CERROCREST,DR,,CERROCREST DRIVE,592F5,PUBLIC STREET NAMES
7582,CULVER,DR,,CULVER DRIVE,672F5,PUBLIC STREET NAMES
8358,CAIRO,WALK,,CAIRO WALK,562A6,PUBLIC STREET NAMES
7667,COYLE,PL,,COYLE PLACE,559J4,PUBLIC STREET NAMES
10855,CANYON CREEK,DR,,CANYON CREEK DRIVE,530A6,PRIVATE ROADWAY NAMES
7987,CHEESBROUGH'S,LANE,,CHEESBROUGH'S LANE,635C6,PUBLIC STREET NAMES
7913,CLARINDA,DR,,CLARINDA DRIVE,560G5,PUBLIC STREET NAMES
10182,CHALON,ROAD,,CHALON ROAD,591D7,PRIVATE STREET NAMES
8011,CHARNOCK,ROAD,,CHARNOCK ROAD,672E2,PUBLIC STREET NAMES
7631,CRESTHAVEN,DR,,CRESTHAVEN DRIVE,565E7,PUBLIC STREET NAMES
7924,CLAIRCREST,DR,,CLAIRCREST DRIVE,592F4,PUBLIC STREET NAMES
8291,CAMPUS,ROAD,,CAMPUS ROAD,565A7,PUBLIC STREET NAMES
8318,CALZONA,ST,,CALZONA STREET,635C7,PUBLIC STREET NAMES
10777,CAJUN,CT,,CAJUN COURT,529J5,PRIVATE STREET NAMES
7889,CLELAND,AVE,,CLELAND AVENUE,595A2,PUBLIC STREET NAMES
7570,CURRITUCK,DR,,CURRITUCK DRIVE,631G4,PUBLIC STREET NAMES
10644,CANCION,CT,,CANCION COURT,634J4,PRIVATE ROADWAY NAMES
8119,CATERINA,CT,,CATERINA COURT,481B5,PUBLIC STREET NAMES
8276,CANEDO,AVE,,CANEDO AVENUE,500G5,PUBLIC STREET NAMES
8314,CAMAROSA,DR,,CAMAROSA DRIVE,631B7,PUBLIC STREET NAMES
705,CHEVY CHASE,DR,,CHEVY CHASE DRIVE,564C6,PRIVATE STREET NAMES
7961,CHEVY CHASE,DR,,CHEVY CHASE DRIVE,564D6,PUBLIC STREET NAMES
9646,CELTIC,ST,,CELTIC STREET,501G2,UNOFFICIAL PRIVATE STREET NAMES
7678,COURTNEY,ST,,COURTNEY STREET,704F4,PUBLIC STREET NAMES
8016,CHARMEL,CT,,CHARMEL COURT,630G3,PUBLIC STREET NAMES
8137,CASTLEBAY,PL,,CASTLEBAY PLACE,480G6,PUBLIC STREET NAMES
7827,COLISEUM,ST,,COLISEUM STREET,673F1,PUBLIC STREET NAMES
7900,CLAYWOOD,AVE,,CLAYWOOD AVENUE,482C1,PUBLIC STREET NAMES
7572,CURLEW,CT,,CURLEW COURT,564H7,PUBLIC STREET NAMES
8086,CELTIC,WAY,,CELTIC WAY,480J6,PUBLIC STREET NAMES
8002,CHASTAIN,PL,,CHASTAIN PLACE,531A3,PUBLIC STREET NAMES
7851,COCO,AVE,,COCO AVENUE,673C2,PUBLIC STREET NAMES
7636,CRESPI,ST,,CRESPI STREET,560A3,PUBLIC STREET NAMES
8111,CAVALIER,ST,,CAVALIER STREET,559H4,PUBLIC STREET NAMES
8167,CASANOVA,ST,,CASANOVA STREET,594H7,PUBLIC STREET NAMES
7580,CUMBERLAND,AVE,,CUMBERLAND AVENUE,594B4,PUBLIC STREET NAMES
702,CINCO,DR,,CINCO DRIVE,562H6,PRIVATE STREET NAMES
7887,CLEMENS,AVE,,CLEMENS AVENUE,529F3,PUBLIC STREET NAMES
8185,CARRILLO,DR,,CARRILLO DRIVE,633A3,PUBLIC STREET NAMES
7720,CORISCO,ST,,CORISCO STREET,500D7,PUBLIC STREET NAMES
8209,CARLYLE,ST,,CARLYLE STREET,594G3,PUBLIC STREET NAMES
8013,CHARMION,LANE,,CHARMION LANE,561C4,PUBLIC STREET NAMES
7812,COLLINS,ST,,COLLINS STREET,563B1,PUBLIC STREET NAMES
8214,CARLSBAD,ST,,CARLSBAD STREET,482A6,PUBLIC STREET NAMES
8247,CAPE COTTAGE,LANE,,CAPE COTTAGE LANE,482D4,PUBLIC STREET NAMES
10002,CLASSICS,DR,,CLASSICS DRIVE,481A5,PRIVATE STREET NAMES
7614,CRISWELL,ST,,CRISWELL STREET,529J6,PUBLIC STREET NAMES
10088,CORALBELL,LANE,,CORALBELL LANE,529J7,PRIVATE ROADWAY NAMES
8179,CARSON,ST,,CARSON STREET,764C6,PUBLIC STREET NAMES
9578,CORAL,DR,,CORAL DRIVE,NA,PUBLIC STREET NAMES
8308,CAMELLO,ROAD,,CAMELLO ROAD,560B5,PUBLIC STREET NAMES
8191,CAROLUS,DR,,CAROLUS DRIVE,593G1,PUBLIC STREET NAMES
8031,CHAPTER,DR,,CHAPTER DRIVE,560D4,PUBLIC STREET NAMES
715,CAZADOR,CT,,CAZADOR COURT,594H3,PRIVATE STREET NAMES
10565,CHICK HEARN,CT,,CHICK HEARN COURT,634D5,PUBLIC STREET NAMES
8188,CARPENTER,AVE,,CARPENTER AVENUE,532G7,PUBLIC STREET NAMES
7749,COPA DE ORO,ROAD,,COPA DE ORO ROAD,592B7,PUBLIC STREET NAMES
8128,CASWELL,AVE,,CASWELL AVENUE,601A6,PUBLIC STREET NAMES
665,CYPRESS,WAY,,CYPRESS WAY,NA,PRIVATE STREET NAMES
8259,CANYON,COVE,,CANYON COVE,593G2,PUBLIC STREET NAMES
7618,CREWE,ST,,CREWE STREET,532D5,PUBLIC STREET NAMES
670,CRYSTAL RIDGE,LANE,,CRYSTAL RIDGE LANE,480E6,PRIVATE STREET NAMES
7769,CONCORDIA,WALK,,CONCORDIA WALK,673H5,PUBLIC STREET NAMES
707,CHAUTAUQUA,BLVD,,CHAUTAUQUA BOULEVARD,631B3,PRIVATE STREET NAMES
9601,CARLEEN,CT,,CARLEEN COURT,503H2,PRIVATE ROADWAY NAMES
675,CREST,PL,,CREST PLACE,592G1,PRIVATE STREET NAMES
7970,CHESLEY,AVE,,CHESLEY AVENUE,673E5,PUBLIC STREET NAMES
8378,CABRILLO,BLVD,,CABRILLO BOULEVARD,672A3,PUBLIC STREET NAMES
734,CALLE DE PALERMO,,,CALLE DE PALERMO,630E1,PRIVATE STREET NAMES
8343,CALEDONIA,WAY,,CALEDONIA WAY,564G7,PUBLIC STREET NAMES
7818,COLLIER,PL,,COLLIER PLACE,560E3,PUBLIC STREET NAMES
7868,CLOVERDALE,AVE,,CLOVERDALE AVENUE,673B2,PUBLIC STREET NAMES
10961,CARROLL,CT,,CARROLL COURT,671H6,PUBLIC STREET NAMES
8046,CHANDELLE,ROAD,,CHANDELLE ROAD,563B7,PUBLIC STREET NAMES
7883,CLEMSON,ST,,CLEMSON STREET,673A1,PUBLIC STREET NAMES
7566,CURSON,AVE,WEST,CURSON AVENUE WEST,633C2,PRIVATE STREET NAMES
7798,COLVEN,ROAD,,COLVEN ROAD,481D5,PUBLIC STREET NAMES
8027,CHARITY,DR,,CHARITY DRIVE,482B1,PUBLIC STREET NAMES
10286,CAREY VIEW,ST,,CAREY VIEW STREET,481H6,PUBLIC STREET NAMES
7722,CORINTH,AVE,,CORINTH AVENUE,632A5,PUBLIC STREET NAMES
9641,CAMPUS,ROAD,,CAMPUS ROAD,635F2,UNOFFICIAL PRIVATE STREET NAMES
7549,CYRIL,AVE,,CYRIL AVENUE,635E1,PUBLIC STREET NAMES
8210,CARLYLE,PL,,CARLYLE PLACE,594G3,PUBLIC STREET NAMES
7564,CURSON,TER,,CURSON TERRACE,593B4,PUBLIC STREET NAMES
10203,CANYON COVE,PL,,CANYON COVE PLACE,481A7,PUBLIC STREET NAMES
7942,CHRYSANTHEMUM,LANE,,CHRYSANTHEMUM LANE,592A4,PUBLIC STREET NAMES
7811,COLLIS,AVE,,COLLIS AVENUE,595D5,PUBLIC STREET NAMES
7943,CHRISTY,AVE,,CHRISTY AVENUE,503B1,PUBLIC STREET NAMES
7861,CLUB HOUSE,CT,,CLUB HOUSE COURT,671G6,PUBLIC STREET NAMES
8342,CALENDA,DR,,CALENDA DRIVE,559F3,PUBLIC STREET NAMES
10066,CHANNEL POINTE,MALL,,CHANNEL POINTE MALL,702A2,PEDESTRIAN MALL NAMES
8218,CARLIN,ST,,CARLIN STREET,633B7,PUBLIC STREET NAMES
8368,CADIZ,CT,,CADIZ COURT,671H6,PUBLIC STREET NAMES
9635,CAMINO DE ORO,,,CAMINO DE ORO,794A6,UNOFFICIAL PRIVATE STREET NAMES
724,CANTURA,ST,,CANTURA STREET,NA,PRIVATE STREET NAMES
8283,CANASTA,ST,,CANASTA STREET,560H3,PUBLIC STREET NAMES
7839,COLDWATER CANYON,AVE,,COLDWATER CANYON AVENUE,532E4,PUBLIC STREET NAMES
732,CALLOWAY,DR,,CALLOWAY DRIVE,NA,PRIVATE STREET NAMES
7646,CREIGHTON,AVE,,CREIGHTON AVENUE,702E2,PUBLIC STREET NAMES
8284,CANANEA,DR,,CANANEA DRIVE,561E6,PUBLIC STREET NAMES
7955,CHICOPEE,AVE,,CHICOPEE AVENUE,531B2,PUBLIC STREET NAMES
8036,CHAPIN,LANE,,CHAPIN LANE,503G4,PUBLIC STREET NAMES
7954,CHILDS,CT,,CHILDS COURT,594C4,PUBLIC STREET NAMES
685,CONWAY,PL,,CONWAY PLACE,634H6,PRIVATE STREET NAMES
8097,CEDAREDGE,AVE,,CEDAREDGE AVENUE,565C5,PUBLIC STREET NAMES
7623,CRESTVIEW,CT,,CRESTVIEW COURT,632D2,PUBLIC STREET NAMES
7983,CHELSEA,ST,,CHELSEA STREET,635C3,PUBLIC STREET NAMES
9773,CENTER,DR,,CENTER DRIVE,672H7,PUBLIC STREET NAMES
8334,CALLADA,PL,,CALLADA PLACE,560H4,PUBLIC STREET NAMES
7703,CORSICA,DR,,CORSICA DRIVE,631C5,PUBLIC STREET NAMES
7751,COOLIDGE,PL,,COOLIDGE PLACE,672C1,PUBLIC STREET NAMES
7598,CROWN,DR,,CROWN DRIVE,631F2,PUBLIC STREET NAMES
7867,CLOVIS,AVE,,CLOVIS AVENUE,704E6,PUBLIC STREET NAMES
8253,CANYON OAK,DR,,CANYON OAK DRIVE,593G2,PUBLIC STREET NAMES
7991,CHAUMONT,ROAD,,CHAUMONT ROAD,560D5,PUBLIC STREET NAMES
8215,CARLOTA,BLVD,,CARLOTA BOULEVARD,595C4,PUBLIC STREET NAMES
9654,CORAL,DR,,CORAL DRIVE,563B6,UNOFFICIAL PRIVATE STREET NAMES
8083,CENTER,CT,,CENTER COURT,671H7,PUBLIC STREET NAMES
7856,CLYMER,ST,,CLYMER STREET,502B2,PUBLIC STREET NAMES
7898,CLEARBROOK,ST,,CLEARBROOK STREET,500H1,PUBLIC STREET NAMES
7628,CRESTLINE,DR,,CRESTLINE DRIVE,631G2,PUBLIC STREET NAMES
8145,CASTELLAMMARE,DR,,CASTELLAMMARE DRIVE,630F6,PUBLIC STREET NAMES
8309,CAMELLIA,AVE,,CAMELLIA AVENUE,532H4,PUBLIC STREET NAMES
7972,CHERYL,PL,,CHERYL PLACE,631C1,PUBLIC STREET NAMES
7760,CONSTANCE,ST,,CONSTANCE STREET,634B5,PUBLIC STREET NAMES
10612,CORTONA,WAY,,CORTONA WAY,500D1,PRIVATE ROADWAY NAMES
10215,CESAR E CHAVEZ,AVE,,CESAR E CHAVEZ AVENUE,635F5,PUBLIC STREET NAMES
10312,CALLE BRITTANY,,,CALLE BRITTANY,630H1,PRIVATE STREET NAMES
8238,CAPULIN,CT,,CAPULIN COURT,559J3,PUBLIC STREET NAMES
11036,CHAUCER,ST,,CHAUCER STREET,594H5,PRIVATE STREET NAMES
11165,CROMWELL,WAY,,CROMWELL WAY,480D7,PRIVATE STREET NAMES
11068,COLUMBUS,CIR,,COLUMBUS CIRCLE,560J3,PRIVATE STREET NAMES
11094,COURAGE,WAY,,COURAGE WAY,531H3,LIMITED ACCESS AREA NAMES
11052,CEDAR,ROAD,,CEDAR ROAD,532B4,LIMITED ACCESS AREA NAMES
11192,CAMBRIA,WAY,,CAMBRIA WAY,481J2,PRIVATE ROADWAY NAMES
10067,CHANNEL POINTE,CT,,CHANNEL POINTE COURT,702A2,PUBLIC STREET NAMES
11078,CARABELA,CT,,CARABELA COURT,480C6,PRIVATE STREET NAMES
11099,CRISLER,ST,,CRISLER STREET,593A4,PUBLIC STREET NAMES
11089,COVINGTON,LANE,,COVINGTON LANE,633A6,PRIVATE STREET NAMES
699,CLEMATIS,CT,,CLEMATIS COURT,592A1,PRIVATE STREET NAMES
11168,CHURCHILL,WAY,,CHURCHILL WAY,480D7,PRIVATE STREET NAMES
11124,COPA DE ORO,CT,,COPA DE ORO COURT,482E3,UNOFFICIAL PRIVATE STREET NAMES
11056,CHAPPAREL,LANE,,CHAPPAREL LANE,532B4,LIMITED ACCESS AREA NAMES
11053,CHERRY,LANE,,CHERRY LANE,532B4,LIMITED ACCESS AREA NAMES
11204,CARTWRIGHT,DR,,CARTWRIGHT DRIVE,500E2,PRIVATE STREET NAMES
11137,CORBIN,LANE,,CORBIN LANE,530F3,PRIVATE STREET NAMES
11154,CENTER,LANE,,CENTER LANE,594D6,LIMITED ACCESS AREA NAMES
11061,CHESTNUT,LANE,,CHESTNUT LANE,532B4,LIMITED ACCESS AREA NAMES
11193,CAROL,WAY,,CAROL WAY,481J2,PRIVATE ROADWAY NAMES
11131,CORAL,PL,,CORAL PLACE,702E1,PRIVATE ROADWAY NAMES
11017,CARLA,RDG,,CARLA RIDGE,592G3,PUBLIC STREET NAMES
11169,CAMDEN,WAY,,CAMDEN WAY,480D7,PRIVATE STREET NAMES
11207,CLEAR SKY,WAY,,CLEAR SKY WAY,529D2,PUBLIC STREET NAMES
11208,CLEAR CREEK,PL,,CLEAR CREEK PLACE,529D2,PUBLIC STREET NAMES
11225,CONCORD,AL,,CONCORD ALLEY,535B7,UNOFFICIAL PRIVATE STREET NAMES
11224,CALLE VICTORIA,,,CALLE VICTORIA,630H2,PUBLIC STREET NAMES
11239,CLAUDIA,DR,,CLAUDIA DRIVE,794B4,LIMITED ACCESS AREA NAMES
11266,COVENTRY,WAY,,COVENTRY WAY,500C1,PRIVATE STREET NAMES
11275,CHIA,WAY,,CHIA WAY,594J1,LIMITED ACCESS AREA NAMES
