Street ID,Street Name,Street Suffix,Street Suffix Direction,Official Street Name,Thomas Brothers Map,Street Type
10686,DEODARA,ST,,DEODARA STREET,634J4,PRIVATE ROADWAY NAMES
7351,DEVLIN,PL,,DEVLIN PLACE,592H5,PUBLIC STREET NAMES
10009,DYER,ST,,DYER STREET,482A5,PRIVATE STREET NAMES
7213,DORIC,ST,,DORIC STREET,481B5,PUBLIC STREET NAMES
7445,DEL ARROYO,DR,,DEL ARROYO DRIVE,503C7,PUBLIC STREET NAMES
7373,DE QUINCY,CT,,DE QUINCY COURT,529D3,PUBLIC STREET NAMES
7527,DANALDA,DR,,DANALDA DRIVE,632F6,PUBLIC STREET NAMES
7472,DEER,AVE,,DEER AVENUE,562C6,PUBLIC STREET NAMES
7170,DRYAD,CT,,DRYAD COURT,NA,PUBLIC STREET NAMES
643,DOCK,ST,,DOCK STREET,NA,PRIVATE STREET NAMES
7401,DELROSA,WALK,,DELROSA WALK,565A6,PUBLIC STREET NAMES
7504,DAVANA,TER,,DAVANA TERRACE,562B5,PUBLIC STREET NAMES
7532,DALTON,AVE,,DALTON AVENUE,763J2,PUBLIC STREET NAMES
7404,DEL RIO,AVE,,DEL RIO AVENUE,594J5,PUBLIC STREET NAMES
7442,DELAY,DR,,DELAY DRIVE,594F2,PUBLIC STREET NAMES
7230,DON RODOLFO,PL,,DON RODOLFO PLACE,673C3,PUBLIC STREET NAMES
7181,DRESDEN,PL,,DRESDEN PLACE,481C7,PUBLIC STREET NAMES
7278,DONA ISABEL,DR,,DONA ISABEL DRIVE,592J1,PUBLIC STREET NAMES
7110,DUXBURY,PL,,DUXBURY PLACE,632G6,PUBLIC STREET NAMES
7424,DELLVALE,PL,,DELLVALE PLACE,561E6,PUBLIC STREET NAMES
9889,DEVONPORT,LANE,,DEVONPORT LANE,560G6,PRIVATE STREET NAMES
10494,DELANTE,WAY,,DELANTE WAY,481A6,PRIVATE STREET NAMES
10046,DEAN,CIR,,DEAN CIRCLE,591F4,PRIVATE ROADWAY NAMES
10138,DOVER,DR,,DOVER DRIVE,500G7,PRIVATE ROADWAY NAMES
7372,DE ROJA,AVE,,DE ROJA AVENUE,560A2,PUBLIC STREET NAMES
7392,DENAIR,ST,,DENAIR STREET,631H2,PUBLIC STREET NAMES
7270,DONA MARIA,DR,,DONA MARIA DRIVE,562H7,PUBLIC STREET NAMES
7494,DAY,ST,,DAY STREET,504A4,PUBLIC STREET NAMES
10661,DEREK,LANE,,DEREK LANE,502G7,PRIVATE STREET NAMES
7534,DALLAS,ST,,DALLAS STREET,594G5,PUBLIC STREET NAMES
7455,DEGOVIA,AVE,,DEGOVIA AVENUE,559G4,PUBLIC STREET NAMES
7204,DORRIS,PL,,DORRIS PLACE,594G5,PUBLIC STREET NAMES
7467,DEERING,CIR,,DEERING CIRCLE,530C6,PUBLIC STREET NAMES
9667,DOWNEY,WAY,,DOWNEY WAY,NA,UNOFFICIAL PRIVATE STREET NAMES
7129,DUNLO,PL,,DUNLO PLACE,529D7,PUBLIC STREET NAMES
644,DOBLE,AVE,,DOBLE AVENUE,NA,PRIVATE STREET NAMES
10277,DOWNEY,WAY,,DOWNEY WAY,674A1,PRIVATE ROADWAY NAMES
7322,DIVINA,ST,,DIVINA STREET,560B5,PUBLIC STREET NAMES
7515,DARLA,AVE,,DARLA AVENUE,481C5,PUBLIC STREET NAMES
7483,DEBSTONE,AVE,,DEBSTONE AVENUE,562C6,PUBLIC STREET NAMES
7186,DRAKE,LANE,,DRAKE LANE,592D1,PUBLIC STREET NAMES
1783,DOHENY,PL,,DOHENY PLACE,592H5,PUBLIC STREET NAMES
7398,DEL VALLE,DR,,DEL VALLE DRIVE,633B3,PUBLIC STREET NAMES
7279,DONAIRE,WAY,,DONAIRE WAY,630H4,PUBLIC STREET NAMES
7461,DEERWOOD,TR,,DEERWOOD TRAIL,504C4,PUBLIC STREET NAMES
7548,D,ST,,D STREET,794F7,PUBLIC STREET NAMES
650,DENIVELLE,CT,,DENIVELLE COURT,503J1,PRIVATE STREET NAMES
7143,DUMONT,ST,,DUMONT STREET,560C3,PUBLIC STREET NAMES
7364,DES MOINES,AVE,,DES MOINES AVENUE,500F3,PUBLIC STREET NAMES
7379,DENSMORE,AVE,,DENSMORE AVENUE,501F1,PUBLIC STREET NAMES
7154,DUENDE,LANE,,DUENDE LANE,630H3,PUBLIC STREET NAMES
7184,DRAPER,AVE,,DRAPER AVENUE,632E6,PUBLIC STREET NAMES
7371,DERONDA,DR,,DERONDA DRIVE,563G7,PUBLIC STREET NAMES
7525,DANFORTH,DR,,DANFORTH DRIVE,595A3,PUBLIC STREET NAMES
7255,DON COTA,PL,,DON COTA PLACE,673C3,PUBLIC STREET NAMES
7388,DENISON,AVE,,DENISON AVENUE,824B7,PUBLIC STREET NAMES
7384,DENNI,ST,,DENNI STREET,794E4,PUBLIC STREET NAMES
654,DE GARMO,AVE,,DE GARMO AVENUE,NA,PRIVATE STREET NAMES
7246,DON JUAN,PL,,DON JUAN PLACE,560E4,PUBLIC STREET NAMES
1818,DUBNOFF,WAY,,DUBNOFF WAY,533B6,PUBLIC STREET NAMES
7437,DELEVAN,DR,,DELEVAN DRIVE,564H7,PUBLIC STREET NAMES
7386,DENIVELLE,PL,,DENIVELLE PLACE,503H1,PUBLIC STREET NAMES
7385,DENKER,AVE,,DENKER AVENUE,633J7,PUBLIC STREET NAMES
7106,DYLAN,ST,,DYLAN STREET,500H1,PUBLIC STREET NAMES
7182,DRESDEN,DR,,DRESDEN DRIVE,593B3,PUBLIC STREET NAMES
10748,DAY LILY,LANE,,DAY LILY LANE,502A6,PRIVATE ROADWAY NAMES
7319,DIX,ST,,DIX STREET,593F3,PUBLIC STREET NAMES
7383,DENNIS,LANE,,DENNIS LANE,529F5,PUBLIC STREET NAMES
7453,DE HAVILAND,AVE,,DE HAVILAND AVENUE,702H3,PUBLIC STREET NAMES
7337,DICKENS,ST,,DICKENS STREET,562D5,PUBLIC STREET NAMES
7256,DON CARLOS,DR,,DON CARLOS DRIVE,673C3,PUBLIC STREET NAMES
7311,DOCKWEILER,PL,,DOCKWEILER PLACE,633C4,PUBLIC STREET NAMES
7231,DON RICARDO,DR,,DON RICARDO DRIVE,673C2,PUBLIC STREET NAMES
7387,DENIVELLE,ROAD,,DENIVELLE ROAD,503H1,PUBLIC STREET NAMES
7152,DUKAS,ST,,DUKAS STREET,500H1,PUBLIC STREET NAMES
7476,DEEP CANYON,DR,,DEEP CANYON DRIVE,562C7,PUBLIC STREET NAMES
7206,DORRINGTON,AVE,,DORRINGTON AVENUE,532C1,PUBLIC STREET NAMES
7277,DON ALANIS,PL,,DON ALANIS PLACE,673D3,PUBLIC STREET NAMES
7367,DESCANSO,DR,,DESCANSO DRIVE,594C6,PUBLIC STREET NAMES
7356,DETROIT,ST,,DETROIT STREET,593D4,PUBLIC STREET NAMES
7113,DUVALL,ST,,DUVALL STREET,594H6,PUBLIC STREET NAMES
10690,DAHLIA,CT,,DAHLIA COURT,634J5,PRIVATE ROADWAY NAMES
7374,DERBY,PL,,DERBY PLACE,NA,PUBLIC STREET NAMES
7377,DENVER,AVE,,DENVER AVENUE,674B6,PUBLIC STREET NAMES
7440,DEL CERRO,CIR,,DEL CERRO CIRCLE,529E4,PUBLIC STREET NAMES
7171,DRURY,LANE,,DRURY LANE,594C4,PUBLIC STREET NAMES
7484,DEBS,AVE,,DEBS AVENUE,529E7,PUBLIC STREET NAMES
7431,DELIA,AVE,,DELIA AVENUE,533C3,PUBLIC STREET NAMES
7325,DITSON,ST,,DITSON STREET,503B6,PUBLIC STREET NAMES
7324,DIVAN,PL,,DIVAN PLACE,532E3,PUBLIC STREET NAMES
7419,DEL MONTE,DR,,DEL MONTE DRIVE,594C6,PUBLIC STREET NAMES
7434,DEL GADO,DR,,DEL GADO DRIVE,561G5,PUBLIC STREET NAMES
656,DEERHORN,DR,,DEERHORN DRIVE,NA,PRIVATE STREET NAMES
7306,DAHA,PL,,DAHA PLACE,532E2,PUBLIC STREET NAMES
649,DENKER,AVE,,DENKER AVENUE,673J7,PRIVATE STREET NAMES
7361,DE SOTO,AVE,,DE SOTO AVENUE,500C4,PUBLIC STREET NAMES
7350,DEVON,AVE,,DEVON AVENUE,632C2,PUBLIC STREET NAMES
7303,DOLO,WAY,,DOLO WAY,592A7,PUBLIC STREET NAMES
648,DEODAR,LANE,,DEODAR LANE,560E4,PRIVATE STREET NAMES
7464,DEERVALE,DR,,DEERVALE DRIVE,562A6,PUBLIC STREET NAMES
7159,DUCOR,AVE,,DUCOR AVENUE,529G3,PUBLIC STREET NAMES
7226,DON TONITO,DR,,DON TONITO DRIVE,673C3,PUBLIC STREET NAMES
7224,DON ZAREMBO,DR,,DON ZAREMBO DRIVE,673C4,PUBLIC STREET NAMES
7479,DECENTE,CT,,DECENTE COURT,562J6,PUBLIC STREET NAMES
7343,DE WITT,DR,,DE WITT DRIVE,563D7,PUBLIC STREET NAMES
7132,DUNKIRK,AVE,,DUNKIRK AVENUE,632D3,PUBLIC STREET NAMES
7316,DOBBINS,PL,,DOBBINS PLACE,631D4,PUBLIC STREET NAMES
7283,DONA DOROTEA,DR,,DONA DOROTEA DRIVE,592H1,PUBLIC STREET NAMES
9819,DRIFTWOOD,PL,,DRIFTWOOD PLACE,630J6,UNOFFICIAL PRIVATE STREET NAMES
7298,DOLPHIN,ST,,DOLPHIN STREET,823J6,PUBLIC STREET NAMES
7163,DUBOIS,AVE,,DUBOIS AVENUE,559F2,PUBLIC STREET NAMES
7114,DUSTIN,DR,,DUSTIN DRIVE,595B4,PUBLIC STREET NAMES
653,DE MILLE,DR,,DE MILLE DRIVE,593J3,PRIVATE STREET NAMES
7346,DEWAP,ROAD,,DEWAP ROAD,634F3,PUBLIC STREET NAMES
7358,D'ESTE,DR,,D'ESTE DRIVE,631D3,PUBLIC STREET NAMES
7353,DEVISTA,PL,,DEVISTA PLACE,593B2,PUBLIC STREET NAMES
7137,DUNCAN,ST,,DUNCAN STREET,531A7,PUBLIC STREET NAMES
7289,DONA ALICIA,PL,,DONA ALICIA PLACE,562H7,PUBLIC STREET NAMES
7199,DOSS,CT,,DOSS COURT,481C4,PUBLIC STREET NAMES
10833,DAOSTA,WAY,,DAOSTA WAY,480E6,PRIVATE STREET NAMES
7418,DEL MORENO,DR,,DEL MORENO DRIVE,560D4,PUBLIC STREET NAMES
7249,DONINGTON,PL,,DONINGTON PLACE,562C7,PUBLIC STREET NAMES
9959,DEARBORN,ST,,DEARBORN STREET,501G7,PRIVATE STREET NAMES
7538,DALECREST,AVE,,DALECREST AVENUE,529F1,PUBLIC STREET NAMES
7191,DOWNES,ROAD,,DOWNES ROAD,NA,PUBLIC STREET NAMES
7292,DOMINION,WAY,,DOMINION WAY,593A2,PUBLIC STREET NAMES
9665,DONNA,,,DONNA,501H2,UNOFFICIAL PRIVATE STREET NAMES
10519,DON PIO,CT,,DON PIO COURT,560A4,PRIVATE STREET NAMES
7140,DUNBARTON,AVE,,DUNBARTON AVENUE,702F1,PUBLIC STREET NAMES
7360,DESPLAIN,PL,,DESPLAIN PLACE,500D3,PUBLIC STREET NAMES
10713,DRAGON,LANE,,DRAGON LANE,530D3,PRIVATE STREET NAMES
7499,DAVIES,DR,,DAVIES DRIVE,592C5,PUBLIC STREET NAMES
7175,DRONFIELD,PL,,DRONFIELD PLACE,481H2,PUBLIC STREET NAMES
7149,DULCE YNEZ,LANE,,DULCE YNEZ LANE,630G5,PUBLIC STREET NAMES
7355,DEVERON RIDGE,ROAD,,DEVERON RIDGE ROAD,529E5,PUBLIC STREET NAMES
7459,DE FOE,AVE,,DE FOE AVENUE,482A5,PUBLIC STREET NAMES
7446,DE LA OSA,ST,,DE LA OSA STREET,560B3,PUBLIC STREET NAMES
10110,DEVONPORT,LANE,,DEVONPORT LANE,591G3,PRIVATE STREET NAMES
7414,DE LONGPRE,AVE,,DE LONGPRE AVENUE,594B4,PUBLIC STREET NAMES
7349,DEVONSHIRE,ST,,DEVONSHIRE STREET,499J4,PUBLIC STREET NAMES
7474,DEEP DELL,PL,,DEEP DELL PLACE,593F2,PUBLIC STREET NAMES
7366,DESERET,DR,,DESERET DRIVE,559G4,PUBLIC STREET NAMES
7411,DELORAS,DR,,DELORAS DRIVE,794E3,PUBLIC STREET NAMES
7293,DOMINION,LANE,,DOMINION LANE,592J2,PUBLIC STREET NAMES
7482,DE CAMP,DR,,DE CAMP DRIVE,592B4,PUBLIC STREET NAMES
7536,DALEHURST,AVE,,DALEHURST AVENUE,632B1,PUBLIC STREET NAMES
7127,DUNN,DR,,DUNN DRIVE,632F7,PUBLIC STREET NAMES
7342,DEXTER,ST,,DEXTER STREET,595A2,PUBLIC STREET NAMES
7190,DOWNING,ST,,DOWNING STREET,NA,PUBLIC STREET NAMES
7462,DEER VIEW,CT,,DEER VIEW COURT,557J4,PUBLIC STREET NAMES
7471,DEERBROOK,LANE,,DEERBROOK LANE,631F1,PUBLIC STREET NAMES
7323,DIVIDE,TR,,DIVIDE TRAIL,529E2,PUBLIC STREET NAMES
7407,DELPHI,ST,,DELPHI STREET,595D1,PUBLIC STREET NAMES
7406,DELRESTO,DR,,DELRESTO DRIVE,592C6,PUBLIC STREET NAMES
641,DRESDEN,DR,,DRESDEN DRIVE,593B2,PRIVATE STREET NAMES
7485,DEBRA,AVE,,DEBRA AVENUE,501E1,PUBLIC STREET NAMES
7526,DANBURY,PL,,DANBURY PLACE,560D2,PUBLIC STREET NAMES
7336,DICKSON,LANE,,DICKSON LANE,593A3,PUBLIC STREET NAMES
7284,DONA DOLORES,PL,,DONA DOLORES PLACE,562H7,PUBLIC STREET NAMES
7173,DRUMM,AVE,,DRUMM AVE,794G4,PUBLIC STREET NAMES
7251,DON FELIPE,DR,,DON FELIPE DRIVE,673C3,PUBLIC STREET NAMES
7234,DON PIO,DR,,DON PIO DRIVE,560A3,PUBLIC STREET NAMES
7178,DRIFTWOOD,ST,,DRIFTWOOD STREET,671H7,PUBLIC STREET NAMES
7229,DON TAPIA,PL,,DON TAPIA PLACE,673D3,PUBLIC STREET NAMES
7297,DOMAN,AVE,,DOMAN AVENUE,561A3,PUBLIC STREET NAMES
7160,DUCOMMUN,ST,,DUCOMMUN STREET,634G4,PUBLIC STREET NAMES
7430,DELIBAN,AVE,,DELIBAN AVENUE,504A2,PUBLIC STREET NAMES
7362,DESMOND ESTATES,ROAD,,DESMOND ESTATES ROAD,593C2,PUBLIC STREET NAMES
7122,DUNURE,PL,,DUNURE PLACE,480G6,PUBLIC STREET NAMES
7395,DEMARET,PL,,DEMARET PLACE,481D6,PUBLIC STREET NAMES
7403,DEL RIO,PL,,DEL RIO PLACE,481C6,PUBLIC STREET NAMES
7266,DONA PEGITA,DR,,DONA PEGITA DRIVE,563A7,PUBLIC STREET NAMES
9660,DELICIA,,,DELICIA,823F7,UNOFFICIAL PRIVATE STREET NAMES
7389,DENISE,LANE,,DENISE LANE,529G2,PUBLIC STREET NAMES
7488,DEAUVILLE,ST,,DEAUVILLE STREET,NA,PUBLIC STREET NAMES
7451,DE LA CUMBRE,PL,,DE LA CUMBRE PLACE,562A7,PUBLIC STREET NAMES
7338,DIANA,ST,,DIANA STREET,634A1,PUBLIC STREET NAMES
7115,DURKEE,AVE,,DURKEE AVENUE,504C4,PUBLIC STREET NAMES
7402,DELROSA,DR,,DELROSA DRIVE,565A6,PUBLIC STREET NAMES
7547,DACOTAH,ST,,DACOTAH STREET,635B6,PUBLIC STREET NAMES
7166,DUANE,ST,,DUANE STREET,594F6,PUBLIC STREET NAMES
7334,DICTURN,ST,,DICTURN STREET,564H7,PUBLIC STREET NAMES
7447,DELANO,ST,,DELANO STREET,533A7,PUBLIC STREET NAMES
7214,DORIAN,ST,,DORIAN STREET,481G2,PUBLIC STREET NAMES
7107,DYLAN,PL,,DYLAN PLACE,500H1,PUBLIC STREET NAMES
7508,DARYL,AVE,,DARYL AVENUE,481B5,PUBLIC STREET NAMES
7341,DIAMANTE,DR,,DIAMANTE DRIVE,561E6,PUBLIC STREET NAMES
7521,DANUBE,AVE,,DANUBE AVENUE,501G2,PUBLIC STREET NAMES
7131,DUNLEER,DR,,DUNLEER DRIVE,632E6,PUBLIC STREET NAMES
7155,DUDLEY,WAY,,DUDLEY WAY,595D6,PUBLIC STREET NAMES
7417,DEL MORENO,PL,,DEL MORENO PLACE,560D3,PUBLIC STREET NAMES
7506,DAUPHIN,AVE,,DAUPHIN AVENUE,633A6,PUBLIC STREET NAMES
646,DIANE,WAY,,DIANE WAY,592J3,PRIVATE STREET NAMES
7145,DUMFRIES,ROAD,,DUMFRIES ROAD,632E6,PUBLIC STREET NAMES
7511,DARTFORD,WAY,,DARTFORD WAY,561F7,PUBLIC STREET NAMES
7500,DAVID,AVE,,DAVID AVENUE,633A6,PUBLIC STREET NAMES
640,DREXEL,AVE,,DREXEL AVENUE,NA,PRIVATE STREET NAMES
7235,DON PABLO,PL,,DON PABLO PLACE,673C3,PUBLIC STREET NAMES
7276,DON ALBERTO,PL,,DON ALBERTO PLACE,673C4,PUBLIC STREET NAMES
7528,DANA,ST,,DANA STREET,634A7,PUBLIC STREET NAMES
7314,DOBINSON,ST,,DOBINSON STREET,635C4,PUBLIC STREET NAMES
7315,DOBBS,ST,,DOBBS STREET,635F1,PUBLIC STREET NAMES
11011,DISCOVERY CREEK,PL,,DISCOVERY CREEK PLACE,702E1,PRIVATE ROADWAY NAMES
7161,DUCAT,ST,,DUCAT STREET,502A2,PUBLIC STREET NAMES
7432,DELGANY,AVE,,DELGANY AVENUE,702B3,PUBLIC STREET NAMES
7421,DELMAS,TER,,DELMAS TERRACE,672G1,PUBLIC STREET NAMES
7177,DRISCOLL,AVE,,DRISCOLL AVENUE,531C3,PUBLIC STREET NAMES
7542,DAISY,PL,,DAISY PLACE,500H1,PUBLIC STREET NAMES
7109,DUXBURY,ROAD,,DUXBURY ROAD,632G5,PUBLIC STREET NAMES
7245,DON LORENZO,DR,,DON LORENZO DRIVE,673C4,PUBLIC STREET NAMES
659,DAVIES,DR,,DAVIES DRIVE,592C5,PRIVATE STREET NAMES
7519,DARBY,AVE,,DARBY AVENUE,480H6,PUBLIC STREET NAMES
7165,DUARTE,ST,,DUARTE STREET,674G5,PUBLIC STREET NAMES
7189,DOYLE,PL,,DOYLE PLACE,634G1,PUBLIC STREET NAMES
7280,DONA EVITA,DR,,DONA EVITA DRIVE,562H7,PUBLIC STREET NAMES
7125,DUNNICLIFFE,CT,,DUNNICLIFFE COURT,480H6,PUBLIC STREET NAMES
7522,DANNYHILL,DR,,DANNYHILL DRIVE,632F6,PUBLIC STREET NAMES
7200,DOS RIOS,DR,,DOS RIOS DRIVE,504A2,PUBLIC STREET NAMES
7305,DOHENY,DR,,DOHENY DRIVE,592H7,PUBLIC STREET NAMES
7510,DARTMOUTH,AVE,,DARTMOUTH AVENUE,595E7,PUBLIC STREET NAMES
10118,DUSTIN ALLAN,LANE,,DUSTIN ALLAN LANE,531J4,PRIVATE STREET NAMES
7252,DONELLA,CIR,,DONELLA CIRCLE,591H2,PUBLIC STREET NAMES
7524,DANIELS,DR,,DANIELS DRIVE,632F3,PUBLIC STREET NAMES
7120,DUPONT,ST,,DUPONT STREET,640C2,PUBLIC STREET NAMES
7156,DUDLEY,DR,,DUDLEY DRIVE,595D7,PUBLIC STREET NAMES
7330,DILLON,ST,,DILLON STREET,594C5,PUBLIC STREET NAMES
7502,DAVENPORT,DR,,DAVENPORT DRIVE,594H4,PUBLIC STREET NAMES
7300,DOLOROSA,ST,,DOLOROSA STREET,560C2,PUBLIC STREET NAMES
7535,DALKEITH,AVE,,DALKEITH AVENUE,631J2,PUBLIC STREET NAMES
7463,DEERVALE,PL,,DEERVALE PLACE,562A6,PUBLIC STREET NAMES
7138,DUNCAMP,PL,,DUNCAMP PLACE,592H3,PUBLIC STREET NAMES
7466,DEERING,CT,,DEERING COURT,530B3,PUBLIC STREET NAMES
7299,DOLPHIN,AVE,,DOLPHIN AVENUE,853J1,PUBLIC STREET NAMES
7238,DONNA,CT,,DONNA COURT,530G5,PUBLIC STREET NAMES
7262,DONA ROSA,DR,,DONA ROSA DRIVE,562J7,PUBLIC STREET NAMES
7539,DALE,CT,,DALE COURT,499H5,PUBLIC STREET NAMES
7422,DEL MAR,AVE,,DEL MAR AVENUE,594B5,PUBLIC STREET NAMES
7399,DELTA,ST,,DELTA STREET,594E6,PUBLIC STREET NAMES
7307,DOGWOOD,PL,,DOGWOOD PLACE,565C7,PUBLIC STREET NAMES
7493,DEANE,AVE,,DEANE AVENUE,673E6,PUBLIC STREET NAMES
636,DUNDAS,DR,,DUNDAS DRIVE,562J2,PRIVATE STREET NAMES
7259,DONA SOFIA,DR,,DONA SOFIA DRIVE,563A7,PUBLIC STREET NAMES
7219,DORAN,PL,,DORAN PLACE,532F4,PUBLIC STREET NAMES
7370,DERWENT,AVE,,DERWENT AVENUE,480G6,PUBLIC STREET NAMES
7435,DELFINO,ST,,DELFINO STREET,504C4,PUBLIC STREET NAMES
7197,DOUGLAS,PL,,DOUGLAS PLACE,671G5,PUBLIC STREET NAMES
7339,DIAMOND,ST,,DIAMOND STREET,634E3,PUBLIC STREET NAMES
7232,DON QUIXOTE,DR,,DON QUIXOTE DRIVE,673C4,PUBLIC STREET NAMES
7443,DELAWARE,AVE,,DELAWARE AVENUE,631J7,PUBLIC STREET NAMES
7477,DECI,ST,,DECI STREET,581G2,PUBLIC STREET NAMES
9659,DARK CANYON,DR,,DARK CANYON DRIVE,563D6,UNOFFICIAL PRIVATE STREET NAMES
7475,DEEP CANYON,PL,,DEEP CANYON PLACE,592C1,PUBLIC STREET NAMES
10026,DORAL,WAY,,DORAL WAY,560J6,PRIVATE STREET NAMES
7473,DEEPWATER,AVE,,DEEPWATER AVENUE,794F3,PUBLIC STREET NAMES
7537,DALEGROVE,DR,,DALEGROVE DRIVE,592F2,PUBLIC STREET NAMES
7318,DIXIE CANYON,AVE,,DIXIE CANYON AVENUE,562D5,PUBLIC STREET NAMES
7271,DONA LOLA,PL,,DONA LOLA PLACE,562J7,PUBLIC STREET NAMES
7457,DE GARMO,AVE,,DE GARMO AVENUE,481G2,PUBLIC STREET NAMES
7237,DONNA YNEZ,LANE,,DONNA YNEZ LANE,630G5,PUBLIC STREET NAMES
7497,DAWES,AVE,,DAWES AVENUE,672F5,PUBLIC STREET NAMES
7348,DEVONSHIRE,ST,,DEVONSHIRE STREET,502A4,PUBLIC STREET NAMES
7543,DAHLIA,DR,,DAHLIA DRIVE,565B5,PUBLIC STREET NAMES
7520,DANZA,ST,,DANZA STREET,560C4,PUBLIC STREET NAMES
7382,DENNY,AVE,,DENNY AVENUE,533A4,PUBLIC STREET NAMES
7489,DEARBORN,ST,,DEARBORN STREET,502A7,PUBLIC STREET NAMES
642,DRAKE,LANE,,DRAKE LANE,592D1,PRIVATE STREET NAMES
7142,DUNAS,LANE,,DUNAS LANE,561A4,PUBLIC STREET NAMES
7254,DON DIABLO,DR,,DON DIABLO DRIVE,673D3,PUBLIC STREET NAMES
7518,DARBY,PL,,DARBY PLACE,530J3,PUBLIC STREET NAMES
9662,DICHA,,,DICHA,823G7,UNOFFICIAL PRIVATE STREET NAMES
7468,DEERING,AVE,,DEERING AVENUE,500B3,PUBLIC STREET NAMES
7368,DE SANTIS,AVE,,DE SANTIS AVENUE,481G5,PUBLIC STREET NAMES
7272,DONA LOLA,DR,,DONA LOLA DRIVE,562J7,PUBLIC STREET NAMES
7233,DON PORFIRIO,PL,,DON PORFIRIO PLACE,673C4,PUBLIC STREET NAMES
7312,DOBLE,AVE,,DOBLE AVENUE,794B4,PUBLIC STREET NAMES
637,DUCOR,AVE,,DUCOR AVENUE,529G2,PRIVATE STREET NAMES
7286,DONA CONCHITA,PL,,DONA CONCHITA PLACE,562J7,PUBLIC STREET NAMES
7124,DUNOON,LANE,,DUNOON LANE,631G4,PUBLIC STREET NAMES
7134,DUNDEE,PL,,DUNDEE PLACE,594B2,PUBLIC STREET NAMES
7119,DUQUE,DR,,DUQUE DRIVE,562H7,PUBLIC STREET NAMES
7153,DUFRESNE,CT,,DUFRESNE COURT,672E2,PUBLIC STREET NAMES
7503,DAVE,DR,,DAVE DRIVE,823H5,PUBLIC STREET NAMES
7433,DEL GADO,PL,,DEL GADO PLACE,561G5,PUBLIC STREET NAMES
7268,DONA MEMA,PL,,DONA MEMA PLACE,562J7,PUBLIC STREET NAMES
7544,DAHLIA,AVE,,DAHLIA AVENUE,594C5,PUBLIC STREET NAMES
7250,DONHILL,DR,,DONHILL DRIVE,592E5,PUBLIC STREET NAMES
7301,DOLORES,ST,,DOLORES STREET,794F4,PUBLIC STREET NAMES
7321,DIVISION,PL,,DIVISION PLACE,594J2,PUBLIC STREET NAMES
7264,DONA RAQUEL,PL,,DONA RAQUEL PLACE,562H7,PUBLIC STREET NAMES
7345,DEWEY,AVE,,DEWEY AVENUE,634A4,PUBLIC STREET NAMES
7192,DOVER,ST,,DOVER STREET,594D1,PUBLIC STREET NAMES
10954,DOWNES,ROAD,,DOWNES ROAD,631G1,PRIVATE STREET NAMES
7501,DAVENTRY,ST,,DAVENTRY STREET,482E7,PUBLIC STREET NAMES
7405,DEL REY,AVE,,DEL REY AVENUE,672B6,PUBLIC STREET NAMES
7491,DEANWOOD,DR,,DEANWOOD DRIVE,560D5,PUBLIC STREET NAMES
7359,DESSERY,LANE,,DESSERY LANE,NA,PUBLIC STREET NAMES
7130,DUNLEER,PL,,DUNLEER PLACE,632E6,PUBLIC STREET NAMES
7426,DELLMONT,DR,,DELLMONT DRIVE,503J1,PUBLIC STREET NAMES
7253,DON DIEGO,DR,,DON DIEGO DRIVE,673C3,PUBLIC STREET NAMES
7369,DERWENT,PL,,DERWENT PLACE,480G6,PUBLIC STREET NAMES
7393,DEMPSEY,AVE,,DEMPSEY AVENUE,501F4,PUBLIC STREET NAMES
7441,DEL CAMPO,PL,,DEL CAMPO PLACE,560D2,PUBLIC STREET NAMES
7136,DUNDAS,ST,,DUNDAS STREET,635D4,PUBLIC STREET NAMES
7436,DELFERN,DR,,DELFERN DRIVE,592C6,PUBLIC STREET NAMES
7139,DUNBLANE,AVE,,DUNBLANE AVENUE,480G6,PUBLIC STREET NAMES
7265,DONA PEPITA,PL,,DONA PEPITA PLACE,592H1,PUBLIC STREET NAMES
657,DECK,ST,,DECK STREET,NA,PRIVATE STREET NAMES
7495,DAWSON,ST,,DAWSON STREET,634D2,PUBLIC STREET NAMES
7344,DEWEY,ST,,DEWEY STREET,672B2,PUBLIC STREET NAMES
7141,DUNBAR,PL,,DUNBAR PLACE,562A5,PUBLIC STREET NAMES
7112,DUXBURY,CIR,,DUXBURY CIRCLE,632G5,PUBLIC STREET NAMES
7128,DUNMAN,AVE,,DUNMAN AVENUE,559G3,PUBLIC STREET NAMES
7425,DELL OAK,DR,,DELL OAK DRIVE,593H2,PUBLIC STREET NAMES
7423,DELLWOOD,LANE,,DELLWOOD LANE,592A3,PUBLIC STREET NAMES
7133,DUNFIELD,AVE,,DUNFIELD AVENUE,672G7,PUBLIC STREET NAMES
7228,DON TIMOTEO,DR,,DON TIMOTEO DRIVE,673C4,PUBLIC STREET NAMES
7449,DE LA LUZ,AVE,,DE LA LUZ AVENUE,560A4,PUBLIC STREET NAMES
7117,DURANGO,AVE,,DURANGO AVENUE,632H4,PUBLIC STREET NAMES
7478,DECENTE,DR,,DECENTE DRIVE,562J6,PUBLIC STREET NAMES
7420,DELMONICO,AVE,,DELMONICO AVENUE,529J1,PUBLIC STREET NAMES
7295,DOMINGUEZ,AVE,,DOMINGUEZ AVENUE,794F6,PUBLIC STREET NAMES
7202,DORSEY,ST,,DORSEY STREET,674F3,PUBLIC STREET NAMES
7158,DUDLEY,AVE,,DUDLEY AVENUE,671G5,PUBLIC STREET NAMES
655,DEERFIELD,LANE,,DEERFIELD LANE,500G4,PRIVATE STREET NAMES
7454,DE HAVEN,AVE,,DE HAVEN AVENUE,482A4,PUBLIC STREET NAMES
7164,DUBLIN,AVE,,DUBLIN AVENUE,673G2,PUBLIC STREET NAMES
7313,DOBKIN,AVE,,DOBKIN AVENUE,560J3,PUBLIC STREET NAMES
7378,DENTON,AVE,,DENTON AVENUE,482A4,PUBLIC STREET NAMES
7396,DEL ZURO,DR,,DEL ZURO DRIVE,593C1,PUBLIC STREET NAMES
7452,DEHOUGNE,ST,,DEHOUGNE STREET,532F5,PUBLIC STREET NAMES
7247,DON JOSE,DR,,DON JOSE DRIVE,673C3,PUBLIC STREET NAMES
7530,DAMASK,AVE,,DAMASK AVENUE,673B6,PUBLIC STREET NAMES
7212,DORIE,DR,,DORIE DRIVE,529E4,PUBLIC STREET NAMES
7294,DOMINICA,AVE,,DOMINICA AVENUE,503C1,PUBLIC STREET NAMES
7222,DORADO,DR,,DORADO DRIVE,561E6,PUBLIC STREET NAMES
7227,DON TOMASO,DR,,DON TOMASO DRIVE,673C3,PUBLIC STREET NAMES
660,DAVID,AVE,,DAVID AVENUE,632J6,PRIVATE STREET NAMES
7390,DENBY,AVE,,DENBY AVENUE,594F4,PUBLIC STREET NAMES
7376,DEON,PL,,DEON PLACE,481B5,PUBLIC STREET NAMES
7470,DEERHORN,DR,,DEERHORN DRIVE,561H6,PUBLIC STREET NAMES
7157,DUDLEY,CT,,DUDLEY COURT,671G5,PUBLIC STREET NAMES
10063,DEER RUN,LANE,,DEER RUN LANE,591F4,PRIVATE ROADWAY NAMES
7162,DUCASSE,AL,,DUCASSE ALLEY,634F6,PUBLIC STREET NAMES
7201,DOS PALOS,DR,,DOS PALOS DRIVE,563C7,PUBLIC STREET NAMES
7169,DRYAD,ROAD,,DRYAD ROAD,631C6,PUBLIC STREET NAMES
7242,DONMETZ,ST,,DONMETZ STREET,501G1,PUBLIC STREET NAMES
7220,DORAL,PL,,DORAL PLACE,480G7,PUBLIC STREET NAMES
7409,DEL PASO,AVE,,DEL PASO AVENUE,635A2,PUBLIC STREET NAMES
9960,DANIEL,LANE,,DANIEL LANE,561F3,PUBLIC STREET NAMES
7517,DARCIA,PL,,DARCIA PLACE,561E5,PUBLIC STREET NAMES
7282,DONA ELENA,PL,,DONA ELENA PLACE,592H1,PUBLIC STREET NAMES
9668,DRADO,,,DRADO,823F7,UNOFFICIAL PRIVATE STREET NAMES
9852,DEODAR,,,DEODAR,481H1,UNOFFICIAL PRIVATE STREET NAMES
7183,DRELL,ST,,DRELL STREET,481J2,PUBLIC STREET NAMES
7394,DE MINA,ST,,DE MINA STREET,560C3,PUBLIC STREET NAMES
10689,DEL SOL,CT,,DEL SOL COURT,634J4,PRIVATE ROADWAY NAMES
7516,DARIEN,ST,,DARIEN STREET,559G5,PUBLIC STREET NAMES
7258,DONA SUSANA,DR,,DONA SUSANA DRIVE,562J7,PUBLIC STREET NAMES
10136,DORCHESTER,DR,,DORCHESTER DRIVE,500G7,PRIVATE ROADWAY NAMES
7274,DON ALEGRE,PL,,DON ALEGRE PLACE,673C3,PUBLIC STREET NAMES
7269,DONA MARTA,DR,,DONA MARTA DRIVE,562J7,PUBLIC STREET NAMES
7194,DOVE,PL,,DOVE PLACE,500B2,PUBLIC STREET NAMES
7221,DORAL,AVE,,DORAL AVENUE,480F7,PUBLIC STREET NAMES
7490,DEARBORN,DR,,DEARBORN DRIVE,593F2,PUBLIC STREET NAMES
7410,DELOZ,AVE,,DELOZ AVENUE,594C4,PUBLIC STREET NAMES
7546,DAEMAS,PL,,DAEMAS PLACE,481C5,PUBLIC STREET NAMES
7332,DILLING,ST,,DILLING STREET,562H5,PUBLIC STREET NAMES
7352,DEVLIN,DR,,DEVLIN DRIVE,592H5,PUBLIC STREET NAMES
7529,DAMON,ST,,DAMON STREET,634H7,PUBLIC STREET NAMES
7375,DE PAUW,ST,,DE PAUW STREET,631A6,PUBLIC STREET NAMES
7148,DULCINEA,CT,,DULCINEA COURT,560A5,PUBLIC STREET NAMES
7288,DONA CECILIA,DR,,DONA CECILIA DRIVE,562H7,PUBLIC STREET NAMES
639,DUARTE,ST,,DUARTE STREET,674G4,PRIVATE STREET NAMES
9669,DRIFTWOOD,DR,,DRIFTWOOD DRIVE,630J6,UNOFFICIAL PRIVATE STREET NAMES
7260,DONA SARITA,PL,,DONA SARITA PLACE,562J7,PUBLIC STREET NAMES
7541,DALATA,ROAD,,DALATA ROAD,559H4,PUBLIC STREET NAMES
7480,DE CELIS,PL,,DE CELIS PLACE,481D7,PUBLIC STREET NAMES
7514,DARLINGTON,AVE,,DARLINGTON AVENUE,631G5,PUBLIC STREET NAMES
10003,DALI,DR,,DALI DRIVE,481A5,PRIVATE STREET NAMES
7150,DULCET,AVE,,DULCET AVENUE,500H1,PUBLIC STREET NAMES
10561,DAWN,CK,,DAWN CREEK,702D1,PUBLIC STREET NAMES
638,DUCASSE,AL,,DUCASSE ALLEY,634F6,PUBLIC STREET NAMES
647,DESMOND ESTATES,DR,,DESMOND ESTATES DRIVE,NA,PRIVATE STREET NAMES
7416,DEL NORTE,ST,,DEL NORTE STREET,595A5,PUBLIC STREET NAMES
7126,DUNN,ST,,DUNN STREET,824A4,PUBLIC STREET NAMES
7180,DREW,ST,,DREW STREET,594F1,PUBLIC STREET NAMES
7174,DRUID,ST,,DRUID STREET,635D1,PUBLIC STREET NAMES
7185,DRAKE,PL,,DRAKE PLACE,530C6,PUBLIC STREET NAMES
7223,DORA,ST,,DORA STREET,503A7,PUBLIC STREET NAMES
7172,DRUMMOND,ST,,DRUMMOND STREET,631B5,PUBLIC STREET NAMES
7290,DON,ST,,DON STREET,794E4,PUBLIC STREET NAMES
7168,DRYDEN,PL,,DRYDEN PLACE,634C1,PUBLIC STREET NAMES
7208,DORMIE,PL,,DORMIE PLACE,561D4,PUBLIC STREET NAMES
7545,DAHLGREN,AVE,,DAHLGREN AVENUE,672B1,PUBLIC STREET NAMES
7427,DELL,AVE,,DELL AVENUE,671J7,PUBLIC STREET NAMES
7123,DUNSMUIR,AVE,,DUNSMUIR AVENUE,633C4,PUBLIC STREET NAMES
7236,DON ORTEGA,PL,,DON ORTEGA PLACE,673C3,PUBLIC STREET NAMES
7187,DRACO,WAY,,DRACO WAY,529F5,PUBLIC STREET NAMES
7327,DINA,PL,,DINA PLACE,500E4,PUBLIC STREET NAMES
661,DARLENE,LANE,,DARLENE LANE,529G2,PRIVATE STREET NAMES
7531,DALY,ST,,DALY STREET,595A7,PUBLIC STREET NAMES
7240,DON MILAGRO,DR,,DON MILAGRO DRIVE,673C3,PUBLIC STREET NAMES
7331,DILLON,CT,,DILLON COURT,671H4,PUBLIC STREET NAMES
10824,D,ST,,D STREET,794D7,PRIVATE STREET NAMES
7439,DELCO,AVE,,DELCO AVENUE,500D3,PUBLIC STREET NAMES
7397,DEL VALLE,ST,,DEL VALLE STREET,560A3,PUBLIC STREET NAMES
7408,DEL PASO,CT,,DEL PASO COURT,635D2,PUBLIC STREET NAMES
10801,DREAMS,LANE,,DREAMS LANE,501J5,PRIVATE STREET NAMES
7391,DENBIGH,DR,,DENBIGH DRIVE,592C1,PUBLIC STREET NAMES
7487,DEBBY,ST,,DEBBY STREET,533A7,PUBLIC STREET NAMES
7261,DON ARTURO,PL,,DON ARTURO PLACE,673C3,PUBLIC STREET NAMES
7456,DEGNAN,BLVD,,DEGNAN BOULEVARD,673F2,PUBLIC STREET NAMES
10217,DAVID,LANE,,DAVID LANE,502G7,PRIVATE STREET NAMES
663,D,WALK,,D WALK,NA,PRIVATE STREET NAMES
7412,DELOR,ROAD,,DELOR ROAD,564H7,PUBLIC STREET NAMES
7481,DECATUR,ST,,DECATUR STREET,634H6,PUBLIC STREET NAMES
7329,DIMMICK,AVE,,DIMMICK AVENUE,671G4,PUBLIC STREET NAMES
652,DE NEVE,LANE,,DE NEVE LANE,635C3,PRIVATE STREET NAMES
7320,DIVISION,ST,,DIVISION STREET,594J2,PUBLIC STREET NAMES
7116,DU RAY,PL,,DU RAY PLACE,633B7,PUBLIC STREET NAMES
7513,DARNOCH,WAY,,DARNOCH WAY,529E4,PUBLIC STREET NAMES
7444,DE LA TORRE,WAY,,DE LA TORRE WAY,675B1,PUBLIC STREET NAMES
7188,DRACENA,DR,,DRACENA DRIVE,594A3,PUBLIC STREET NAMES
7151,DUKE,ST,,DUKE STREET,635C1,PUBLIC STREET NAMES
7215,DOREEN,PL,,DOREEN PLACE,671J4,PUBLIC STREET NAMES
7218,DORAN,ST,,DORAN STREET,564B4,PUBLIC STREET NAMES
7285,DONA CRISTINA,PL,,DONA CRISTINA PLACE,562H7,PUBLIC STREET NAMES
9900,DURHAM,ROAD,,DURHAM ROAD,562B6,PRIVATE STREET NAMES
7340,DIAMANTE,PL,,DIAMANTE PLACE,561D6,PUBLIC STREET NAMES
7496,DAWNRIDGE,DR,,DAWNRIDGE DRIVE,592D5,PUBLIC STREET NAMES
7111,DUXBURY,LANE,,DUXBURY LANE,632G5,PUBLIC STREET NAMES
7135,DUNDEE,DR,,DUNDEE DRIVE,594A2,PUBLIC STREET NAMES
7144,DUMONT,PL,,DUMONT PLACE,560D3,PUBLIC STREET NAMES
7310,DOCKWEILER,ST,,DOCKWEILER STREET,633D4,PUBLIC STREET NAMES
7179,DREXEL,AVE,,DREXEL AVENUE,633C2,PUBLIC STREET NAMES
658,DAVIES,WAY,,DAVIES WAY,592J3,PRIVATE STREET NAMES
7365,DESFORD,DR,,DESFORD DRIVE,592D3,PUBLIC STREET NAMES
7263,DON ARELLANES,DR,,DON ARELLANES DRIVE,673D3,PUBLIC STREET NAMES
7225,DON VALDES,DR,,DON VALDES DRIVE,673C3,PUBLIC STREET NAMES
7357,DETOUR,DR,,DETOUR DRIVE,593G2,PUBLIC STREET NAMES
7380,DENSLOW,AVE,,DENSLOW AVENUE,631J1,PUBLIC STREET NAMES
7121,DUOMO VIA,,,DUOMO VIA,591G1,PUBLIC STREET NAMES
664,D,CT,,D COURT,NA,PRIVATE STREET NAMES
7211,DORILEE,LANE,,DORILEE LANE,561E7,PUBLIC STREET NAMES
7118,DURAND,DR,,DURAND DRIVE,563F7,PUBLIC STREET NAMES
10747,DAISY,DR,,DAISY DRIVE,502A6,PRIVATE ROADWAY NAMES
645,DOANE CANYON,ROAD,,DOANE CANYON ROAD,NA,PRIVATE STREET NAMES
7216,DORCHESTER,AVE,,DORCHESTER AVENUE,595G6,PUBLIC STREET NAMES
7167,DRYSDALE,AVE,,DRYSDALE AVENUE,595E5,PUBLIC STREET NAMES
7448,DEL AMO,BLVD,,DEL AMO BOULEVARD,764A4,PUBLIC STREET NAMES
7291,DOMINO,ST,,DOMINO STREET,531H7,PUBLIC STREET NAMES
7195,DOVE,DR,,DOVE DRIVE,595A3,PUBLIC STREET NAMES
635,DUNSTAN,WAY,,DUNSTAN WAY,631H3,PRIVATE STREET NAMES
7275,DONALDSON,ST,,DONALDSON STREET,594F5,PUBLIC STREET NAMES
7509,DARWIN,AVE,,DARWIN AVENUE,635A1,PUBLIC STREET NAMES
7309,DODGE,AVE,,DODGE AVENUE,794B5,PUBLIC STREET NAMES
10903,DREAM,LANE,,DREAM LANE,502F1,LIMITED ACCESS AREA NAMES
8,DRONFIELD,TER,,DRONFIELD TERRACE,502F1,LIMITED ACCESS AREA NAMES
7505,DAVANA,ROAD,,DAVANA ROAD,562C5,PUBLIC STREET NAMES
10367,DISCOVERY,CK,,DISCOVERY CREEK,702D1,PUBLIC STREET NAMES
7203,DORSET,PL,,DORSET PLACE,793J2,PUBLIC STREET NAMES
7287,DONA CLARA,PL,,DONA CLARA PLACE,563A7,PUBLIC STREET NAMES
7304,DOLCEDO,WAY,,DOLCEDO WAY,592A5,PUBLIC STREET NAMES
7281,DONA EMILIA,DR,,DONA EMILIA DRIVE,562J7,PUBLIC STREET NAMES
7413,DELOR,DR,,DELOR DRIVE,595F7,PUBLIC STREET NAMES
7302,DOLORES,ST,,DOLORES STREET,594E1,PUBLIC STREET NAMES
7469,DEERHORN,ROAD,,DEERHORN ROAD,561G6,PUBLIC STREET NAMES
7533,DALMATIA,DR,,DALMATIA DRIVE,823J1,PUBLIC STREET NAMES
7450,DE LA GUERRA,ST,,DE LA GUERRA STREET,560A3,PUBLIC STREET NAMES
7492,DEANE,ST,,DEANE STREET,594E4,PUBLIC STREET NAMES
7335,DICKSON,ST,,DICKSON STREET,672A6,PUBLIC STREET NAMES
7273,DONA LISA,DR,,DONA LISA DRIVE,562J7,PUBLIC STREET NAMES
9664,DIVINO,,,DIVINO,823F7,UNOFFICIAL PRIVATE STREET NAMES
7210,DORINA,PL,,DORINA PLACE,481C5,PUBLIC STREET NAMES
7400,DEL SUR,ST,,DEL SUR STREET,502C1,PUBLIC STREET NAMES
7176,DRONFIELD,AVE,,DRONFIELD AVENUE,481J2,PUBLIC STREET NAMES
7207,DOROTHY,ST,,DOROTHY STREET,631G5,PUBLIC STREET NAMES
9663,DICKSON,CT,,DICKSON COURT,632B1,UNOFFICIAL PRIVATE STREET NAMES
662,DAILY,DR,,DAILY DRIVE,531E2,PRIVATE STREET NAMES
7296,DOMINGO,ROAD,,DOMINGO ROAD,559J4,PUBLIC STREET NAMES
7243,DON MARIANO,DR,,DON MARIANO DRIVE,673D3,PUBLIC STREET NAMES
9661,DE NEVE,DR,,DE NEVE DRIVE,632A1,UNOFFICIAL PRIVATE STREET NAMES
7147,DULUTH,LANE,,DULUTH LANE,592A5,PUBLIC STREET NAMES
7146,DUMETZ,ROAD,,DUMETZ ROAD,560A4,PUBLIC STREET NAMES
7523,DANNYBOYAR,AVE,,DANNYBOYAR AVENUE,529G6,PUBLIC STREET NAMES
7326,DITMAN,AVE,,DITMAN AVENUE,595D7,PUBLIC STREET NAMES
9830,DEARBORN,CT,,DEARBORN COURT,502F1,PRIVATE ROADWAY NAMES
7267,DONA NENITA,PL,,DONA NENITA PLACE,592J1,PUBLIC STREET NAMES
7217,DORCAS,PL,,DORCAS PLACE,563G7,PUBLIC STREET NAMES
7381,DENROCK,AVE,,DENROCK AVENUE,702F1,PUBLIC STREET NAMES
7239,DONNA,AVE,,DONNA AVENUE,500G4,PUBLIC STREET NAMES
9666,DOUBLE EE RANCH,ROAD,,DOUBLE EE RANCH ROAD,560C6,UNOFFICIAL PRIVATE STREET NAMES
651,DENISE,LANE,,DENISE LANE,529G2,PRIVATE STREET NAMES
7498,DA VINCI,AVE,,DA VINCI AVENUE,560A5,PUBLIC STREET NAMES
7248,DON IBARRA,PL,,DON IBARRA PLACE,673D3,PUBLIC STREET NAMES
7428,DELITA,PL,,DELITA PLACE,560D3,PUBLIC STREET NAMES
7196,DOUGLAS,ST,,DOUGLAS STREET,594F7,PUBLIC STREET NAMES
7460,DEFIANCE,AVE,,DEFIANCE AVENUE,704G4,PUBLIC STREET NAMES
7308,DODSON,AVE,,DODSON AVENUE,823J5,PUBLIC STREET NAMES
7244,DON LUIS,DR,,DON LUIS DRIVE,673D3,PUBLIC STREET NAMES
7333,DILL,PL,,DILL PLACE,559E1,PUBLIC STREET NAMES
7205,DORRINGTON,PL,,DORRINGTON PLACE,502A6,PUBLIC STREET NAMES
7108,DYER,ST,,DYER STREET,482D1,PUBLIC STREET NAMES
7241,DON MIGUEL,DR,,DON MIGUEL DRIVE,673C4,PUBLIC STREET NAMES
7458,DEFOREST,ST,,DEFOREST STREET,560C3,PUBLIC STREET NAMES
7507,DAUBERT,ST,,DAUBERT STREET,502A2,PUBLIC STREET NAMES
7354,DEVISTA,DR,,DEVISTA DRIVE,593B2,PUBLIC STREET NAMES
7363,DESMOND,ST,,DESMOND STREET,502C1,PUBLIC STREET NAMES
7198,DOSS,TER,,DOSS TERRACE,560G5,PUBLIC STREET NAMES
7193,DOVER,PL,,DOVER PLACE,594D1,PUBLIC STREET NAMES
7257,DONA TERESA,DR,,DONA TERESA DRIVE,562H7,PUBLIC STREET NAMES
7438,DELCO,PL,,DELCO PLACE,530D4,PUBLIC STREET NAMES
7429,DELITA,DR,,DELITA DRIVE,560D3,PUBLIC STREET NAMES
7328,DIMMICK,DR,,DIMMICK DRIVE,595A3,PUBLIC STREET NAMES
7512,DARRO,ROAD,,DARRO ROAD,560A3,PUBLIC STREET NAMES
10534,DELANY,LANE,,DELANY LANE,530A3,PUBLIC STREET NAMES
7317,DIXIE CANYON,PL,,DIXIE CANYON PLACE,562D6,PUBLIC STREET NAMES
7540,DALE,AVE,,DALE AVENUE,503B5,PUBLIC STREET NAMES
7486,DEBELL,ST,,DEBELL STREET,502E5,PUBLIC STREET NAMES
7209,DORLON,DR,,DORLON DRIVE,560G6,PUBLIC STREET NAMES
10732,DASHI,PL,,DASHI PLACE,530B4,PRIVATE STREET NAMES
7347,DEVORE,LANE,,DEVORE LANE,NA,PUBLIC STREET NAMES
11179,DARCY,WAY,,DARCY WAY,500C1,PRIVATE STREET NAMES
11145,DELPHINE,DR,,DELPHINE DRIVE,530E1,PRIVATE ROADWAY NAMES
11194,DEANE,LANE,,DEANE LANE,481J2,PRIVATE ROADWAY NAMES
11141,DAMPA,LANE,,DAMPA LANE,530E1,PRIVATE ROADWAY NAMES
11155,DIAMOND,WAY,,DIAMOND WAY,502F3,LIMITED ACCESS AREA NAMES
11109,DAYCHAR,DR,,DAYCHAR DRIVE,593E5,LIMITED ACCESS AREA NAMES
11267,DAKOTA,DR,,DAKOTA DRIVE,632J7,LIMITED ACCESS AREA NAMES
