Street ID,Street Name,Street Suffix,Street Suffix Direction,Official Street Name,Thomas Brothers Map,Street Type
6778,EVERETT,PL,,EVERETT PLACE,634F1,PUBLIC STREET NAMES
11003,EAST SEAGLASS,CIR,,EAST SEAGLASS CIRCLE,702E1,PRIVATE ROADWAY NAMES
6820,ESPINOSA,ST,,ESPINOSA STREET,560G5,PUBLIC STREET NAMES
7043,EDGEHILL,DR,,EDGEHILL DRIVE,633F7,PUBLIC STREET NAMES
7062,EBEY,AVE,,EBEY AVENUE,595D4,PUBLIC STREET NAMES
6849,ENROSE,AVE,,ENROSE AVENUE,823H4,PUBLIC STREET NAMES
6925,EL MIO,DR,,EL MIO DRIVE,595C2,PUBLIC STREET NAMES
6847,ENSIGN,AVE,,ENSIGN AVENUE,533A2,PUBLIC STREET NAMES
6931,EL MANOR,AVE,,EL MANOR AVENUE,672G7,PUBLIC STREET NAMES
6902,EL ROBLE,LANE,,EL ROBLE LANE,592F3,PUBLIC STREET NAMES
6918,ELMWOOD,AVE,,ELMWOOD AVENUE,593G7,PUBLIC STREET NAMES
6863,ENADIA,WAY,,ENADIA WAY,529G5,PUBLIC STREET NAMES
6799,ETIWANDA,AVE,,ETIWANDA AVENUE,500J1,PUBLIC STREET NAMES
6971,ELGIN,ST,,ELGIN STREET,595E1,PUBLIC STREET NAMES
6795,EUBANK,AVE,,EUBANK AVENUE,794F4,PUBLIC STREET NAMES
6761,EZRA,ST,,EZRA STREET,635C5,PUBLIC STREET NAMES
6771,EXCELSIOR,ST,,EXCELSIOR STREET,481F3,PUBLIC STREET NAMES
6892,ELVIRA,ROAD,,ELVIRA ROAD,560A3,PUBLIC STREET NAMES
6927,ELMGROVE,ST,,ELMGROVE STREET,594H6,PUBLIC STREET NAMES
6985,ELDORA,PL,,ELDORA PLACE,503G2,PUBLIC STREET NAMES
6774,EVERS,AVE,,EVERS AVENUE,704F4,PUBLIC STREET NAMES
6882,EMERALD,DR,,EMERALD DRIVE,634E3,PUBLIC STREET NAMES
7011,EL ATAJO,ST,,EL ATAJO STREET,594J3,PUBLIC STREET NAMES
6922,ELMORAN,ST,,ELMORAN STREET,594F4,PUBLIC STREET NAMES
9805,ELMTREE,ROAD,,ELMTREE ROAD,500H3,PRIVATE STREET NAMES
6966,ELINDA,WAY,,ELINDA WAY,503A5,PUBLIC STREET NAMES
6850,ENRIQUE,ST,,ENRIQUE STREET,560C5,PUBLIC STREET NAMES
6796,ETTRICK,ST,,ETTRICK STREET,594C2,PUBLIC STREET NAMES
7010,ELBA,PL,,ELBA PLACE,529E7,PUBLIC STREET NAMES
6894,ELVIDO,DR,,ELVIDO DRIVE,561E7,PUBLIC STREET NAMES
6815,ESSEX,ST,,ESSEX STREET,634F7,PUBLIC STREET NAMES
6875,EMILY,ST,,EMILY STREET,854A1,PUBLIC STREET NAMES
10252,ENCINO VERDE,PL,,ENCINO VERDE PLACE,561D6,PRIVATE STREET NAMES
7075,EASTON,DR,,EASTON DRIVE,592C3,PUBLIC STREET NAMES
6949,ELLENVIEW,AVE,,ELLENVIEW AVENUE,529D7,PUBLIC STREET NAMES
6924,EL MIRADOR,DR,,EL MIRADOR DRIVE,673B2,PUBLIC STREET NAMES
6784,EVANSTON,ST,,EVANSTON STREET,631E4,PUBLIC STREET NAMES
6790,EUNICE,AVE,,EUNICE AVENUE,595E1,PUBLIC STREET NAMES
9958,ELECTRA,CT,,ELECTRA COURT,593B4,PUBLIC STREET NAMES
7072,EAST SIDE,BLVD,,EAST SIDE BOULEVARD,635C5,PUBLIC STREET NAMES
6940,ELLIS,DR,,ELLIS DRIVE,563D7,PUBLIC STREET NAMES
6806,ESTRELLA,AVE,,ESTRELLA AVENUE,634C6,PUBLIC STREET NAMES
6859,ENCINITAS,AVE,,ENCINITAS AVENUE,481F5,PUBLIC STREET NAMES
10300,ENCINO VERDE,PL,,ENCINO VERDE PLACE,561C6,PRIVATE STREET NAMES
7039,EDGERTON,AVE,,EDGERTON AVENUE,561E3,PUBLIC STREET NAMES
6901,EL ROSA,DR,,EL ROSA DRIVE,594H2,PUBLIC STREET NAMES
6845,ENTERPRISE,ST,,ENTERPRISE STREET,634H7,PUBLIC STREET NAMES
6817,ESPLANADE WEST,,,ESPLANADE WEST,701J1,PUBLIC STREET NAMES
10983,ELECTRIC,DR,,ELECTRIC DRIVE,633A6,PUBLIC STREET NAMES
6994,EL CERRO,LANE,,EL CERRO LANE,562H7,PUBLIC STREET NAMES
612,EVANS,ROAD,,EVANS ROAD,631C4,PRIVATE STREET NAMES
10223,ESPRIT,LANE,,ESPRIT LANE,561E3,PRIVATE STREET NAMES
622,EDISON,BLVD,,EDISON BOULEVARD,533B7,PRIVATE STREET NAMES
11023,EDENDALE,LANE,,EDENDALE LANE,594E5,LIMITED ACCESS AREA NAMES
6807,ESTRADA,ST,,ESTRADA STREET,675B1,PUBLIC STREET NAMES
6947,ELLENWOOD,PL,,ELLENWOOD PLACE,564J5,PUBLIC STREET NAMES
7002,EL CANON,AVE,,EL CANON AVENUE,529D7,PUBLIC STREET NAMES
6800,ETHELDO,AVE,,ETHELDO AVENUE,672F5,PUBLIC STREET NAMES
10213,ERWIN,ST,,ERWIN STREET,NA,PRIVATE STREET NAMES
7063,EBELL,ST,,EBELL STREET,532C2,PUBLIC STREET NAMES
10679,EMILY,CT,,EMILY COURT,560H1,PRIVATE STREET NAMES
7076,EASTMAN,PL,,EASTMAN PLACE,824A2,PUBLIC STREET NAMES
7035,EDINBURGH,AVE,,EDINBURGH AVENUE,593B7,PUBLIC STREET NAMES
6804,ESTRONDO,DR,,ESTRONDO DRIVE,561D4,PUBLIC STREET NAMES
7095,EAMES,AVE,,EAMES AVENUE,500H7,PUBLIC STREET NAMES
6786,EVADALE,DR,,EVADALE DRIVE,595B5,PUBLIC STREET NAMES
7089,EARLMAR,DR,,EARLMAR DRIVE,632F6,PUBLIC STREET NAMES
6975,ELECTRIC,ST,,ELECTRIC STREET,764A1,PUBLIC STREET NAMES
6982,ELDRED,WALK,,ELDRED WALK,595A3,PUBLIC STREET NAMES
6765,EXPOSITION,BLVD,,EXPOSITION BOULEVARD,674B1,PUBLIC STREET NAMES
6929,EL MEDIO,AVE,,EL MEDIO AVENUE,630J4,PUBLIC STREET NAMES
6903,EL ROBLE,DR,,EL ROBLE DRIVE,564H6,PUBLIC STREET NAMES
6951,ELLENITA,AVE,,ELLENITA AVENUE,560F4,PUBLIC STREET NAMES
7023,EDWIN,DR,,EDWIN DRIVE,592G1,PUBLIC STREET NAMES
6952,ELLENDALE,PL,,ELLENDALE PLACE,634A6,PUBLIC STREET NAMES
6848,ENSENADA,DR,,ENSENADA DRIVE,560B5,PUBLIC STREET NAMES
6783,EVANVIEW,DR,,EVANVIEW DRIVE,592J4,PUBLIC STREET NAMES
7025,EDWARD,AVE,,EDWARD AVENUE,594G3,PUBLIC STREET NAMES
6833,ERSKINE,DR,,ERSKINE DRIVE,630J6,PUBLIC STREET NAMES
6787,EVA,TER,,EVA TERRACE,595B7,PUBLIC STREET NAMES
6970,EL HITO,CIR,,EL HITO CIRCLE,630H3,PUBLIC STREET NAMES
6842,ENTRADA,DR,,ENTRADA DRIVE,631B7,PUBLIC STREET NAMES
7081,EASTERN,CL,,EASTERN CANAL,671H6,PUBLIC STREET NAMES
9921,ENFIELD,AVE,,ENFIELD AVENUE,531A7,PRIVATE STREET NAMES
6878,EMERY,PL,,EMERY PLACE,794F5,PUBLIC STREET NAMES
33,ERWIN,ST,,ERWIN STREET,NA,PEDESTRIAN MALL NAMES
6772,EXCELENTE,DR,,EXCELENTE DRIVE,559H4,PUBLIC STREET NAMES
6965,ELISA,PL,,ELISA PLACE,561E5,PUBLIC STREET NAMES
6801,ETHEL,AVE,,ETHEL AVENUE,532D2,PUBLIC STREET NAMES
6856,ENCINO HILLS,PL,,ENCINO HILLS PLACE,561D6,PUBLIC STREET NAMES
6794,EUCALYPTUS,LANE,,EUCALYPTUS LANE,565C7,PUBLIC STREET NAMES
6992,ELDEN,AVE,,ELDEN AVENUE,634B4,PUBLIC STREET NAMES
7029,EDMORE,PL,,EDMORE PLACE,679C4,PUBLIC STREET NAMES
7031,EDLEEN,DR,,EDLEEN DRIVE,560H4,PUBLIC STREET NAMES
6788,EUSTACE,ST,,EUSTACE STREET,482D7,PUBLIC STREET NAMES
6826,ESKO,AVE,,ESKO AVENUE,503C1,PUBLIC STREET NAMES
626,EAST,WAY,,EAST WAY,702G5,PRIVATE STREET NAMES
7067,EATON,ST,,EATON STREET,565B7,PUBLIC STREET NAMES
6885,EMBURY,ST,,EMBURY STREET,631A4,PUBLIC STREET NAMES
7008,ELBEN,PL,,ELBEN PLACE,503E6,PUBLIC STREET NAMES
7066,EATON,TER,,EATON TERRACE,565C7,PUBLIC STREET NAMES
6762,EXPOSITION,PL,,EXPOSITION PLACE,673E1,PUBLIC STREET NAMES
6764,EXPOSITION,BLVD,,EXPOSITION BOULEVARD,673E1,PUBLIC STREET NAMES
6851,ENNIS,ST,,ENNIS STREET,503G4,PUBLIC STREET NAMES
7022,EDWIN,PL,,EDWIN PLACE,592H1,PUBLIC STREET NAMES
7099,EAGLE ROCK,BLVD,,EAGLE ROCK BOULEVARD,565A6,PUBLIC STREET NAMES
614,ESTRADA,ST,,ESTRADA STREET,675B1,PRIVATE STREET NAMES
6893,ELVILL,DR,,ELVILL DRIVE,591E1,PUBLIC STREET NAMES
6986,ELDORA,AVE,,ELDORA AVENUE,503G2,PUBLIC STREET NAMES
6991,ELDER,CT,,ELDER COURT,595E1,PUBLIC STREET NAMES
10025,ELM VIEW,DR,,ELM VIEW DRIVE,560J5,PRIVATE STREET NAMES
10785,EXPOSITION PARK,DR,,EXPOSITION PARK DRIVE,674B2,PRIVATE STREET NAMES
7073,EAST RUSTIC,ROAD,,EAST RUSTIC ROAD,631B7,PUBLIC STREET NAMES
6881,EMERALD,ST,,EMERALD STREET,634E3,PUBLIC STREET NAMES
6811,ESTEPA,DR,,ESTEPA DRIVE,504A5,PUBLIC STREET NAMES
6956,ELLEN,ST,,ELLEN STREET,NA,PUBLIC STREET NAMES
627,EAST,WAY,,EAST WAY,481J2,PRIVATE STREET NAMES
6864,EMPYREAN,WAY,,EMPYREAN WAY,632F4,PUBLIC STREET NAMES
6858,ENCINO,AVE,,ENCINO AVENUE,481B7,PUBLIC STREET NAMES
7006,EL BOSQUE,CT,,EL BOSQUE COURT,630G1,PUBLIC STREET NAMES
10142,ESSEX,DR,,ESSEX DRIVE,500G7,PRIVATE ROADWAY NAMES
7078,EAST KENSINGTON,ROAD,,EAST KENSINGTON ROAD,634F1,PUBLIC STREET NAMES
7079,EAST GRAMERCY,PARK,,EAST GRAMERCY PARK,633H6,PUBLIC STREET NAMES
6852,ENGLANDER,ST,,ENGLANDER STREET,824A1,PUBLIC STREET NAMES
6810,ESTES,ROAD,,ESTES ROAD,565A5,PUBLIC STREET NAMES
6792,EUDORA,AVE,,EUDORA AVENUE,794C4,PUBLIC STREET NAMES
6934,ELM,DR,,ELM DRIVE,559E7,PUBLIC STREET NAMES
625,EAST OBSERVATORY,DR,,EAST OBSERVATORY DRIVE,593J1,PRIVATE STREET NAMES
6814,ESTABAN,WAY,,ESTABAN WAY,504A5,PUBLIC STREET NAMES
7065,EATOUGH,AVE,,EATOUGH AVENUE,529J1,PUBLIC STREET NAMES
7018,EGBERT,ST,,EGBERT STREET,482C1,PUBLIC STREET NAMES
7049,EDEN,PL,,EDEN PLACE,592F2,PUBLIC STREET NAMES
10387,EDGEBROOK,WAY,,EDGEBROOK WAY,500H4,PRIVATE STREET NAMES
631,EAGLE MOUNTAIN,ROAD,,EAGLE MOUNTAIN ROAD,529D2,PRIVATE STREET NAMES
6908,ELRENO,ST,,ELRENO STREET,NA,PUBLIC STREET NAMES
6904,ELRITA,DR,,ELRITA DRIVE,592J2,PUBLIC STREET NAMES
6910,EL PASO,WALK,,EL PASO WALK,633J6,PUBLIC STREET NAMES
6830,ESCALON,DR,,ESCALON DRIVE,561D7,PUBLIC STREET NAMES
6972,ELEVADO,ST,,ELEVADO STREET,594C6,PUBLIC STREET NAMES
6932,ELM,ST,,ELM STREET,594H4,PUBLIC STREET NAMES
6997,EL CENTRO,AVE,,EL CENTRO AVENUE,593F5,PUBLIC STREET NAMES
6976,ELECTRIC,ST,,ELECTRIC STREET,594E4,PUBLIC STREET NAMES
6907,EL REPOSO,DR,,EL REPOSO DRIVE,564H6,PUBLIC STREET NAMES
6831,ERWIN STREET,MALL,,ERWIN STREET MALL,532A7,PEDESTRIAN MALL NAMES
7047,EDENDALE,PL,,EDENDALE PLACE,594E5,PUBLIC STREET NAMES
7092,EARL,ST,,EARL STREET,594E5,PUBLIC STREET NAMES
6900,EL SEGUNDO,BLVD,,EL SEGUNDO BOULEVARD,734A1,PUBLIC STREET NAMES
6768,EXHIBIT,CT,,EXHIBIT COURT,560C1,PUBLIC STREET NAMES
6954,ELLENDA,AVE,,ELLENDA AVENUE,632D7,PUBLIC STREET NAMES
6818,ESPLANADE EAST,,,ESPLANADE EAST,701J1,PUBLIC STREET NAMES
6964,ELIZALDE,AVE,,ELIZALDE AVENUE,530H1,PUBLIC STREET NAMES
6883,EMELITA,ST,,EMELITA STREET,559F1,PUBLIC STREET NAMES
6958,ELKLAND,PL,,ELKLAND PLACE,671J4,PUBLIC STREET NAMES
6905,EL RIO,AVE,,EL RIO AVENUE,565A5,PUBLIC STREET NAMES
7038,EDGEWARE,ROAD,,EDGEWARE ROAD,634E2,PUBLIC STREET NAMES
6984,EL DORADO,AVE,,EL DORADO AVENUE,481F4,PUBLIC STREET NAMES
630,EAGLE RIDGE,LANE,,EAGLE RIDGE LANE,480E6,PRIVATE STREET NAMES
10740,EVAN,WAY,,EVAN WAY,532A6,PUBLIC STREET NAMES
7061,ECCLES,ST,,ECCLES STREET,529H2,PUBLIC STREET NAMES
6912,EL ORO,WAY,,EL ORO WAY,481C5,PUBLIC STREET NAMES
6969,EL HITO,CT,,EL HITO COURT,630H3,PUBLIC STREET NAMES
10102,EDDINGHAM,WAY,,EDDINGHAM WAY,529E4,PUBLIC STREET NAMES
6911,EL PASO,DR,,EL PASO DRIVE,594J1,PUBLIC STREET NAMES
621,ELLENBORO,WAY,,ELLENBORO WAY,560C4,PRIVATE STREET NAMES
6808,ESTRADA,LANE,,ESTRADA LANE,480G7,PUBLIC STREET NAMES
616,ELYSIAN PARK,DR,,ELYSIAN PARK DRIVE,594H7,PRIVATE STREET NAMES
7057,ECHELON,PL,,ECHELON PLACE,533C1,PUBLIC STREET NAMES
7097,EAGLE VIEW,CIR,,EAGLE VIEW CIRCLE,564J6,PUBLIC STREET NAMES
6896,ELUSIVE,DR,,ELUSIVE DRIVE,592J3,PUBLIC STREET NAMES
10960,ELSIE,LANE,,ELSIE LANE,674G5,PRIVATE ROADWAY NAMES
6993,EL CONTENTO,DR,,EL CONTENTO DRIVE,593F2,PUBLIC STREET NAMES
7083,EASTERLY,TER,,EASTERLY TERRACE,594D5,PUBLIC STREET NAMES
6937,ELLSMERE,AVE,,ELLSMERE AVENUE,633B5,PUBLIC STREET NAMES
7044,EDGECLIFFE,DR,,EDGECLIFFE DRIVE,594C5,PUBLIC STREET NAMES
6802,ESTUDILLO,AVE,,ESTUDILLO AVENUE,635C6,PUBLIC STREET NAMES
9670,EAST TEMPLE,WAY,,EAST TEMPLE WAY,632C4,UNOFFICIAL PRIVATE STREET NAMES
7082,EASTERN,AVE,,EASTERN AVENUE,595E7,PUBLIC STREET NAMES
6785,EVANS,ST,,EVANS STREET,594C3,PUBLIC STREET NAMES
7024,EDWARD EVERETT HORTON,LANE,,EDWARD EVERETT HORTON LANE,561C2,PUBLIC STREET NAMES
7055,ECHO PARK,AVE,,ECHO PARK AVENUE,594C6,PUBLIC STREET NAMES
6835,ERIC,DR,,ERIC DRIVE,631D1,PUBLIC STREET NAMES
6990,ELDER,ST,,ELDER STREET,595E1,PUBLIC STREET NAMES
6821,ESPERANZA,ST,,ESPERANZA STREET,635C7,PUBLIC STREET NAMES
6770,EXCHANGE,ST,,EXCHANGE STREET,564C5,PUBLIC STREET NAMES
6915,ELOISE,AVE,,ELOISE AVENUE,532J3,PUBLIC STREET NAMES
6973,EL ESCORPION,ROAD,,EL ESCORPION ROAD,529E7,PUBLIC STREET NAMES
6861,ENCHANTED,PL,,ENCHANTED PLACE,630H4,PUBLIC STREET NAMES
6828,ESCOBEDO,DR,,ESCOBEDO DRIVE,560B3,PUBLIC STREET NAMES
7093,EARL,CT,,EARL COURT,594E5,PUBLIC STREET NAMES
9888,EARLS,CT,,EARLS COURT,559C7,PRIVATE STREET NAMES
7080,EASTERN,CT,,EASTERN COURT,671H6,PUBLIC STREET NAMES
611,EVERGREEN,AVE,,EVERGREEN AVENUE,675A1,PRIVATE STREET NAMES
7046,EDENHURST,AVE,,EDENHURST AVENUE,594D1,PUBLIC STREET NAMES
6860,ENCHANTED,WAY,,ENCHANTED WAY,630G4,PUBLIC STREET NAMES
6846,ENSLEY,AVE,,ENSLEY AVENUE,632D2,PUBLIC STREET NAMES
6926,ELMHURST,DR,,ELMHURST DRIVE,504B6,PUBLIC STREET NAMES
9754,EAGLE RIDGE,WAY,,EAGLE RIDGE WAY,480E6,PRIVATE STREET NAMES
6928,ELMER,AVE,,ELMER AVENUE,532J3,PUBLIC STREET NAMES
6914,ELON,AVE,,ELON AVENUE,502B5,PUBLIC STREET NAMES
7013,EL ABACA,PL,,EL ABACA PLACE,560H4,PUBLIC STREET NAMES
6766,EXPOSITION,BLVD,,EXPOSITION BOULEVARD,674B1,PUBLIC STREET NAMES
634,E,CT,,E COURT,NA,PRIVATE STREET NAMES
7037,EDGEWATER,TER,,EDGEWATER TERRACE,594D4,PUBLIC STREET NAMES
7036,EDGEWOOD,PL,,EDGEWOOD PLACE,633C3,PUBLIC STREET NAMES
7077,EASTLAKE,AVE,,EASTLAKE AVENUE,595B7,PUBLIC STREET NAMES
6857,ENCINO HILLS,DR,,ENCINO HILLS DRIVE,561D7,PUBLIC STREET NAMES
7104,EADS,ST,,EADS STREET,594G5,PUBLIC STREET NAMES
6996,EL CERCO,PL,,EL CERCO PLACE,631A6,PUBLIC STREET NAMES
6974,ELECTRONICS,PL,,ELECTRONICS PLACE,564C5,PUBLIC STREET NAMES
6897,ELSINORE,ST,,ELSINORE STREET,594D7,PUBLIC STREET NAMES
7003,EL CAMINO,,,EL CAMINO,632G3,PUBLIC STREET NAMES
7060,ECHANDIA,ST,,ECHANDIA STREET,634J4,PUBLIC STREET NAMES
6963,ELK,LANE,,ELK LANE,NA,PUBLIC STREET NAMES
6923,ELMO,ST,,ELMO STREET,504A4,PUBLIC STREET NAMES
6836,ERICA,CIR,,ERICA CIRCLE,529F5,PUBLIC STREET NAMES
7014,EILEEN,AVE,,EILEEN AVENUE,673D6,PUBLIC STREET NAMES
6889,ELYSIAN PARK,AVE,,ELYSIAN PARK AVENUE,634F1,PUBLIC STREET NAMES
6890,ELYRIA,DR,,ELYRIA DRIVE,594J4,PUBLIC STREET NAMES
6789,EUREKA,DR,,EUREKA DRIVE,562J6,PUBLIC STREET NAMES
6782,EVELYN,AVE,,EVELYN AVENUE,763J2,PUBLIC STREET NAMES
7050,EDEN,DR,,EDEN DRIVE,592F2,PUBLIC STREET NAMES
7015,EILAT,ST,,EILAT STREET,559C1,PUBLIC STREET NAMES
6854,ENDICOTT,ST,,ENDICOTT STREET,595F7,PUBLIC STREET NAMES
6980,ELEANOR,AVE,,ELEANOR AVENUE,593E6,PUBLIC STREET NAMES
7017,EHREN,AVE,,EHREN AVENUE,503B1,PUBLIC STREET NAMES
6798,ETON,AVE,,ETON AVENUE,500B2,PUBLIC STREET NAMES
6933,ELM,ST,,ELM STREET,672A5,PUBLIC STREET NAMES
7000,EL CAPRICE,AVE,,EL CAPRICE AVENUE,532F3,PUBLIC STREET NAMES
6855,ENCINO,TER,,ENCINO TERRACE,561B3,PUBLIC STREET NAMES
6872,EMMET,TER,,EMMET TERRACE,593E3,PUBLIC STREET NAMES
6841,ENTRANCE,DR,,ENTRANCE DRIVE,671B1,PUBLIC STREET NAMES
6942,ELLIOTT,ST,,ELLIOTT STREET,634H3,PUBLIC STREET NAMES
6895,EL VERANO,AVE,,EL VERANO AVENUE,564H5,PUBLIC STREET NAMES
628,EARLE,ST,,EARLE STREET,824E4,PRIVATE STREET NAMES
6998,EL CEDRO,ST,,EL CEDRO STREET,594J3,PUBLIC STREET NAMES
6877,EMERY,ST,,EMERY STREET,675B2,PUBLIC STREET NAMES
6874,EMIR,AVE,,EMIR AVENUE,482B1,PUBLIC STREET NAMES
6797,ETTA,ST,,ETTA STREET,594J5,PUBLIC STREET NAMES
10839,EAGLE ROCK,WAY,,EAGLE ROCK WAY,502E6,PRIVATE ROADWAY NAMES
6773,EWING,ST,,EWING STREET,594D5,PUBLIC STREET NAMES
7054,ECHO PARK,TER,,ECHO PARK TERRACE,634E1,PUBLIC STREET NAMES
6779,EVENTIDE,PL,,EVENTIDE PLACE,529C6,PUBLIC STREET NAMES
7030,EDLOFT,AVE,,EDLOFT AVENUE,595D6,PUBLIC STREET NAMES
6955,ELLENBOGEN,ST,,ELLENBOGEN STREET,503G1,PUBLIC STREET NAMES
7027,EDRIS,DR,,EDRIS DRIVE,632G3,PUBLIC STREET NAMES
6887,ELZEVIR,ROAD,,ELZEVIR ROAD,560B5,PUBLIC STREET NAMES
6868,EMPIRE,PL,,EMPIRE PLACE,502F3,PUBLIC STREET NAMES
6839,ENVOY,ST,,ENVOY STREET,481J6,PUBLIC STREET NAMES
7001,ELCANTO,DR,,ELCANTO DRIVE,564J6,PUBLIC STREET NAMES
7088,EAST,BLVD,,EAST BOULEVARD,672D3,PUBLIC STREET NAMES
6781,EVENING SHADE,DR,,EVENING SHADE DRIVE,824A3,PUBLIC STREET NAMES
7085,EAST CHANNEL,ROAD,,EAST CHANNEL ROAD,631C6,PUBLIC STREET NAMES
7026,EDSEL,AVE,,EDSEL AVENUE,672E6,PUBLIC STREET NAMES
7101,EAGLE DALE,AVE,,EAGLE DALE AVENUE,564H5,PUBLIC STREET NAMES
6763,EXPOSITION,DR,,EXPOSITION DRIVE,632G7,PUBLIC STREET NAMES
6938,ELLITA,PL,,ELLITA PLACE,595C3,PUBLIC STREET NAMES
6939,ELLISON,DR,,ELLISON DRIVE,592D2,PUBLIC STREET NAMES
7069,EASTWOOD,ROAD,,EASTWOOD ROAD,592H2,PUBLIC STREET NAMES
7094,EARHART,AVE,,EARHART AVENUE,702H3,PUBLIC STREET NAMES
6767,EXHIBIT,PL,,EXHIBIT PLACE,560C1,PUBLIC STREET NAMES
6869,EMPIRE,DR,,EMPIRE DRIVE,502F3,PUBLIC STREET NAMES
10825,E,ST,,E STREET,794D7,PRIVATE STREET NAMES
7048,EDENBERG,AVE,,EDENBERG AVENUE,500H1,PUBLIC STREET NAMES
9672,EUCALYPTUS,,,EUCALYPTUS,481H1,UNOFFICIAL PRIVATE STREET NAMES
6832,ERWIN,ST,,ERWIN STREET,533B7,PUBLIC STREET NAMES
6888,ELYSIAN PARK,DR,,ELYSIAN PARK DRIVE,643F1,PUBLIC STREET NAMES
10685,EUDORA,CT,,EUDORA COURT,634J4,PRIVATE ROADWAY NAMES
10683,ESTEPONA,CT,,ESTEPONA COURT,634J4,PRIVATE ROADWAY NAMES
6809,ESTHER,AVE,,ESTHER AVENUE,632D6,PUBLIC STREET NAMES
10050,EASTHAVEN,LANE,,EASTHAVEN LANE,529E5,PUBLIC STREET NAMES
6977,ELECTRIC,CT,,ELECTRIC COURT,671H5,PUBLIC STREET NAMES
6834,ERNEST,AVE,,ERNEST AVENUE,633A6,PUBLIC STREET NAMES
7058,ECHANDIA,ST,WEST,ECHANDIA STREET WEST,634J3,PUBLIC STREET NAMES
6769,EXETER,PL,,EXETER PLACE,501C6,PUBLIC STREET NAMES
6819,ESPLANADE,,,ESPLANADE,702A2,PUBLIC STREET NAMES
6983,ELDRED,ST,,ELDRED STREET,595B3,PUBLIC STREET NAMES
6776,EVERGLADE,ST,,EVERGLADE STREET,672B3,PUBLIC STREET NAMES
6919,ELM VIEW,DR,,ELM VIEW DRIVE,560J5,PUBLIC STREET NAMES
10908,EBEY,DR,,EBEY DRIVE,595E3,PUBLIC STREET NAMES
6827,ESCONDIDO,ST,,ESCONDIDO STREET,560B6,PUBLIC STREET NAMES
7103,EAGAN,ST,,EAGAN STREET,504B6,PUBLIC STREET NAMES
6813,ESTARA,AVE,,ESTARA AVENUE,594F1,PUBLIC STREET NAMES
7071,EASTVIEW,DR,,EASTVIEW DRIVE,565D7,PUBLIC STREET NAMES
7084,EAST EDGEWARE,ROAD,,EAST EDGEWARE ROAD,634E2,PUBLIC STREET NAMES
6899,EL SERENO,AVE,,EL SERENO AVENUE,595E6,PUBLIC STREET NAMES
6825,ESMERALDA,ST,,ESMERALDA STREET,595C6,PUBLIC STREET NAMES
629,EAGLE ROCK VIEW,DR,,EAGLE ROCK VIEW DRIVE,NA,PRIVATE STREET NAMES
7033,EDISON,WALK,,EDISON WALK,595F5,PUBLIC STREET NAMES
613,EVADALE,DR,,EVADALE DRIVE,595C5,PRIVATE STREET NAMES
9853,ELM,,,ELM,481G2,UNOFFICIAL PRIVATE STREET NAMES
6979,ELECTRA,DR,,ELECTRA DRIVE,593B3,PUBLIC STREET NAMES
6862,ENCANTO,DR,,ENCANTO DRIVE,561H5,PUBLIC STREET NAMES
7105,E,ST,,E STREET,794G7,PUBLIC STREET NAMES
6777,EVERETT,ST,,EVERETT STREET,634F1,PUBLIC STREET NAMES
7020,EFFIE,ST,,EFFIE STREET,594B5,PUBLIC STREET NAMES
6987,ELDERWOOD,ST,,ELDERWOOD STREET,631H2,PUBLIC STREET NAMES
10228,EDGECLIFF,AVE,,EDGECLIFF AVENUE,481H5,PUBLIC STREET NAMES
7064,EATOUGH,PL,,EATOUGH PLACE,529J2,PUBLIC STREET NAMES
6824,ESPARTA,WAY,,ESPARTA WAY,631C6,PUBLIC STREET NAMES
6844,ENTRADA,AVE,,ENTRADA AVENUE,480J7,PUBLIC STREET NAMES
6909,EL PORTAL,ROAD,,EL PORTAL ROAD,NA,PUBLIC STREET NAMES
6780,EVENSONG,DR,,EVENSONG DRIVE,672A1,PUBLIC STREET NAMES
7019,EFFINGHAM,PL,,EFFINGHAM PLACE,594C2,PUBLIC STREET NAMES
7051,EDELLE,PL,,EDELLE PLACE,635D1,PUBLIC STREET NAMES
6838,EPINARD,ST,,EPINARD STREET,55AE4,PUBLIC STREET NAMES
6981,ELDRIDGE,AVE,,ELDRIDGE AVENUE,482B1,PUBLIC STREET NAMES
6884,EMDEN,ST,,EMDEN STREET,794C7,PUBLIC STREET NAMES
6791,EUGENE,ST,,EUGENE STREET,559G4,PUBLIC STREET NAMES
7016,EILAT,PL,,EILAT PLACE,559C1,PUBLIC STREET NAMES
7087,EASTBORNE,AVE,,EASTBORNE AVENUE,632D3,PUBLIC STREET NAMES
6945,ELLERY,PL,,ELLERY PLACE,823J4,PUBLIC STREET NAMES
10682,ENERO,CT,,ENERO COURT,634J4,PRIVATE ROADWAY NAMES
7100,EAGLE MOUNTAIN,ST,,EAGLE MOUNTAIN STREET,529D2,PUBLIC STREET NAMES
615,ENTERPRISE,ST,,ENTERPRISE STREET,44E5,PRIVATE STREET NAMES
6988,ELDERIDGE,DR,,ELDERIDGE DRIVE,592D5,PUBLIC STREET NAMES
7040,EDGEMONT,ST,,EDGEMONT STREET,593J2,PUBLIC STREET NAMES
7098,EAGLE ROCK VIEW,DR,,EAGLE ROCK VIEW DRIVE,565D5,PUBLIC STREET NAMES
632,EAGLE,ST,,EAGLE STREET,634J5,PRIVATE STREET NAMES
617,EL VERANO,AVE,,EL VERANO AVENUE,564H6,PRIVATE STREET NAMES
6843,ENTRADA,CT,,ENTRADA COURT,480J7,PUBLIC STREET NAMES
9671,ENCANTADOR,,,ENCANTADOR,832F7,UNOFFICIAL PRIVATE STREET NAMES
6930,ELMDALE,PL,,ELMDALE PLACE,481C6,PUBLIC STREET NAMES
11030,EVANS,WAY,,EVANS WAY,631J6,LIMITED ACCESS AREA NAMES
6995,EL CERRITO,PL,,EL CERRITO PLACE,593D4,PUBLIC STREET NAMES
6913,EL ORO,LANE,,EL ORO LANE,630H4,PUBLIC STREET NAMES
6948,ELLENWOOD,DR,,ELLENWOOD DRIVE,564J5,PUBLIC STREET NAMES
6812,ESTEBAN,ROAD,,ESTEBAN ROAD,560B5,PUBLIC STREET NAMES
6941,ELLIS,AVE,,ELLIS AVENUE,632H7,PUBLIC STREET NAMES
7021,EFFIE,PL,,EFFIE PLACE,594C5,PUBLIC STREET NAMES
7041,EDGEMAR,AVE,,EDGEMAR AVENUE,673D6,PUBLIC STREET NAMES
6950,ELLENVALE,AVE,,ELLENVALE AVENUE,559D3,PUBLIC STREET NAMES
6805,ESTRELLITA,WAY,,ESTRELLITA WAY,631H1,PUBLIC STREET NAMES
620,EL MEDIO,PL,,EL MEDIO PLACE,631A4,PRIVATE STREET NAMES
6891,ELWOOD,ST,,ELWOOD STREET,634H7,PUBLIC STREET NAMES
7059,ECHANDIA,ST,EAST,ECHANDIA STREET EAST,635A3,PUBLIC STREET NAMES
633,E,WALK,,E WALK,NA,PRIVATE STREET NAMES
7004,EL CAJON,ST,,EL CAJON STREET,481G5,PUBLIC STREET NAMES
10633,EA,WAY,,EA WAY,702C1,PUBLIC STREET NAMES
7086,EAST BUENA VISTA,ST,,EAST BUENA VISTA STREET,NA,PUBLIC STREET NAMES
6989,ELDERBANK,DR,,ELDERBANK DRIVE,595C3,PUBLIC STREET NAMES
6968,EL HITO,PL,,EL HITO PLACE,630H3,PUBLIC STREET NAMES
6916,ELNORA,PL,,ELNORA PLACE,481C6,PUBLIC STREET NAMES
10793,EBEY CANYON,DR,,EBEY CANYON DRIVE,503G1,UNOFFICIAL PRIVATE STREET NAMES
10471,ERIN,PL,,ERIN PLACE,529E3,PUBLIC STREET NAMES
10588,ELM,PL,,ELM PLACE,500E1,PRIVATE ROADWAY NAMES
6866,EMPORIA,AVE,,EMPORIA AVENUE,672F5,PUBLIC STREET NAMES
6961,ELKGROVE,CIR,,ELKGROVE CIRCLE,671J4,PUBLIC STREET NAMES
7009,ELBEN,AVE,,ELBEN AVENUE,503E5,PUBLIC STREET NAMES
6816,ESQUIRA,PL,,ESQUIRA PLACE,561D4,PUBLIC STREET NAMES
6959,ELKINS,ROAD,,ELKINS ROAD,631E2,PUBLIC STREET NAMES
7102,EAGLE,ST,,EAGLE STREET,635C6,PUBLIC STREET NAMES
6840,ENVILLE,PL,,ENVILLE PLACE,673A1,PUBLIC STREET NAMES
7042,EDGELEY,PL,,EDGELEY PLACE,632B2,PUBLIC STREET NAMES
6879,EMERSON,WALK,,EMERSON WALK,595D2,PUBLIC STREET NAMES
6829,ESCARPA,DR,,ESCARPA DRIVE,565A7,PUBLIC STREET NAMES
7028,EDNA,ST,,EDNA STREET,595F6,PUBLIC STREET NAMES
10258,EDWARD,WAY,,EDWARD WAY,594F3,PRIVATE ROADWAY NAMES
6953,ELLENDA,PL,,ELLENDA PLACE,634A6,PUBLIC STREET NAMES
619,EL RIO,DR,,EL RIO DRIVE,565A5,PRIVATE STREET NAMES
6793,EUCLID,AVE,,EUCLID AVENUE,635B6,PUBLIC STREET NAMES
10892,EAST ICON,CIR,,EAST ICON CIRCLE,702D1,PRIVATE ROADWAY NAMES
6880,EMERSON,AVE,,EMERSON AVENUE,702F1,PUBLIC STREET NAMES
6865,EMPRESS,AVE,,EMPRESS AVENUE,561D5,PUBLIC STREET NAMES
6917,ELMYRA,ST,,ELMYRA STREET,634H2,PUBLIC STREET NAMES
6803,ESTRONDO,PL,,ESTRONDO PLACE,561D5,PUBLIC STREET NAMES
6871,EMPANADA,PL,,EMPANADA PLACE,561C6,PUBLIC STREET NAMES
10759,ECHO LAKE,WAY,,ECHO LAKE WAY,502D6,PRIVATE ROADWAY NAMES
6920,ELM TREE,LANE,,ELM TREE LANE,NA,PUBLIC STREET NAMES
6775,EVERGREEN,AVE,,EVERGREEN AVENUE,635C3,PUBLIC STREET NAMES
6886,EMBASSY,DR,,EMBASSY DRIVE,561B3,PUBLIC STREET NAMES
6867,EMPIS,ST,,EMPIS STREET,560C5,PUBLIC STREET NAMES
6822,ESPERA,AVE,,ESPERA AVENUE,630F5,PUBLIC STREET NAMES
6876,EMILIA,PL,,EMILIA PLACE,823H5,PUBLIC STREET NAMES
6999,EL CASCO,ST,,EL CASCO STREET,482A2,PUBLIC STREET NAMES
10266,EUCALYPTUS,CT,,EUCALYPTUS COURT,531A7,PRIVATE STREET NAMES
6943,ELLINGTON,DR,,ELLINGTON DRIVE,563C7,PUBLIC STREET NAMES
618,ELRITA,DR,,ELRITA DRIVE,592J1,PRIVATE STREET NAMES
6960,ELKHART,PL,,ELKHART PLACE,671J4,PUBLIC STREET NAMES
6873,EMMA,AVE,,EMMA AVENUE,595B7,PUBLIC STREET NAMES
6837,EPSILON,ST,,EPSILON STREET,559H3,PUBLIC STREET NAMES
6946,ELLERY,DR,,ELLERY DRIVE,823J4,PUBLIC STREET NAMES
10330,EVENHAIM,LANE,,EVENHAIM LANE,560G1,PRIVATE ROADWAY NAMES
7034,EDISON,ST,,EDISON STREET,595D5,PUBLIC STREET NAMES
10221,ELLINGTON,DR,,ELLINGTON DRIVE,593C1,PRIVATE STREET NAMES
6967,ELINDA,PL,,ELINDA PLACE,503A5,PUBLIC STREET NAMES
10696,ENCINO,LANE,,ENCINO LANE,561B3,PRIVATE STREET NAMES
7005,EL CABALLERO,DR,,EL CABALLERO DRIVE,560H4,PUBLIC STREET NAMES
6935,ELLSWORTH,ST,,ELLSWORTH STREET,594B7,PUBLIC STREET NAMES
6962,ELKGROVE,AVE,,ELKGROVE AVENUE,671J4,PUBLIC STREET NAMES
7070,EASTWIND,ST,,EASTWIND STREET,671J7,PUBLIC STREET NAMES
6944,ELLETT,PL,,ELLETT PLACE,594C7,PUBLIC STREET NAMES
6823,ESPARTO,ROAD,,ESPARTO ROAD,560A5,PUBLIC STREET NAMES
6978,ELECTRIC,AVE,,ELECTRIC AVENUE,671H5,PUBLIC STREET NAMES
7056,ECHO,ST,,ECHO STREET,595D2,PUBLIC STREET NAMES
9846,EAGLE MOUNTAIN,ST,,EAGLE MOUNTAIN STREET,529E2,PRIVATE STREET NAMES
7090,EARLHAM,ST,,EARLHAM STREET,631A6,PUBLIC STREET NAMES
7068,EASY,ST,,EASY STREET,530B7,PUBLIC STREET NAMES
7091,EARLDOM,AVE,,EARLDOM AVENUE,702B3,PUBLIC STREET NAMES
7074,EAST ROSE HILL,DR,,EAST ROSE HILL DRIVE,595C6,PUBLIC STREET NAMES
7053,EDDLESTON,DR,,EDDLESTON DRIVE,480H6,PUBLIC STREET NAMES
7012,ELANITA,DR,,ELANITA DRIVE,823J7,PUBLIC STREET NAMES
10641,EL PORTAL,CT,,EL PORTAL COURT,634J4,PRIVATE ROADWAY NAMES
6921,ELMSBURY,LANE,,ELMSBURY LANE,529D5,PUBLIC STREET NAMES
7052,EDDY,ST,,EDDY STREET,530H1,PUBLIC STREET NAMES
7007,ELBERON,AVE,,ELBERON AVENUE,824B3,PUBLIC STREET NAMES
623,EAST RUE LE CHARLENE,,,EAST RUE LE CHARLENE,823H6,PRIVATE STREET NAMES
7045,EDGAR,ST,,EDGAR STREET,630H5,PUBLIC STREET NAMES
7032,EDITH,ST,,EDITH STREET,632F7,PUBLIC STREET NAMES
6853,ENFIELD,AVE,,ENFIELD AVENUE,501A2,PUBLIC STREET NAMES
624,EAST PARK,DR,,EAST PARK DRIVE,532F7,PRIVATE STREET NAMES
7096,EAGLE VISTA,DR,,EAGLE VISTA DRIVE,565C5,PUBLIC STREET NAMES
6957,ELKWOOD,ST,,ELKWOOD STREET,529E3,PUBLIC STREET NAMES
6898,ELSIE,AVE,,ELSIE AVENUE,500G6,PUBLIC STREET NAMES
6906,EL REY,ROAD,,EL REY ROAD,832H5,PUBLIC STREET NAMES
6870,EMPIRE,DR,,EMPIRE DRIVE,672F1,PUBLIC STREET NAMES
10792,EBEY CANYON,ROAD,,EBEY CANYON ROAD,503F1,UNOFFICIAL PRIVATE STREET NAMES
11098,EMERY,LANE,,EMERY LANE,562G2,LIMITED ACCESS AREA NAMES
11076,ESTRELLA,PL,,ESTRELLA PLACE,480D6,PRIVATE STREET NAMES
11058,ELM,LANE,,ELM LANE,532B4,LIMITED ACCESS AREA NAMES
11075,ESMERELDA,LANE,,ESMERELDA LANE,480C6,PRIVATE STREET NAMES
11213,EASTVIEW LITTLE LEAGUE,DR,,EASTVIEW LITTLE LEAGUE DRIVE,824C3,PUBLIC STREET NAMES
11216,ELM,ROAD,,ELM ROAD,501J7,LIMITED ACCESS AREA NAMES
11217,EUCALYPTUS,WAY,,EUCALYPTUS WAY,501J7,LIMITED ACCESS AREA NAMES
11229,EVERLEE,LANE,,EVERLEE LANE,564J6,LIMITED ACCESS AREA NAMES
11236,EVA,PL,,EVA PLACE,531H4,UNOFFICIAL PRIVATE STREET NAMES
