Street ID,Street Name,Street Suffix,Street Suffix Direction,Official Street Name,Thomas Brothers Map,Street Type
10315,FASHION SQUARE,LANE,,FASHION SQUARE LANE,562B4,PRIVATE ROADWAY NAMES
6680,FERNLEAF,ST,,FERNLEAF STREET,594H6,PUBLIC STREET NAMES
6512,FUTURE,ST,,FUTURE STREET,594H3,PUBLIC STREET NAMES
6604,FLOWERDALE,CT,,FLOWERDALE COURT,533B1,PUBLIC STREET NAMES
6688,FERN CANYON,TR,,FERN CANYON TRAIL,564B7,PUBLIC STREET NAMES
6702,FELICE,PL,,FELICE PLACE,560E3,PUBLIC STREET NAMES
6728,FAREHOLM,DR,,FAREHOLM DRIVE,593B4,PUBLIC STREET NAMES
9789,FULLER,AVE,,FULLER AVENUE,633C2,PRIVATE STREET NAMES
6664,FIJI,WAY,,FIJI WAY,672B7,PUBLIC STREET NAMES
590,FRIES,AVE,,FRIES AVENUE,824E2,PRIVATE STREET NAMES
6539,FRESNO,ST,,FRESNO STREET,635C5,PUBLIC STREET NAMES
6641,FITZGERALD,ST,,FITZGERALD STREET,529E3,PUBLIC STREET NAMES
6602,FLOYE,DR,,FLOYE DRIVE,563B7,PUBLIC STREET NAMES
9582,FOXBORO,LANE,,FOXBORO LANE,529E4,PUBLIC STREET NAMES
6606,FLOWER,DR,,FLOWER DRIVE,674B2,PUBLIC STREET NAMES
6574,FORUM,LANE,,FORUM LANE,NA,PUBLIC STREET NAMES
6530,FRONT,ST,,FRONT STREET,595G7,PUBLIC STREET NAMES
6547,FRANRIVERS,AVE,,FRANRIVERS AVENUE,559D2,PUBLIC STREET NAMES
6633,FLASHMAN,AVE,,FLASHMAN AVENUE,502D7,PUBLIC STREET NAMES
10070,FUCHSIA,CT,,FUCHSIA COURT,559J1,PRIVATE ROADWAY NAMES
10075,FLAME TREE,LANE,,FLAME TREE LANE,559J1,PRIVATE ROADWAY NAMES
6759,FABLE,AVE,,FABLE AVENUE,529F2,PUBLIC STREET NAMES
6695,FENWAY,ST,,FENWAY STREET,503A5,PUBLIC STREET NAMES
6644,FISKE,ST,,FISKE STREET,631B4,PUBLIC STREET NAMES
6657,FINK,ST,,FINK STREET,593E3,PUBLIC STREET NAMES
6706,FAY,AVE,,FAY AVENUE,632J7,PUBLIC STREET NAMES
6563,FRAMPTON,AVE,,FRAMPTON AVENUE,794A1,PUBLIC STREET NAMES
6677,FERNWOOD,AVE,,FERNWOOD AVENUE,594C4,PUBLIC STREET NAMES
10131,FRANCINE,LANE,,FRANCINE LANE,500B3,PRIVATE STREET NAMES
6575,FORTUNE,WAY,,FORTUNE WAY,595F1,PUBLIC STREET NAMES
6753,FAIRCHILD,AVE,,FAIRCHILD AVENUE,530C3,PUBLIC STREET NAMES
6515,FURNESS,AVE,,FURNESS AVENUE,595B3,PUBLIC STREET NAMES
10361,FALCON CREST,CT,,FALCON CREST COURT,480E6,PRIVATE STREET NAMES
6683,FERNDALE,ST,,FERNDALE STREET,633C7,PUBLIC STREET NAMES
6711,FARWELL,AVE,,FARWELL AVENUE,594E3,PUBLIC STREET NAMES
6550,FRANKLIN,WAY,,FRANKLIN WAY,592J4,PUBLIC STREET NAMES
6734,FALMOUTH,AVE,,FALMOUTH AVENUE,702B2,PUBLIC STREET NAMES
6742,FAIRWAY,AVE,,FAIRWAY AVENUE,562E5,PUBLIC STREET NAMES
6567,FOXCROFT,PL,,FOXCROFT PLACE,481C6,PUBLIC STREET NAMES
6645,FISHER,ST,,FISHER STREET,595D1,PUBLIC STREET NAMES
6642,FITHIAN,AVE,,FITHIAN AVENUE,595E6,PUBLIC STREET NAMES
6583,FORGE,PL,,FORGE PLACE,501G3,PUBLIC STREET NAMES
604,FIERO,ST,,FIERO STREET,594F1,PRIVATE STREET NAMES
6745,FAIR PARK,AVE,,FAIR PARK AVENUE,565A6,PUBLIC STREET NAMES
595,FORT MOORE,PL,,FORT MOORE PLACE,634F3,PRIVATE STREET NAMES
600,FLYNN RANCH,ROAD,,FLYNN RANCH ROAD,563A7,PRIVATE STREET NAMES
6605,FLOWER,ST,,FLOWER STREET,674B4,PUBLIC STREET NAMES
6708,FAWNDALE,PL,,FAWNDALE PLACE,561J7,PUBLIC STREET NAMES
6555,FRANK,CT,,FRANK COURT,634F4,PUBLIC STREET NAMES
6652,FIRENZE,PL,,FIRENZE PLACE,593B1,PUBLIC STREET NAMES
6587,FOREST HILLS,ROAD,,FOREST HILLS ROAD,529F5,PUBLIC STREET NAMES
6698,FENN,ST,,FENN STREET,595B6,PUBLIC STREET NAMES
6634,FLANDERS,ST,,FLANDERS STREET,501B1,PUBLIC STREET NAMES
6546,FRASER,AVE,,FRASER AVENUE,481B5,PUBLIC STREET NAMES
6635,FLANCO,ROAD,,FLANCO ROAD,559J4,PUBLIC STREET NAMES
11027,FOX,LANE,,FOX LANE,594E6,LIMITED ACCESS AREA NAMES
6564,FRACKELTON,PL,,FRACKELTON PLACE,565C5,PUBLIC STREET NAMES
10081,FRAGRANS,WAY,,FRAGRANS WAY,559J1,PRIVATE ROADWAY NAMES
6608,FLOWER,AVE,,FLOWER AVENUE,671H4,PUBLIC STREET NAMES
6691,FERN,PL,,FERN PLACE,595D6,PUBLIC STREET NAMES
6599,FOND,DR,,FOND DRIVE,561F7,PUBLIC STREET NAMES
6729,FAREHOLM,CT,,FAREHOLM COURT,593B4,PUBLIC STREET NAMES
6722,FARMDALE,AVE,,FARMDALE AVENUE,633D7,PUBLIC STREET NAMES
6682,FERN DELL,DR,,FERN DELL DRIVE,593H3,PUBLIC STREET NAMES
6,FREMONT VILLAS,,,FREMONT VILLAS,595D4,LIMITED ACCESS AREA NAMES
6666,FIGUEROA,TER,,FIGUEROA TERRACE,634F1,PUBLIC STREET NAMES
6638,FLAG,ST,,FLAG STREET,593G3,PUBLIC STREET NAMES
9675,FOUNTAIN PARK,LANE,,FOUNTAIN PARK LANE,560A1,UNOFFICIAL PRIVATE STREET NAMES
6631,FLEET,ST,,FLEET STREET,701H1,PUBLIC STREET NAMES
6612,FLORIAN,PL,,FLORIAN PLACE,592D3,PUBLIC STREET NAMES
6541,FREMONT,AVE,,FREMONT AVENUE,634F3,PUBLIC STREET NAMES
9581,FLOWER HILL,CIR,,FLOWER HILL CIRCLE,481B7,PUBLIC STREET NAMES
597,FOREST PARK,DR,,FOREST PARK DRIVE,595C7,PRIVATE STREET NAMES
6718,FARNAM,ST,,FARNAM STREET,595A2,PUBLIC STREET NAMES
10515,FANDANGO,ST,,FANDANGO STREET,481A6,PRIVATE STREET NAMES
10090,FLEURY,LANE,,FLEURY LANE,529J7,PRIVATE ROADWAY NAMES
6569,FOX,ST,,FOX STREET,502A2,PUBLIC STREET NAMES
6720,FARMINGTON,AVE,,FARMINGTON AVENUE,503F4,PUBLIC STREET NAMES
6594,FOOTHILL,BLVD,,FOOTHILL BOULEVARD,504D6,PUBLIC STREET NAMES
6743,FAIRVIEW,BLVD,,FAIRVIEW BOULEVARD,673A7,PUBLIC STREET NAMES
6686,FERNCOLA,AVE,,FERNCOLA AVENUE,533B3,PUBLIC STREET NAMES
6570,FOWLING,ST,,FOWLING STREET,702A3,PUBLIC STREET NAMES
6740,FALKIRK,LANE,,FALKIRK LANE,631G4,PUBLIC STREET NAMES
6529,FRONTENAC,AVE,,FRONTENAC AVENUE,595A4,PUBLIC STREET NAMES
6609,FLORIZEL,ST,,FLORIZEL STREET,595C6,PUBLIC STREET NAMES
10720,FENTON GROVE,LANE,,FENTON GROVE LANE,482G7,PRIVATE ROADWAY NAMES
6725,FARIS,DR,,FARIS DRIVE,632G7,PUBLIC STREET NAMES
6716,FARQUHAR,ST,,FARQUHAR STREET,635E2,PUBLIC STREET NAMES
6757,FAIR,AVE,,FAIR AVENUE,562J5,PUBLIC STREET NAMES
9785,FALCON CREST,WAY,,FALCON CREST WAY,480E6,PRIVATE STREET NAMES
9831,FOX HOLLOW,LANE,,FOX HOLLOW LANE,502F1,PRIVATE ROADWAY NAMES
6628,FLEMISH,LANE,,FLEMISH LANE,593H5,PUBLIC STREET NAMES
6511,FYLER,PL,,FYLER PLACE,564H7,PUBLIC STREET NAMES
6535,FRIENDS,ST,,FRIENDS STREET,631A6,PUBLIC STREET NAMES
6593,FOOTHILL,DR,,FOOTHILL DRIVE,593G3,PUBLIC STREET NAMES
6537,FRIAR,ST,,FRIAR STREET,533A6,PUBLIC STREET NAMES
10420,FOUNTAIN PARK,DR,,FOUNTAIN PARK DRIVE,702D1,PUBLIC STREET NAMES
10242,FREEPORT,TER,,FREEPORT TERRACE,823J6,PRIVATE ROADWAY NAMES
6617,FLORAMORGAN,TR,,FLORAMORGAN TRAIL,504A5,PUBLIC STREET NAMES
6611,FLORIDA,ST,,FLORIDA STREET,NA,PUBLIC STREET NAMES
6668,FIGUEROA,PL,,FIGUEROA PLACE,794C5,PUBLIC STREET NAMES
592,FREMONT,PL,WEST,FREMONT PLACE WEST,633F3,PRIVATE STREET NAMES
6581,FORMOSA,AVE,,FORMOSA AVENUE,633D1,PUBLIC STREET NAMES
6559,FRANCIS,AVE,,FRANCIS AVENUE,634A3,PUBLIC STREET NAMES
6760,F,ST,,F STREET,794G6,PUBLIC STREET NAMES
6554,FRANKFORT,ST,,FRANKFORT STREET,530G2,PUBLIC STREET NAMES
6545,FRASER,PL,,FRASER PLACE,481B5,PUBLIC STREET NAMES
6662,FILION,ST,,FILION STREET,594G1,PUBLIC STREET NAMES
6623,FLIGHT,PL,,FLIGHT PLACE,702H2,PUBLIC STREET NAMES
6744,FAIRVIEW,AVE,,FAIRVIEW AVENUE,634J3,PUBLIC STREET NAMES
9877,FRONTIER,PL,,FRONTIER PLACE,499J2,PRIVATE STREET NAMES
6610,FLORISTAN,AVE,,FLORISTAN AVENUE,565B6,PUBLIC STREET NAMES
6661,FILION,WALK,,FILION WALK,NA,PUBLIC STREET NAMES
599,FORDYCE,ROAD,,FORDYCE ROAD,631G1,PRIVATE STREET NAMES
6710,FAUST,AVE,,FAUST AVENUE,529H2,PUBLIC STREET NAMES
6684,FERNDALE,AVE,,FERNDALE AVENUE,672B4,PUBLIC STREET NAMES
6613,FLORES,ST,,FLORES STREET,633A1,PUBLIC STREET NAMES
6588,FOREST,AVE,,FOREST AVENUE,593B1,PUBLIC STREET NAMES
6584,FOREST PARK,DR,,FOREST PARK DRIVE,595C7,PUBLIC STREET NAMES
6614,FLORES,AVE,,FLORES AVENUE,673B6,PUBLIC STREET NAMES
6566,FOX HILLS,DR,,FOX HILLS DRIVE,632D3,PUBLIC STREET NAMES
6696,FENTON,AVE,,FENTON AVENUE,482B2,PUBLIC STREET NAMES
6572,FOUNTAIN,AVE,,FOUNTAIN AVENUE,593G5,PUBLIC STREET NAMES
6626,FLICKER,PL,,FLICKER PLACE,592G5,PUBLIC STREET NAMES
603,FIRTH,DR,,FIRTH DRIVE,562C7,PRIVATE STREET NAMES
6659,FINCH,ST,,FINCH STREET,594D2,PUBLIC STREET NAMES
6703,FEDORA,ST,,FEDORA STREET,633J3,PUBLIC STREET NAMES
9674,FIREBRAND,PL,,FIREBRAND PLACE,672D1,UNOFFICIAL PRIVATE STREET NAMES
6531,FRITZ,LANE,,FRITZ LANE,482C1,PUBLIC STREET NAMES
6621,FLINT,AVE,,FLINT AVENUE,794G5,PUBLIC STREET NAMES
601,FISH HARBOR WHARF,,,FISH HARBOR WHARF,NA,PRIVATE STREET NAMES
609,FAIR,AVE,,FAIR AVENUE,NA,PRIVATE STREET NAMES
6562,FRANCE,AVE,,FRANCE AVENUE,504B4,PUBLIC STREET NAMES
6738,FALLBROOK,AVE,,FALLBROOK AVENUE,529H3,PUBLIC STREET NAMES
610,F,CT,,F COURT,NA,PRIVATE STREET NAMES
6585,FOREST LAWN,DR,,FOREST LAWN DRIVE,563G4,PUBLIC STREET NAMES
6727,FARGO,ST,,FARGO STREET,594D5,PUBLIC STREET NAMES
6580,FORNEY,ST,,FORNEY STREET,594G5,PUBLIC STREET NAMES
6751,FAIRFIELD,AVE,,FAIRFIELD AVENUE,593E3,PUBLIC STREET NAMES
6679,FERNMONT,ST,,FERNMONT STREET,482D4,PUBLIC STREET NAMES
10592,FERNSIDE,LANE,,FERNSIDE LANE,480D6,PRIVATE ROADWAY NAMES
6568,FOXBORO,DR,,FOXBORO DRIVE,639H6,PUBLIC STREET NAMES
6748,FAIRLAND,CT,,FAIRLAND COURT,481B6,PUBLIC STREET NAMES
6701,FELLOWS,AVE,,FELLOWS AVENUE,482D7,PUBLIC STREET NAMES
6673,FES,ST,,FES STREET,533A1,PUBLIC STREET NAMES
6749,FAIRHAVEN,AVE,,FAIRHAVEN AVENUE,559D1,PUBLIC STREET NAMES
6636,FLAMINGO,ST,,FLAMINGO STREET,559H5,PUBLIC STREET NAMES
6658,FINK,PL,,FINK PLACE,593E3,PUBLIC STREET NAMES
10460,FIRENZE,LANE,,FIRENZE LANE,500D1,PRIVATE STREET NAMES
6592,FOOTHILL,PL,,FOOTHILL PLACE,503D1,PUBLIC STREET NAMES
6741,FALCON,PL,,FALCON PLACE,481B5,PUBLIC STREET NAMES
10385,FAWNWOOD,LANE,,FAWNWOOD LANE,500H4,PRIVATE STREET NAMES
10831,FLORENCIA,WAY,,FLORENCIA WAY,480E6,PRIVATE STREET NAMES
6692,FERMO,DR,,FERMO DRIVE,631D4,PUBLIC STREET NAMES
6542,FREDONIA,DR,,FREDONIA DRIVE,563A6,PUBLIC STREET NAMES
10465,FERRARA,LANE,,FERRARA LANE,500D1,PRIVATE STREET NAMES
6549,FRANKLIN CANYON,DR,,FRANKLIN CANYON DRIVE,592E4,PUBLIC STREET NAMES
6671,FIELD,AVE,,FIELD AVENUE,633D7,PUBLIC STREET NAMES
6752,FAIRFAX,AVE,,FAIRFAX AVENUE,593B4,PUBLIC STREET NAMES
596,FORMAN,LANE,,FORMAN LANE,563C3,PRIVATE STREET NAMES
9784,FALCON RIDGE,WAY,,FALCON RIDGE WAY,480E6,PRIVATE STREET NAMES
6687,FERNCLIFF,CT,,FERNCLIFF COURT,NA,PUBLIC STREET NAMES
608,FALCON,ST,,FALCON STREET,824E3,PRIVATE STREET NAMES
6576,FORTUNE,PL,,FORTUNE PLACE,595F1,PUBLIC STREET NAMES
6654,FIREBRAND,ST,,FIREBRAND STREET,702F1,PUBLIC STREET NAMES
588,FULTON,CT,,FULTON COURT,562D2,PRIVATE STREET NAMES
6693,FENWOOD,AVE,,FENWOOD AVENUE,559G1,PUBLIC STREET NAMES
10739,FLUFFY DUCKLING,LANE,,FLUFFY DUCKLING LANE,530E3,PRIVATE STREET NAMES
6526,FRUITLAND,DR,,FRUITLAND DRIVE,563A6,PUBLIC STREET NAMES
6540,FRENCH,AVE,,FRENCH AVENUE,595A6,PUBLIC STREET NAMES
6637,FLAGMOOR,PL,,FLAGMOOR PLACE,593F1,PUBLIC STREET NAMES
6653,FIRENZE,AVE,,FIRENZE AVENUE,593A1,PUBLIC STREET NAMES
6650,FIRMAMENT,AVE,,FIRMAMENT AVENUE,531G4,PUBLIC STREET NAMES
10539,FARMERS MARKET,PL,,FARMERS MARKET PLACE,633B1,PRIVATE ROADWAY NAMES
6579,FORRESTER,DR,,FORRESTER DRIVE,632F5,PUBLIC STREET NAMES
6667,FIGUEROA,ST,,FIGUEROA STREET,565D4,PUBLIC STREET NAMES
6714,FARRALONE,AVE,,FARRALONE AVENUE,499J3,PUBLIC STREET NAMES
6700,FELLOWSHIP PARK,WAY,,FELLOWSHIP PARK WAY,594E5,PUBLIC STREET NAMES
6577,FORTUNA,ST,,FORTUNA STREET,674G5,PUBLIC STREET NAMES
6615,FLORENTINE,ST,,FLORENTINE STREET,481J5,PUBLIC STREET NAMES
6582,FORMAN,AVE,,FORMAN AVENUE,563C5,PUBLIC STREET NAMES
10544,FIELDCREST,DR,,FIELDCREST DRIVE,481J6,PRIVATE ROADWAY NAMES
6721,FARMDALE,AVE,,FARMDALE AVENUE,532J2,PUBLIC STREET NAMES
6525,FRYMAN,PL,,FRYMAN PLACE,562G7,PUBLIC STREET NAMES
10767,FOUR PALMS,LANE,,FOUR PALMS LANE,482C4,PRIVATE ROADWAY NAMES
6676,FERRARA,ST,,FERRARA STREET,595E1,PUBLIC STREET NAMES
6519,FULLERFARM,ST,,FULLERFARM STREET,501A4,PUBLIC STREET NAMES
6616,FLORENCE,AVE,,FLORENCE AVENUE,674E7,PUBLIC STREET NAMES
6597,FONTAINBLEAU,ST,,FONTAINBLEAU STREET,NA,PUBLIC STREET NAMES
6589,FORDYCE,ROAD,,FORDYCE ROAD,NA,PUBLIC STREET NAMES
6603,FLOYD,TER,,FLOYD TERRACE,563D6,PUBLIC STREET NAMES
6735,FALLSTON,ST,,FALLSTON STREET,595C1,PUBLIC STREET NAMES
605,FERRY,ST,,FERRY STREET,824E4,PRIVATE STREET NAMES
6586,FOREST KNOLL,DR,,FOREST KNOLL DRIVE,529J5,PUBLIC STREET NAMES
6518,FULMAR,AVE,,FULMAR AVENUE,793J3,PUBLIC STREET NAMES
594,FORTUNA,CT,,FORTUNA COURT,NA,PRIVATE STREET NAMES
6556,FRANCISCO,ST,,FRANCISCO STREET,764B4,PUBLIC STREET NAMES
6678,FERNTOP,DR,,FERNTOP DRIVE,595D6,PUBLIC STREET NAMES
6514,FUSANO,AVE,,FUSANO AVENUE,481H2,PUBLIC STREET NAMES
6754,FAIRBURN,AVE,,FAIRBURN AVENUE,632C3,PUBLIC STREET NAMES
6578,FORSYTHE,ST,,FORSYTHE STREET,503H2,PUBLIC STREET NAMES
6712,FARRINGTON,LANE,,FARRINGTON LANE,565D7,PUBLIC STREET NAMES
6552,FRANKLIN,AVE,,FRANKLIN AVENUE,593G3,PUBLIC STREET NAMES
606,FERN DELL,PL,,FERN DELL PLACE,593H3,PRIVATE STREET NAMES
6756,FAIR,PL,,FAIR PLACE,673C7,PUBLIC STREET NAMES
6629,FLEETWOOD,ST,,FLEETWOOD STREET,503A7,PUBLIC STREET NAMES
6522,FULLBRIGHT,AVE,,FULLBRIGHT AVENUE,530D1,PUBLIC STREET NAMES
6685,FERNCROFT,ROAD,,FERNCROFT ROAD,594D2,PUBLIC STREET NAMES
6704,FEDERAL,AVE,,FEDERAL AVENUE,632A6,PUBLIC STREET NAMES
6640,FITZROY,AVE,,FITZROY AVENUE,504A3,PUBLIC STREET NAMES
6624,FLIGHT,AVE,,FLIGHT AVENUE,673A6,PUBLIC STREET NAMES
6533,FRIES,AVE,,FRIES AVENUE,794E4,PUBLIC STREET NAMES
10318,FRANCE,AVE,,FRANCE AVENUE,504B4,PRIVATE STREET NAMES
6737,FALLING LEAF,DR,,FALLING LEAF DRIVE,561A5,PUBLIC STREET NAMES
6565,FOXTAIL,DR,,FOXTAIL DRIVE,631C6,PUBLIC STREET NAMES
6558,FRANCIS,PL,,FRANCIS PLACE,672E1,PUBLIC STREET NAMES
6627,FLETCHER,DR,,FLETCHER DRIVE,594F3,PUBLIC STREET NAMES
6690,FERNBROOK,ROAD,,FERNBROOK ROAD,529E1,PUBLIC STREET NAMES
598,FOREST,GLEN,,FOREST GLEN,593B1,PRIVATE STREET NAMES
6590,FORDHAM,ROAD,,FORDHAM ROAD,702E2,PUBLIC STREET NAMES
6726,FARIAS,AVE,,FARIAS AVENUE,672E5,PUBLIC STREET NAMES
6573,FOSTER,DR,,FOSTER DRIVE,633A3,PUBLIC STREET NAMES
6534,FRIENDSHIP PARK,DR,,FRIENDSHIP PARK DRIVE,823H6,PUBLIC STREET NAMES
6689,FERNBUSH,LANE,,FERNBUSH LANE,592B5,PUBLIC STREET NAMES
6571,FOWLER,ST,,FOWLER STREET,635C3,PUBLIC STREET NAMES
10959,FREDERICK,WAY,,FREDERICK WAY,674G5,PRIVATE ROADWAY NAMES
589,FULLER,AVE,,FULLER AVENUE,NA,PRIVATE STREET NAMES
9944,FOX HILL,LANE,,FOX HILL LANE,499H6,PRIVATE STREET NAMES
6709,FAWN,LANE,,FAWN LANE,NA,PUBLIC STREET NAMES
6620,FLORA,AVE,,FLORA AVENUE,595B7,PUBLIC STREET NAMES
6513,FUTURE,PL,,FUTURE PLACE,594H4,PUBLIC STREET NAMES
6618,FLORALITA,AVE,,FLORALITA AVENUE,503F2,PUBLIC STREET NAMES
6755,FAIRBANKS,PL,,FAIRBANKS PLACE,594E7,PUBLIC STREET NAMES
6717,FARNSWORTH,AVE,,FARNSWORTH AVENUE,595F6,PUBLIC STREET NAMES
6694,FENWICK,ST,,FENWICK STREET,504A3,PUBLIC STREET NAMES
6736,FALLSGROVE,ST,,FALLSGROVE STREET,673A1,PUBLIC STREET NAMES
6731,FANNING,ST,,FANNING STREET,594D5,PUBLIC STREET NAMES
6670,FIELDING,ST,,FIELDING STREET,482E7,PUBLIC STREET NAMES
6591,FORBES,AVE,,FORBES AVENUE,531D1,PUBLIC STREET NAMES
6557,FRANCISCO,ST,,FRANCISCO STREET,634E4,PUBLIC STREET NAMES
6543,FREDERICK,ST,,FREDERICK STREET,671H4,PUBLIC STREET NAMES
6528,FRONTERA,DR,,FRONTERA DRIVE,631B6,PUBLIC STREET NAMES
6665,FIGUEROA,WAY,,FIGUEROA WAY,634C7,PUBLIC STREET NAMES
6675,FERRARI,DR,,FERRARI DRIVE,592D4,PUBLIC STREET NAMES
607,FARRALONE,AVE,,FARRALONE AVENUE,499J2,PRIVATE STREET NAMES
6561,FRANCES,AVE,,FRANCES AVENUE,672B3,PUBLIC STREET NAMES
6669,FIELDMONT,PL,,FIELDMONT PLACE,529D5,PUBLIC STREET NAMES
6560,FRANCINA,DR,,FRANCINA DRIVE,561E6,PUBLIC STREET NAMES
6600,FOLSOM,ST,,FOLSOM STREET,635C5,PUBLIC STREET NAMES
6601,FOIX,PL,,FOIX PLACE,500D4,PUBLIC STREET NAMES
6660,FILMORE,ST,,FILMORE STREET,482E7,PUBLIC STREET NAMES
6622,FLINT,AVE,,FLINT AVENUE,632G7,PUBLIC STREET NAMES
591,FRENKE,DR,,FRENKE DRIVE,592F3,PRIVATE STREET NAMES
6544,FREDERICK,ST,,FREDERICK STREET,594H4,PUBLIC STREET NAMES
6536,FRIEDA,DR,,FRIEDA DRIVE,595A2,PUBLIC STREET NAMES
10651,FLINT,DR,,FLINT DRIVE,794A5,PRIVATE ROADWAY NAMES
6646,FIRTH,DR,,FIRTH DRIVE,562C7,PUBLIC STREET NAMES
6643,FITCH,DR,,FITCH DRIVE,593D4,PUBLIC STREET NAMES
10762,FIELDING,CIR,,FIELDING CIRCLE,672E7,PUBLIC STREET NAMES
10901,FREEDOM,LANE,,FREEDOM LANE,502F1,LIMITED ACCESS AREA NAMES
10449,FORMOSA,CIR,,FORMOSA CIRCLE,530B5,PRIVATE STREET NAMES
6697,FENNELL,PL,,FENNELL PLACE,592J5,PUBLIC STREET NAMES
6551,FRANKLIN,PL,,FRANKLIN PLACE,593E4,PUBLIC STREET NAMES
6595,FOOTE,AVE,,FOOTE AVENUE,794J6,PUBLIC STREET NAMES
6527,FRUITDALE,ST,,FRUITDALE STREET,594E3,PUBLIC STREET NAMES
6705,FAYETTE,ST,,FAYETTE STREET,595C1,PUBLIC STREET NAMES
6758,FACTORY,PL,,FACTORY PLACE,634G5,PUBLIC STREET NAMES
6625,FLICKER,WAY,,FLICKER WAY,592G5,PUBLIC STREET NAMES
10978,FLORESTA,PL,,FLORESTA PLACE,630H3,PUBLIC STREET NAMES
6656,FINLEY,AVE,,FINLEY AVENUE,594A3,PUBLIC STREET NAMES
6553,FRANKIRST,AVE,,FRANKIRST AVENUE,501E6,PUBLIC STREET NAMES
6723,FARLIN,ST,,FARLIN STREET,631H2,PUBLIC STREET NAMES
6672,FICKETT,ST,,FICKETT STREET,635C3,PUBLIC STREET NAMES
6607,FLOWER,CT,,FLOWER COURT,671H4,PUBLIC STREET NAMES
9806,FAIRFIELD,ROAD,,FAIRFIELD ROAD,500H3,PRIVATE STREET NAMES
6523,FULCHER,AVE,,FULCHER AVENUE,562J1,PUBLIC STREET NAMES
6520,FULLER,AVE,,FULLER AVENUE,633C1,PUBLIC STREET NAMES
593,FREMONT,PL,,FREMONT PLACE,633F3,PRIVATE STREET NAMES
6532,FRIGATE,AVE,,FRIGATE AVENUE,794C5,PUBLIC STREET NAMES
6713,FARRALONE,PL,,FARRALONE PLACE,499J7,PUBLIC STREET NAMES
6521,FULLBRIGHT,PL,,FULLBRIGHT PLACE,500D3,PUBLIC STREET NAMES
6747,FAIRMOUNT,ST,,FAIRMOUNT STREET,635B4,PUBLIC STREET NAMES
6730,FAR,PL,,FAR PLACE,595E7,PUBLIC STREET NAMES
6649,FIRMIN,ST,,FIRMIN STREET,634E2,PUBLIC STREET NAMES
602,FIRTH,WALK,,FIRTH WALK,704F5,PRIVATE STREET NAMES
6517,FULTON,AVE,,FULTON AVENUE,562D5,PUBLIC STREET NAMES
6524,FRYMAN,ROAD,,FRYMAN ROAD,592H1,PUBLIC STREET NAMES
6596,FONTENELLE,WAY,,FONTENELLE WAY,592A5,PUBLIC STREET NAMES
6674,FERRY,ST,,FERRY STREET,NA,PUBLIC STREET NAMES
6655,FIR,ST,,FIR STREET,633C7,PUBLIC STREET NAMES
6719,FARMOUTH,DR,,FARMOUTH DRIVE,594B2,PUBLIC STREET NAMES
6647,FIRTH,BLVD,,FIRTH BOULEVARD,704F4,PUBLIC STREET NAMES
6598,FONDA,WAY,,FONDA WAY,595A7,PUBLIC STREET NAMES
6648,FIRTH,AVE,,FIRTH AVENUE,631G1,PUBLIC STREET NAMES
6548,FRANLIE,DR,,FRANLIE DRIVE,503E3,PUBLIC STREET NAMES
10844,FORTUNA,LANE,,FORTUNA LANE,502A6,PRIVATE ROADWAY NAMES
10000,FITNESS,DR,,FITNESS DRIVE,823J1,PRIVATE STREET NAMES
9673,FELICIDAD,,,FELICIDAD,823F7,UNOFFICIAL PRIVATE STREET NAMES
6639,FIUME,WALK,,FIUME WALK,561G5,PUBLIC STREET NAMES
6750,FAIRGROVE,AVE,,FAIRGROVE AVENUE,504B4,PUBLIC STREET NAMES
6681,FERNGLEN,AVE,,FERNGLEN AVENUE,503J4,PUBLIC STREET NAMES
6707,FAWNRIDGE,DR,,FAWNRIDGE DRIVE,592D5,PUBLIC STREET NAMES
6739,FALL,AVE,,FALL AVENUE,594D5,PUBLIC STREET NAMES
10781,FOREST EDGE,DR,,FOREST EDGE DRIVE,481J5,PRIVATE ROADWAY NAMES
9895,FOLKSTONE,LANE,,FOLKSTONE LANE,591G2,PRIVATE STREET NAMES
6715,FARRAGUT,AVE,,FARRAGUT AVENUE,794J6,PUBLIC STREET NAMES
6733,FALUN,DR,,FALUN DRIVE,533C1,PUBLIC STREET NAMES
6538,FREY,AVE,,FREY AVENUE,671J6,PUBLIC STREET NAMES
6651,FIRMA,CT,,FIRMA COURT,481B6,PUBLIC STREET NAMES
6516,FUNCHAL,ROAD,,FUNCHAL ROAD,591J7,PUBLIC STREET NAMES
6663,FILBERT,ST,,FILBERT STREET,481E2,PUBLIC STREET NAMES
6746,FAIR OAK VIEW,TER,,FAIR OAK VIEW TERRACE,594E5,PUBLIC STREET NAMES
6724,FARLEY,CT,,FARLEY COURT,562J6,PUBLIC STREET NAMES
6619,FLORAL,AVE,,FLORAL AVENUE,593B4,PUBLIC STREET NAMES
9786,FALCON CREST,LANE,,FALCON CREST LANE,480E6,PRIVATE STREET NAMES
6630,FLEETWING,AVE,,FLEETWING AVENUE,702H3,PUBLIC STREET NAMES
6732,FANITA,ST,,FANITA STREET,594C7,PUBLIC STREET NAMES
11130,FIREFLY,PL,,FIREFLY PLACE,702E1,PRIVATE ROADWAY NAMES
11153,FARGO,LANE,,FARGO LANE,594E5,LIMITED ACCESS AREA NAMES
11092,FRED,WAY,,FRED WAY,531H3,LIMITED ACCESS AREA NAMES
10211,FALCON RIDGE,LANE,,FALCON RIDGE LANE,480F7,PRIVATE STREET NAMES
11043,FOX HUNT,CT,,FOX HUNT COURT,499H6,PRIVATE STREET NAMES
11050,FORMOSA FUSION,CT,,FORMOSA FUSION COURT,593D6,LIMITED ACCESS AREA NAMES
11241,FENTON,LANE,,FENTON LANE,482A1,UNOFFICIAL PRIVATE STREET NAMES
11277,FORMOSA,LANE,,FORMOSA LANE,593D6,LIMITED ACCESS AREA NAMES
