Street ID,Street Name,Street Suffix,Street Suffix Direction,Official Street Name,Thomas Brothers Map,Street Type
6309,GLOAMING,WAY,,GLOAMING WAY,592F3,PUBLIC STREET NAMES
6289,GOLDENROSE,ST,,GOLDENROSE STREET,824A3,PUBLIC STREET NAMES
6328,GLEN-O-PEACE,PKWY,,GLEN-O-PEACE PARKWAY,503J6,PUBLIC STREET NAMES
6229,GRANDE VISTA,AVE,,GRANDE VISTA AVENUE,675B1,PUBLIC STREET NAMES
6370,GLEN AIRY,,,GLEN AIRY,593F2,PUBLIC STREET NAMES
6170,GRENADIER,DR,,GRENADIER DRIVE,823G6,PUBLIC STREET NAMES
6308,GLOBE,AVE,,GLOBE AVENUE,672D2,PUBLIC STREET NAMES
6291,GOLDEN GATE,AVE,,GOLDEN GATE AVENUE,594C5,PUBLIC STREET NAMES
6330,GLEN OAK,,,GLEN OAK,593F2,PUBLIC STREET NAMES
6285,GOLETA,ST,,GOLETA STREET,482H7,PUBLIC STREET NAMES
6238,GRANADA,CIR,,GRANADA CIRCLE,480H7,PUBLIC STREET NAMES
10786,GOLDEN STATE,ROAD,,GOLDEN STATE ROAD,481E3,PUBLIC STREET NAMES
6226,GRAND PRE,BLVD,NORTH,GRAND PRE BOULEVARD NORTH,NA,PUBLIC STREET NAMES
6198,GREENCRAIG,ROAD,,GREENCRAIG ROAD,631F2,PUBLIC STREET NAMES
6281,GOMERES,ROAD,,GOMERES ROAD,559G3,PUBLIC STREET NAMES
10511,GALLERIA,GY,,GALLERIA GATEWAY,561H4,PRIVATE ROADWAY NAMES
6463,GARRISON,DR,,GARRISON DRIVE,595D2,PUBLIC STREET NAMES
6233,GRAND,AVE,,GRAND AVENUE,732D1,PUBLIC STREET NAMES
6205,GREAT OAK,CIR,,GREAT OAK CIRCLE,565D7,PUBLIC STREET NAMES
10768,GOLDEN PALMS,LANE,,GOLDEN PALMS LANE,482C4,PRIVATE ROADWAY NAMES
6458,GARVIN,DR,,GARVIN DRIVE,561E5,PUBLIC STREET NAMES
10004,GAUGUIN,LANE,,GAUGUIN LANE,481A5,PRIVATE STREET NAMES
6165,GRETCHEN,ST,,GRETCHEN STREET,530C6,PUBLIC STREET NAMES
6447,GAULT,ST,,GAULT STREET,532J5,PUBLIC STREET NAMES
585,GERANIUM,PL,,GERANIUM PLACE,595B2,PRIVATE STREET NAMES
10704,GOLDEN HILLS,DR,,GOLDEN HILLS DRIVE,595F4,PUBLIC STREET NAMES
6418,GERSHWIN,PL,,GERSHWIN PLACE,559H4,PUBLIC STREET NAMES
584,GETTY CENTER,DR,,GETTY CENTER DRIVE,NA,PRIVATE STREET NAMES
6242,GRAMERCY,DR,,GRAMERCY DRIVE,633H4,PUBLIC STREET NAMES
6339,GLEN HOLLY,,,GLEN HOLLY,593F2,PUBLIC STREET NAMES
6220,GRANGER,PL,,GRANGER PLACE,500F2,PUBLIC STREET NAMES
6393,GILSON,AVE,,GILSON AVENUE,532E6,PUBLIC STREET NAMES
6138,GUNSTON,DR,,GUNSTON DRIVE,631H2,PUBLIC STREET NAMES
6267,GOREN,PL,,GOREN PLACE,482H7,PUBLIC STREET NAMES
6452,GATEWAY,AVE,,GATEWAY AVENUE,594B5,PUBLIC STREET NAMES
6259,GOTHAM,ST,,GOTHAM STREET,501J5,PUBLIC STREET NAMES
6460,GARTHWAITE,WALK,,GARTHWAITE WALK,673G3,PUBLIC STREET NAMES
6268,GORDON,ST,,GORDON STREET,593G5,PUBLIC STREET NAMES
6413,GIARDINO,WAY,,GIARDINO WAY,630F5,PUBLIC STREET NAMES
582,GIN LING,WAY,,GIN LING WAY,634G2,PRIVATE STREET NAMES
6439,GAZETTE,AVE,,GAZETTE AVENUE,500C2,PUBLIC STREET NAMES
6304,GLORY,AVE,,GLORY AVENUE,504B4,PUBLIC STREET NAMES
6265,GORHAM,AVE,,GORHAM AVENUE,631H4,PUBLIC STREET NAMES
6430,GENTRY,AVE,,GENTRY AVENUE,532G7,PUBLIC STREET NAMES
6235,GRAND,AVE,,GRAND AVENUE,634G2,PUBLIC STREET NAMES
6327,GLENRIDGE,DR,,GLENRIDGE DRIVE,562C6,PUBLIC STREET NAMES
6279,GONZALES,DR,,GONZALES DRIVE,559G3,PUBLIC STREET NAMES
6299,GLYNN,DR,,GLYNN DRIVE,630G3,PUBLIC STREET NAMES
6251,GRABER,AVE,,GRABER AVENUE,482E1,PUBLIC STREET NAMES
6325,GLENROY,AVE,,GLENROY AVENUE,631J1,PUBLIC STREET NAMES
6156,GRIMKE,WALK,,GRIMKE WALK,595D2,PUBLIC STREET NAMES
6384,GLADSTONE,WAY,,GLADSTONE WAY,502G1,PUBLIC STREET NAMES
6274,GOODLAND,DR,,GOODLAND DRIVE,562F6,PUBLIC STREET NAMES
587,GARDEN,ROAD,,GARDEN ROAD,NA,PRIVATE STREET NAMES
6320,GLEN TOWER,,,GLEN TOWER,593F2,PUBLIC STREET NAMES
6419,GERSHWIN,DR,,GERSHWIN DRIVE,559G4,PUBLIC STREET NAMES
6139,GUNNELL,AVE,,GUNNELL AVENUE,823H7,PUBLIC STREET NAMES
6433,GENEVA,ST,,GENEVA STREET,634B2,PUBLIC STREET NAMES
6503,GAIN,ST,,GAIN STREET,482G7,PUBLIC STREET NAMES
6313,GLIDE,AVE,,GLIDE AVENUE,529F7,PUBLIC STREET NAMES
10970,GARBO,LANE,,GARBO LANE,593E5,LIMITED ACCESS AREA NAMES
10548,GLENRIDGE,CT,,GLENRIDGE COURT,481J6,PRIVATE ROADWAY NAMES
6435,GENESEE,AVE,,GENESEE AVENUE,593B4,PUBLIC STREET NAMES
6410,GIBRALTAR,DR,,GIBRALTAR DRIVE,562D7,PUBLIC STREET NAMES
6397,GILMERTON,AVE,,GILMERTON AVENUE,632F6,PUBLIC STREET NAMES
6502,GAINFORD,ST,,GAINFORD STREET,559G3,PUBLIC STREET NAMES
6491,GALLAUDET,PL,,GALLAUDET PLACE,631B5,PUBLIC STREET NAMES
6360,GLENCAIRN,ROAD,,GLENCAIRN ROAD,594A2,PUBLIC STREET NAMES
6213,GRATIOT,ST,,GRATIOT STREET,635E1,PUBLIC STREET NAMES
6494,GALEWOOD,ST,,GALEWOOD STREET,562E5,PUBLIC STREET NAMES
6348,GLENEDEN,ST,,GLENEDEN STREET,594F3,PUBLIC STREET NAMES
6240,GRAMERCY,PL,,GRAMERCY PLACE,593H7,PUBLIC STREET NAMES
11040,GASPAR,CT,,GASPAR COURT,594F7,LIMITED ACCESS AREA NAMES
6307,GLORIA,AVE,,GLORIA AVENUE,501F5,PUBLIC STREET NAMES
6483,GANYMEDE,DR,,GANYMEDE DRIVE,594J3,PUBLIC STREET NAMES
6404,GILCREST,DR,,GILCREST DRIVE,592F5,PUBLIC STREET NAMES
6206,GRAYSTONE,ST,,GRAYSTONE STREET,503G2,PUBLIC STREET NAMES
6164,GRETNA GREEN,WAY,,GRETNA GREEN WAY,631G4,PUBLIC STREET NAMES
6247,GRACITA,PL,,GRACITA PLACE,595C3,PUBLIC STREET NAMES
6437,GELBER,PL,,GELBER PLACE,673D2,PUBLIC STREET NAMES
571,GRENOBLE,ST,,GRENOBLE STREET,504B3,PRIVATE STREET NAMES
6230,GRANDEE,AVE,,GRANDEE AVENUE,704G6,PUBLIC STREET NAMES
6391,GIRLA,WAY,,GIRLA WAY,632G6,PUBLIC STREET NAMES
570,GRIFFITH PARK,DR,,GRIFFITH PARK DRIVE,563H4,PRIVATE STREET NAMES
6284,GOLL,AVE,,GOLL AVENUE,532H3,PUBLIC STREET NAMES
6454,GATESHEAD,WAY,,GATESHEAD WAY,529F5,PUBLIC STREET NAMES
6392,GINGER,PL,,GINGER PLACE,560G4,PUBLIC STREET NAMES
6278,GOODE,ST,,GOODE STREET,565B6,PUBLIC STREET NAMES
6203,GREEN,AVE,,GREEN AVENUE,634C4,PUBLIC STREET NAMES
6353,GLENDON,AVE,,GLENDON AVENUE,632C5,PUBLIC STREET NAMES
6166,GRESHAM,ST,,GRESHAM STREET,501F7,PUBLIC STREET NAMES
6340,GLENHILL,DR,,GLENHILL DRIVE,533C3,PUBLIC STREET NAMES
6315,GLENWOOD,AVE,,GLENWOOD AVENUE,595A4,PUBLIC STREET NAMES
6318,GLENVIEW,AVE,,GLENVIEW AVENUE,594F3,PUBLIC STREET NAMES
6499,GALAXY,WAY,,GALAXY WAY,632E4,PUBLIC STREET NAMES
6161,GRIFFIN,AVE,,GRIFFIN AVENUE,595B6,PUBLIC STREET NAMES
6246,GRADE,AVE,,GRADE AVENUE,482D4,PUBLIC STREET NAMES
6262,GOSFORD,AVE,,GOSFORD AVENUE,532E2,PUBLIC STREET NAMES
6142,GULCH,ROAD,,GULCH ROAD,824C6,PUBLIC STREET NAMES
568,GUNSTON,DR,,GUNSTON DRIVE,631H1,PRIVATE STREET NAMES
6398,GILLIS,ST,,GILLIS STREET,NA,PUBLIC STREET NAMES
32,GILBERT W LINDSAY,MALL,,GILBERT W LINDSAY MALL,634G4,PEDESTRIAN MALL NAMES
6333,GLENMUIR,AVE,,GLENMUIR AVENUE,595A4,PUBLIC STREET NAMES
6406,GILBERT,PL,,GILBERT PLACE,593J7,PUBLIC STREET NAMES
6363,GLEN AYLSA,AVE,,GLEN AYLSA AVENUE,565D6,PUBLIC STREET NAMES
6470,GARFIELD,AVE,,GARFIELD AVENUE,672A5,PUBLIC STREET NAMES
6383,GLADWIN,ST,,GLADWIN STREET,631H2,PUBLIC STREET NAMES
6417,GERTRUDE,ST,,GERTRUDE STREET,635A5,PUBLIC STREET NAMES
578,GLENOAKS,BLVD,,GLENOAKS BOULEVARD,2C1,PRIVATE STREET NAMES
6455,GATES,ST,,GATES STREET,595B7,PUBLIC STREET NAMES
10294,GOLDEN,CT,,GOLDEN COURT,481H6,PUBLIC STREET NAMES
6344,GLENGARRY,ROAD,,GLENGARRY ROAD,565D6,PUBLIC STREET NAMES
6326,GLENROCK,AVE,,GLENROCK AVENUE,632A2,PUBLIC STREET NAMES
6232,GRAND,BLVD,,GRAND BOULEVARD,671H6,PUBLIC STREET NAMES
6129,GYRAL,DR,,GYRAL DRIVE,504C4,PUBLIC STREET NAMES
6386,GLADE,AVE,,GLADE AVENUE,499J4,PUBLIC STREET NAMES
6228,GRANDEUR,DR,,GRANDEUR DRIVE,823G6,PUBLIC STREET NAMES
6429,GEORGE,ST,,GEORGE STREET,595A7,PUBLIC STREET NAMES
6253,GOWER,ST,,GOWER STREET,593F3,PUBLIC STREET NAMES
6173,GREG,AVE,,GREG AVENUE,533C3,PUBLIC STREET NAMES
6361,GLENBROOK,ST,,GLENBROOK STREET,595F2,PUBLIC STREET NAMES
6260,GOSS,ST,,GOSS STREET,503A7,PUBLIC STREET NAMES
9790,GARDNER,ST,,GARDNER STREET,633C1,PRIVATE STREET NAMES
10923,GRAND,CL,,GRAND CANAL,671H6,PUBLIC STREET NAMES
6319,GLEN TOWER,WALK,,GLEN TOWER WALK,593F2,PUBLIC STREET NAMES
6264,GORHAM,PL,,GORHAM PLACE,631H4,PUBLIC STREET NAMES
6137,GUNTHER,ST,,GUNTHER STREET,481C7,PUBLIC STREET NAMES
6212,GRATTAN,ST,,GRATTAN STREET,634C4,PUBLIC STREET NAMES
6466,GARRET,PL,,GARRET PLACE,503J1,PUBLIC STREET NAMES
6394,GILROY,ST,,GILROY STREET,594E3,PUBLIC STREET NAMES
6489,GALLOWAY,ST,,GALLOWAY STREET,631B4,PUBLIC STREET NAMES
6197,GREENDALE,DR,,GREENDALE DRIVE,592B6,PUBLIC STREET NAMES
6270,GOODVIEW,TR,,GOODVIEW TRAIL,593C1,PUBLIC STREET NAMES
6354,GLENDALE,FRWY,,GLENDALE FREEWAY,534J7,PUBLIC STREET NAMES
6150,GROVERTON,PL,,GROVERTON PLACE,632A1,PUBLIC STREET NAMES
6380,GLAMIS,ST,,GLAMIS STREET,482H7,PUBLIC STREET NAMES
6321,GLENTIES,WAY,,GLENTIES WAY,503H4,PUBLIC STREET NAMES
6389,GIVENS,PL,,GIVENS PLACE,501C6,PUBLIC STREET NAMES
6243,GRAHAM,PL,,GRAHAM PLACE,632C7,PUBLIC STREET NAMES
6234,GRAND,AVE,,GRAND AVENUE,824B3,PUBLIC STREET NAMES
10601,GABRIEL GARCIA MARQUEZ,ST,,GABRIEL GARCIA MARQUEZ STREET,634J4,PUBLIC STREET NAMES
6409,GIBSON,ST,,GIBSON STREET,632H6,PUBLIC STREET NAMES
10353,GREENSLEEVES,WAY,,GREENSLEEVES WAY,480D7,PRIVATE STREET NAMES
6316,GLEN,WALK,,GLEN WALK,595B4,PUBLIC STREET NAMES
6199,GREEN,CT,,GREEN COURT,672B4,PUBLIC STREET NAMES
10036,GOVINA,CT,,GOVINA COURT,NA,PRIVATE ROADWAY NAMES
6143,GULANA,AVE,,GULANA AVENUE,702C3,PUBLIC STREET NAMES
6490,GALLEON,ST,,GALLEON STREET,671J7,PUBLIC STREET NAMES
6311,GLIDER,AVE,,GLIDER AVENUE,702H2,PUBLIC STREET NAMES
6424,GEORGIUS,WAY,,GEORGIUS WAY,593F2,PUBLIC STREET NAMES
10212,GATEWAY TOWERS,DR,,GATEWAY TOWERS DRIVE,764A3,PRIVATE STREET NAMES
6345,GLENFORD,ST,,GLENFORD STREET,673A2,PUBLIC STREET NAMES
6332,GLENN,AVE,,GLENN AVENUE,635A7,PUBLIC STREET NAMES
6154,GROSS,AVE,,GROSS AVENUE,529F7,PUBLIC STREET NAMES
6448,GAUGUIN,AVE,,GAUGUIN AVENUE,560A5,PUBLIC STREET NAMES
10483,GAGER,ST,,GAGER STREET,502G1,PRIVATE STREET NAMES
6136,GURNARD,AVE,,GURNARD AVENUE,823G7,PUBLIC STREET NAMES
6245,GRAFTON,ST,,GRAFTON STREET,594E7,PUBLIC STREET NAMES
576,GLESS,ST,,GLESS STREET,634J5,PRIVATE STREET NAMES
6357,GLENCREST,CIR,,GLENCREST CIRCLE,533C3,PUBLIC STREET NAMES
6375,GLASGOW,WAY,,GLASGOW WAY,703A1,PUBLIC STREET NAMES
6352,GLENDOWER,AVE,,GLENDOWER AVENUE,594A2,PUBLIC STREET NAMES
6334,GLENMONT,AVE,,GLENMONT AVENUE,632B2,PUBLIC STREET NAMES
9676,GUYTINO,PL,,GUYTINO PLACE,44D2,UNOFFICIAL PRIVATE STREET NAMES
6276,GOODHOPE,PL,,GOODHOPE PLACE,823H5,PUBLIC STREET NAMES
6172,GREGORY,AVE,,GREGORY AVENUE,593F6,PUBLIC STREET NAMES
6385,GLADSTONE,AVE,,GLADSTONE AVENUE,482A2,PUBLIC STREET NAMES
6480,GARDEN,AVE,,GARDEN AVENUE,594D1,PUBLIC STREET NAMES
6484,GANAHL,ST,,GANAHL STREET,635C4,PUBLIC STREET NAMES
6407,GIFFORD,ST,,GIFFORD STREET,530F4,PUBLIC STREET NAMES
6372,GLEASON,AVE,,GLEASON AVENUE,635B5,PUBLIC STREET NAMES
6358,GLENCOE,WAY,,GLENCOE WAY,593D3,PUBLIC STREET NAMES
6186,GREENRIDGE,DR,,GREENRIDGE DRIVE,592D5,PUBLIC STREET NAMES
6261,GOSHEN,AVE,,GOSHEN AVENUE,631H5,PUBLIC STREET NAMES
6296,GOETHE,PL,,GOETHE PLACE,481B5,PUBLIC STREET NAMES
572,GREEN OAK,DR,,GREEN OAK DRIVE,593G2,PRIVATE STREET NAMES
6257,GOTHIC,PL,,GOTHIC PLACE,481E7,PUBLIC STREET NAMES
6336,GLENMANOR,PL,,GLENMANOR PLACE,594D2,PUBLIC STREET NAMES
10884,GABLES,CT,,GABLES COURT,593E5,LIMITED ACCESS AREA NAMES
6434,GENESTA,AVE,,GENESTA AVENUE,501C5,PUBLIC STREET NAMES
6366,GLEN ALDER,,,GLEN ALDER,593F2,PUBLIC STREET NAMES
6342,GLEN GREEN,TER,,GLEN GREEN TERRACE,593G2,PUBLIC STREET NAMES
10887,GARBO,CT,,GARBO COURT,593E5,LIMITED ACCESS AREA NAMES
6244,GRAHAM,AVE,,GRAHAM AVENUE,704G2,PUBLIC STREET NAMES
6163,GREY,DR,,GREY DRIVE,595D6,PUBLIC STREET NAMES
6402,GILFORD,ST,,GILFORD STREET,NA,PUBLIC STREET NAMES
6416,GETTY,ST,,GETTY STREET,501E4,PUBLIC STREET NAMES
6153,GROSVENOR,BLVD,,GROSVENOR BOULEVARD,672E6,PUBLIC STREET NAMES
6183,GREENTREE,ROAD,,GREENTREE ROAD,631B6,PUBLIC STREET NAMES
6479,GARDEN,ST,,GARDEN STREET,564A3,PUBLIC STREET NAMES
6214,GRAPE,ST,,GRAPE STREET,704H3,PUBLIC STREET NAMES
6152,GROVE,ST,,GROVE STREET,503H2,PUBLIC STREET NAMES
6355,GLENDALE,BLVD,,GLENDALE BOULEVARD,594D2,PUBLIC STREET NAMES
6506,GAGE,AVE,,GAGE AVENUE,674E6,PUBLIC STREET NAMES
6130,GYPSY,LANE,,GYPSY LANE,560E4,PUBLIC STREET NAMES
9832,GREENVALLEY,TER,,GREENVALLEY TERRACE,502F1,PRIVATE ROADWAY NAMES
6282,GOLONDRINA,ST,,GOLONDRINA STREET,560B5,PUBLIC STREET NAMES
6500,GALA,WALK,,GALA WALK,595B5,PUBLIC STREET NAMES
575,GLOAMING,DR,,GLOAMING DRIVE,592F2,PRIVATE STREET NAMES
10540,GILMORE,LANE,,GILMORE LANE,633B1,PRIVATE ROADWAY NAMES
6237,GRANADA,CT,,GRANADA COURT,671H6,PUBLIC STREET NAMES
6388,GLACIER,DR,,GLACIER DRIVE,565C6,PUBLIC STREET NAMES
6368,GLENALBYN,PL,,GLENALBYN PLACE,595A4,PUBLIC STREET NAMES
6476,GARDEN HOMES,AVE,,GARDEN HOMES AVENUE,595F5,PUBLIC STREET NAMES
6356,GLENCREST,DR,,GLENCREST DRIVE,482C7,PUBLIC STREET NAMES
6314,GLESS,ST,,GLESS STREET,634J4,PUBLIC STREET NAMES
577,GLENRIDGE,DR,,GLENRIDGE DRIVE,22F5,PRIVATE STREET NAMES
10606,GHIBERTI,WAY,,GHIBERTI WAY,500D1,PRIVATE ROADWAY NAMES
6509,GABLE,DR,,GABLE DRIVE,561A4,PUBLIC STREET NAMES
6493,GALEWOOD,WALK,,GALEWOOD WALK,562D5,PUBLIC STREET NAMES
10222,GARBER,ST,,GARBER STREET,502C5,PRIVATE STREET NAMES
6505,GAGER,ST,,GAGER STREET,482G7,PUBLIC STREET NAMES
6487,GALVEZ,ST,,GALVEZ STREET,560A3,PUBLIC STREET NAMES
6329,GLENOAKS,BLVD,,GLENOAKS BOULEVARD,482B5,PUBLIC STREET NAMES
6312,GLIDDEN,DR,,GLIDDEN DRIVE,595F4,PUBLIC STREET NAMES
6486,GAMBIER,ST,,GAMBIER STREET,595E7,PUBLIC STREET NAMES
9825,GEORGIA,LANE,,GEORGIA LANE,530G4,PRIVATE STREET NAMES
6317,GLENVILLE,DR,,GLENVILLE DRIVE,632G4,PUBLIC STREET NAMES
11022,GILL,WAY,,GILL WAY,593D2,LIMITED ACCESS AREA NAMES
6208,GRAYSBY,AVE,,GRAYSBY AVENUE,823H7,PUBLIC STREET NAMES
6341,GLENHAVEN,DR,,GLENHAVEN DRIVE,630H4,PUBLIC STREET NAMES
9585,GOLDMINE,LANE,,GOLDMINE LANE,531D3,PUBLIC STREET NAMES
6200,GREENBUSH,AVE,,GREENBUSH AVENUE,502B6,PUBLIC STREET NAMES
10703,GREEN HILLS,DR,,GREEN HILLS DRIVE,595E4,PUBLIC STREET NAMES
579,GLENNFIELD,CT,,GLENNFIELD COURT,675B1,PRIVATE STREET NAMES
6444,GAY,ST,,GAY STREET,594J6,PUBLIC STREET NAMES
9882,GOLDEN CANYON,CIR,,GOLDEN CANYON CIRCLE,499H2,PRIVATE STREET NAMES
6209,GRAYBURN,AVE,,GRAYBURN AVENUE,673F2,PUBLIC STREET NAMES
6171,GREGORY,WAY,,GREGORY WAY,633A3,PUBLIC STREET NAMES
6508,GAFFEY,PL,,GAFFEY PLACE,824B4,PUBLIC STREET NAMES
6157,GRIMES,PL,,GRIMES PLACE,561A5,PUBLIC STREET NAMES
6451,GATEWAY,BLVD,,GATEWAY BOULEVARD,632B7,PUBLIC STREET NAMES
6201,GREENBURN,AVE,,GREENBURN AVENUE,503H3,PUBLIC STREET NAMES
6175,GREENWOOD,PL,,GREENWOOD PLACE,594A3,PUBLIC STREET NAMES
10743,GLENWOOD,DR,,GLENWOOD DRIVE,481G3,PUBLIC STREET NAMES
9583,GEORGE BURNS,ROAD,,GEORGE BURNS ROAD,632J1,PUBLIC STREET NAMES
6184,GREENTREE,CT,,GREENTREE COURT,562A7,PUBLIC STREET NAMES
6481,GARBER,ST,,GARBER STREET,482H7,PUBLIC STREET NAMES
6221,GRAND VIEW,ST,,GRAND VIEW STREET,634B4,PUBLIC STREET NAMES
6269,GOODWIN,AVE,,GOODWIN AVENUE,564C6,PUBLIC STREET NAMES
6477,GARDEN GROVE,AVE,,GARDEN GROVE AVENUE,500J5,PUBLIC STREET NAMES
6387,GLADBECK,AVE,,GLADBECK AVENUE,500H4,PUBLIC STREET NAMES
6249,GRACIA,ST,,GRACIA STREET,594E3,PUBLIC STREET NAMES
6140,GULLO,AVE,,GULLO AVENUE,501J5,PUBLIC STREET NAMES
6224,GRAND VIEW,AVE,,GRAND VIEW AVENUE,672A5,PUBLIC STREET NAMES
6248,GRACIOSA,DR,,GRACIOSA DRIVE,593F2,PUBLIC STREET NAMES
6188,GREEN OAK,PL,,GREEN OAK PLACE,593H2,PUBLIC STREET NAMES
6231,GRAND CANAL,CT,,GRAND CANAL COURT,671H6,PUBLIC STREET NAMES
6241,GRAMERCY,PARK,,GRAMERCY PARK,633H6,PUBLIC STREET NAMES
6441,GAYLEY,AVE,,GAYLEY AVENUE,632A1,PUBLIC STREET NAMES
6425,GEORGIUS,WALK,,GEORGIUS WALK,593F2,PUBLIC STREET NAMES
6488,GALVESTON,ST,,GALVESTON STREET,594E7,PUBLIC STREET NAMES
6292,GOLDEN,LANE,,GOLDEN LANE,481B6,PUBLIC STREET NAMES
6236,GRANADA,ST,,GRANADA STREET,594H4,PUBLIC STREET NAMES
6373,GLASSPORT,AVE,,GLASSPORT AVENUE,530B2,PUBLIC STREET NAMES
6202,GREENBRIAR,DR,,GREENBRIAR DRIVE,560F5,PUBLIC STREET NAMES
6362,GLENBARR,AVE,,GLENBARR AVENUE,632E6,PUBLIC STREET NAMES
6374,GLASSELL,ST,,GLASSELL STREET,634B1,PUBLIC STREET NAMES
6286,GOLDWYN,TER,,GOLDWYN TERRACE,672F1,PUBLIC STREET NAMES
6359,GLENCOE,AVE,,GLENCOE AVENUE,672B6,PUBLIC STREET NAMES
10319,GOLDEN OAKS,AVE,,GOLDEN OAKS AVENUE,504B4,PRIVATE STREET NAMES
6144,GUIRADO,ST,,GUIRADO STREET,635B6,PUBLIC STREET NAMES
580,GLENNCROSS,CT,,GLENNCROSS COURT,675B1,PRIVATE STREET NAMES
6176,GREENWOOD,AVE,,GREENWOOD AVENUE,672A3,PUBLIC STREET NAMES
9584,GETTY CENTER,DR,,GETTY CENTER DRIVE,591G7,PUBLIC STREET NAMES
6151,GROVELAND,DR,,GROVELAND DRIVE,592J3,PUBLIC STREET NAMES
6390,GISH,AVE,,GISH AVENUE,504B4,PUBLIC STREET NAMES
6400,GILLIG,AVE,,GILLIG AVENUE,595B6,PUBLIC STREET NAMES
6141,GULF,AVE,,GULF AVENUE,794D5,PUBLIC STREET NAMES
10034,GREENBRIER,LANE,,GREENBRIER LANE,560J5,PRIVATE STREET NAMES
6293,GOLDEN,CIR,,GOLDEN CIRCLE,481B6,PUBLIC STREET NAMES
6239,GRAMMAR,PL,,GRAMMAR PLACE,532A1,PUBLIC STREET NAMES
6395,GILMORE,ST,,GILMORE STREET,532E6,PUBLIC STREET NAMES
6219,GRANITO,DR,,GRANITO DRIVE,593B4,PUBLIC STREET NAMES
6158,GRIFFITH VIEW,DR,,GRIFFITH VIEW DRIVE,594D1,PUBLIC STREET NAMES
6298,GODDARD,AVE,,GODDARD AVENUE,703A2,PUBLIC STREET NAMES
6401,GILLETTE,ST,,GILLETTE STREET,634J3,PUBLIC STREET NAMES
6222,GRAND VIEW,DR,,GRAND VIEW DRIVE,590B7,PUBLIC STREET NAMES
6379,GLAMOR,TR,,GLAMOR TRAIL,529D2,PUBLIC STREET NAMES
6225,GRAND PRE,BLVD,SOUTH,GRAND PRE BOULEVARD SOUTH,NA,PUBLIC STREET NAMES
6335,GLENMERE,WAY,,GLENMERE WAY,631E1,PUBLIC STREET NAMES
6227,GRANDOLA,AVE,,GRANDOLA AVENUE,565B6,PUBLIC STREET NAMES
10204,GREYHAWK,PL,,GREYHAWK PLACE,481A7,PUBLIC STREET NAMES
6422,GERALDINE,ST,,GERALDINE STREET,674F2,PUBLIC STREET NAMES
6478,GARDENA,BLVD,,GARDENA BOULEVARD,734B6,PUBLIC STREET NAMES
6155,GRIMSBY,AVE,,GRIMSBY AVENUE,702J2,PUBLIC STREET NAMES
6223,GRAND VIEW,BLVD,,GRAND VIEW BOULEVARD,672B2,PUBLIC STREET NAMES
6367,GLENALBYN,WAY,,GLENALBYN WAY,595B4,PUBLIC STREET NAMES
6217,GRANT,ST,,GRANT STREET,794H5,PUBLIC STREET NAMES
6168,GRENOLA,ST,,GRENOLA STREET,630H6,PUBLIC STREET NAMES
6162,GRIDLEY,ST,,GRIDLEY STREET,482E3,PUBLIC STREET NAMES
6266,GORGONIA,ST,,GORGONIA STREET,560C5,PUBLIC STREET NAMES
6177,GREENWAY,DR,,GREENWAY DRIVE,632D1,PUBLIC STREET NAMES
586,GENESEE,AVE,,GENESEE AVENUE,NA,PRIVATE STREET NAMES
6426,GEORGIA,ST,,GEORGIA STREET,634D5,PUBLIC STREET NAMES
6450,GATEWOOD,ST,,GATEWOOD STREET,594H6,PUBLIC STREET NAMES
6301,GLYNDON,AVE,,GLYNDON AVENUE,672A4,PUBLIC STREET NAMES
569,GRUNDY,WAY,,GRUNDY WAY,499E7,PRIVATE STREET NAMES
6396,GILMORE,AVE,,GILMORE AVENUE,672D5,PUBLIC STREET NAMES
6254,GOVERNOR,AVE,,GOVERNOR AVENUE,793J3,PUBLIC STREET NAMES
10613,GENOVA,LANE,,GENOVA LANE,480C6,PRIVATE ROADWAY NAMES
6495,GALESBERG,ST,,GALESBERG STREET,481C7,PUBLIC STREET NAMES
6443,GAYLE,DR,,GAYLE DRIVE,560G5,PUBLIC STREET NAMES
6306,GLORIETTA,DR,,GLORIETTA DRIVE,562A7,PUBLIC STREET NAMES
6420,GERRAD,WAY,,GERRAD WAY,529E4,PUBLIC STREET NAMES
6428,GEORGETOWN,AVE,,GEORGETOWN AVENUE,702E2,PUBLIC STREET NAMES
6457,GARWOOD,PL,,GARWOOD PLACE,632C2,PUBLIC STREET NAMES
6131,GUTHRIE,DR,,GUTHRIE DRIVE,632G5,PUBLIC STREET NAMES
6369,GLENALBYN,DR,,GLENALBYN DRIVE,595A3,PUBLIC STREET NAMES
6322,GLENTIES,LANE,,GLENTIES LANE,503H4,PUBLIC STREET NAMES
6258,GOTHIC,AVE,,GOTHIC AVENUE,481E7,PUBLIC STREET NAMES
6250,GRACE,AVE,,GRACE AVENUE,593E3,PUBLIC STREET NAMES
6423,GERALD,AVE,,GERALD AVENUE,481D7,PUBLIC STREET NAMES
10220,GAVIOTA,AVE,,GAVIOTA AVENUE,501F2,PRIVATE STREET NAMES
6378,GLASGOW,AVE,,GLASGOW AVENUE,703A1,PUBLIC STREET NAMES
6194,GREEN GABLES,DR,,GREEN GABLES DRIVE,560F6,PUBLIC STREET NAMES
6350,GLENDOWER,ROAD,,GLENDOWER ROAD,593J2,PUBLIC STREET NAMES
6473,GARDENSTONE,LANE,,GARDENSTONE LANE,529C5,PUBLIC STREET NAMES
6449,GATUN,ST,,GATUN STREET,824A2,PUBLIC STREET NAMES
6376,GLASGOW,PL,,GLASGOW PLACE,703A4,PUBLIC STREET NAMES
6471,GAREY,ST,,GAREY STREET,634H4,PUBLIC STREET NAMES
6343,GLEN,GRN,,GLEN GREEN,593G2,PUBLIC STREET NAMES
6295,GOLD,PL,,GOLD PLACE,595F1,PUBLIC STREET NAMES
10253,GRACIE ALLEN,DR,,GRACIE ALLEN DRIVE,632J1,PUBLIC STREET NAMES
6181,GREEN VERDUGO,DR,,GREEN VERDUGO DRIVE,503D4,PUBLIC STREET NAMES
6438,GEER,AVE,,GEER AVENUE,633B7,PUBLIC STREET NAMES
6324,GLENROY,PL,,GLENROY PLACE,631J1,PUBLIC STREET NAMES
6462,GARTH,AVE,,GARTH AVENUE,632J5,PUBLIC STREET NAMES
581,GLADDEN,PL,,GLADDEN PLACE,594J1,PRIVATE STREET NAMES
6331,GLENNIE,LANE,,GLENNIE LANE,633A6,PUBLIC STREET NAMES
6364,GLENAVON,AVE,,GLENAVON AVENUE,635G1,PUBLIC STREET NAMES
6204,GREELEY,ST,,GREELEY STREET,504A4,PUBLIC STREET NAMES
6169,GRENOBLE,ST,,GRENOBLE STREET,504B3,PUBLIC STREET NAMES
10512,GALLERIA,LANE,,GALLERIA LANE,561H4,PRIVATE STREET NAMES
6436,GENERAL THADDEUS KOSCIUSZKO,WAY,,GENERAL THADDEUS KOSCIUSZKO WAY,634F3,PUBLIC STREET NAMES
6294,GOLDEN,AVE,,GOLDEN AVENUE,634D4,PUBLIC STREET NAMES
6180,GREEN VIEW,PL,,GREEN VIEW PLACE,592H2,PUBLIC STREET NAMES
6445,GAVIOTA,AVE,,GAVIOTA AVENUE,501F1,PUBLIC STREET NAMES
6504,GAIL,ST,,GAIL STREET,594G5,PUBLIC STREET NAMES
6305,GLORIETTA,PL,,GLORIETTA PLACE,562A7,PUBLIC STREET NAMES
6371,GLEDHILL,ST,,GLEDHILL STREET,502A6,PUBLIC STREET NAMES
6179,GREEN VISTA,CIR,,GREEN VISTA CIRCLE,529F5,PUBLIC STREET NAMES
6290,GOLDENROD,PL,,GOLDENROD PLACE,561E7,PUBLIC STREET NAMES
6159,GRIFFITH PARK,BLVD,,GRIFFITH PARK BOULEVARD,594C2,PUBLIC STREET NAMES
6351,GLENDOWER,PL,,GLENDOWER PLACE,594A2,PUBLIC STREET NAMES
6211,GRAVES,AVE,,GRAVES AVENUE,531C1,PUBLIC STREET NAMES
9894,GWYNNE,LANE,,GWYNNE LANE,591G2,PRIVATE STREET NAMES
6216,GRANVILLE,AVE,,GRANVILLE AVENUE,631G3,PUBLIC STREET NAMES
6263,GORMAN,AVE,,GORMAN AVENUE,704H5,PUBLIC STREET NAMES
6300,GLYNDON,CT,,GLYNDON COURT,672A4,PUBLIC STREET NAMES
6469,GARFIELD,PL,,GARFIELD PLACE,593H4,PUBLIC STREET NAMES
6442,GAYLE,PL,,GAYLE PLACE,560G4,PUBLIC STREET NAMES
6461,GARTHWAITE,AVE,,GARTHWAITE AVENUE,673F3,PUBLIC STREET NAMES
6492,GALLARDO,ST,,GALLARDO STREET,634J3,PUBLIC STREET NAMES
6468,GARLAND,AVE,,GARLAND AVENUE,634D4,PUBLIC STREET NAMES
6474,GARDENSIDE,LANE,,GARDENSIDE LANE,594D1,PUBLIC STREET NAMES
6189,GREEN OAK,DR,,GREEN OAK DRIVE,593G2,PUBLIC STREET NAMES
6497,GALENDO,PL,,GALENDO PLACE,560A5,PUBLIC STREET NAMES
6174,GREER,ROAD,,GREER ROAD,559G5,PUBLIC STREET NAMES
6475,GARDEN LAND,ROAD,,GARDEN LAND ROAD,591C2,PUBLIC STREET NAMES
6145,GUILFORD,PL,,GUILFORD PLACE,793J2,PUBLIC STREET NAMES
6192,GREENLEAF,ST,,GREENLEAF STREET,562D5,PUBLIC STREET NAMES
6411,GIBRALTAR,AVE,,GIBRALTAR AVENUE,673C2,PUBLIC STREET NAMES
573,GORMAN,AVE,,GORMAN AVENUE,58E4,PRIVATE STREET NAMES
10485,GINGER,LANE,,GINGER LANE,502B2,PUBLIC STREET NAMES
6149,GRUEN,ST,,GRUEN STREET,482G7,PUBLIC STREET NAMES
6337,GLEN IRIS,AVE,,GLEN IRIS AVENUE,565A6,PUBLIC STREET NAMES
6427,GEORGETTE,PL,,GEORGETTE PLACE,481C6,PUBLIC STREET NAMES
6271,GOODSON,PL,,GOODSON PLACE,593A4,PUBLIC STREET NAMES
9603,GEORGE BURNS,WAY,,GEORGE BURNS WAY,632J1,PRIVATE STREET NAMES
6467,GARNET,ST,,GARNET STREET,675B1,PUBLIC STREET NAMES
6507,GAFFEY,ST,,GAFFEY STREET,794A7,PUBLIC STREET NAMES
6431,GENOA,ST,,GENOA STREET,481J6,PUBLIC STREET NAMES
583,GILMORE,LANE,,GILMORE LANE,33F6,PRIVATE STREET NAMES
6399,GILLIG,PL,,GILLIG PLACE,595B6,PUBLIC STREET NAMES
6347,GLEN ELLEN,PL,,GLEN ELLEN PLACE,595C3,PUBLIC STREET NAMES
6210,GRAVOIS,AVE,,GRAVOIS AVENUE,635F3,PUBLIC STREET NAMES
6510,G,ST,,G STREET,794B7,PUBLIC STREET NAMES
6408,GIERSON,AVE,,GIERSON AVENUE,499J5,PUBLIC STREET NAMES
6338,GLENHURST,AVE,,GLENHURST AVENUE,594D2,PUBLIC STREET NAMES
10473,GOODLAND,CT,,GOODLAND COURT,532E2,PRIVATE STREET NAMES
6195,GREENFIELD,AVE,,GREENFIELD AVENUE,632C6,PUBLIC STREET NAMES
6323,GLENSIDE,PL,,GLENSIDE PLACE,592C3,PUBLIC STREET NAMES
574,GOLDEN,AVE,,GOLDEN AVENUE,44B3,PRIVATE STREET NAMES
6310,GLOAMING,DR,,GLOAMING DRIVE,592F2,PUBLIC STREET NAMES
6501,GAINSBOROUGH,AVE,,GAINSBOROUGH AVENUE,594A2,PUBLIC STREET NAMES
6440,GAYNOR,AVE,,GAYNOR AVENUE,501F5,PUBLIC STREET NAMES
6185,GREENSWARD,ROAD,,GREENSWARD ROAD,594D2,PUBLIC STREET NAMES
6472,GARDNER,ST,,GARDNER STREET,593C4,PUBLIC STREET NAMES
6498,GALENA,ST,,GALENA STREET,595C6,PUBLIC STREET NAMES
10484,GINGER,LANE,,GINGER LANE,502B2,PRIVATE STREET NAMES
6182,GREENVALLEY,ROAD,,GREENVALLEY ROAD,592H2,PUBLIC STREET NAMES
6132,GUTHRIE,CT,,GUTHRIE COURT,632G6,PUBLIC STREET NAMES
6160,GRIFFITH,AVE,,GRIFFITH AVENUE,634F7,PUBLIC STREET NAMES
6215,GRAPE,PL,,GRAPE PLACE,593F2,PUBLIC STREET NAMES
6403,GILDAY,DR,,GILDAY DRIVE,593F2,PUBLIC STREET NAMES
6482,GAONA,ST,,GAONA STREET,560B4,PUBLIC STREET NAMES
6365,GLEN ARBOR,AVE,,GLEN ARBOR AVENUE,565D6,PUBLIC STREET NAMES
6302,GLOVER,PL,,GLOVER PLACE,594G5,PUBLIC STREET NAMES
6273,GOODLAND,PL,,GOODLAND PLACE,532E7,PUBLIC STREET NAMES
6288,GOLDEN STATE,FRWY,,GOLDEN STATE FREEWAY,481E4,PUBLIC STREET NAMES
6178,GREEN VISTA,DR,,GREEN VISTA DRIVE,561D6,PUBLIC STREET NAMES
6167,GRESHAM,PL,,GRESHAM PLACE,530A1,PUBLIC STREET NAMES
6255,GOULD,AVE,,GOULD AVENUE,593A3,PUBLIC STREET NAMES
9833,GRAYSTONE,DR,,GRAYSTONE DRIVE,529D4,PUBLIC STREET NAMES
11014,GOLDENEYE,CT,,GOLDENEYE COURT,672F7,PRIVATE ROADWAY NAMES
6496,GALENDO,ST,,GALENDO STREET,560A5,PUBLIC STREET NAMES
6382,GLADYS,AVE,,GLADYS AVENUE,634G5,PUBLIC STREET NAMES
6146,GUILDFORD,LANE,,GUILDFORD LANE,500J1,PUBLIC STREET NAMES
6412,GIBBONS,ST,,GIBBONS STREET,634J2,PUBLIC STREET NAMES
6297,GOEBEL,AVE,,GOEBEL AVENUE,NA,PUBLIC STREET NAMES
6421,GERMAIN,ST,,GERMAIN STREET,502A3,PUBLIC STREET NAMES
6453,GATESIDE,DR,,GATESIDE DRIVE,635D1,PUBLIC STREET NAMES
9791,GENESEE,AVE,,GENESEE AVENUE,633C1,PRIVATE STREET NAMES
10930,GRANADA POINTE,,,GRANADA POINTE,501G1,PRIVATE ROADWAY NAMES
6377,GLASGOW,CT,,GLASGOW COURT,703A1,PUBLIC STREET NAMES
6280,GONZAGA,AVE,,GONZAGA AVENUE,702E3,PUBLIC STREET NAMES
6252,GOYA,ST,,GOYA STREET,481C4,PUBLIC STREET NAMES
6485,GAMBLE,AVE,,GAMBLE AVENUE,794G4,PUBLIC STREET NAMES
6465,GARRICK,AVE,,GARRICK AVENUE,482C1,PUBLIC STREET NAMES
6287,GOLDEN VALLEY,LANE,,GOLDEN VALLEY LANE,481C3,PUBLIC STREET NAMES
6283,GOLONDRINA,PL,,GOLONDRINA PLACE,560B5,PUBLIC STREET NAMES
6133,GUTHRIE,CIR,,GUTHRIE CIRCLE,632G5,PUBLIC STREET NAMES
6381,GLAMIS,PL,,GLAMIS PLACE,502F3,PUBLIC STREET NAMES
6346,GLENFELIZ,BLVD,,GLENFELIZ BOULEVARD,594D1,PUBLIC STREET NAMES
6207,GRAYSON,AVE,,GRAYSON AVENUE,671J7,PUBLIC STREET NAMES
10830,GUILIANO,LANE,,GUILIANO LANE,480E6,PRIVATE STREET NAMES
6275,GOODLAND,AVE,,GOODLAND AVENUE,532E2,PUBLIC STREET NAMES
6415,GEYSER,AVE,,GEYSER AVENUE,500H6,PUBLIC STREET NAMES
6464,GARRIS,AVE,,GARRIS AVENUE,481B4,PUBLIC STREET NAMES
6147,GUERIN,ST,,GUERIN STREET,562G5,PUBLIC STREET NAMES
6134,GUTHRIE,AVE,,GUTHRIE AVENUE,633A6,PUBLIC STREET NAMES
6432,GENEVIEVE,AVE,,GENEVIEVE AVENUE,530C4,PUBLIC STREET NAMES
6456,GASSEN,PL,,GASSEN PLACE,594H3,PUBLIC STREET NAMES
6446,GAVINA,AVE,,GAVINA AVENUE,482E2,PUBLIC STREET NAMES
6218,GRANT,AVE,,GRANT AVENUE,672A5,PUBLIC STREET NAMES
6193,GREENLAWN,AVE,,GREENLAWN AVENUE,672F4,PUBLIC STREET NAMES
6135,GUSTAV,LANE,,GUSTAV LANE,529F2,PUBLIC STREET NAMES
6196,GREENE,AVE,,GREENE AVENUE,634C4,PUBLIC STREET NAMES
6148,GUARDIA,AVE,,GUARDIA AVENUE,595F5,PUBLIC STREET NAMES
6191,GREEN MEADOW,CT,,GREEN MEADOW COURT,561A5,PUBLIC STREET NAMES
6303,GLOUCESTER,DR,,GLOUCESTER DRIVE,592C1,PUBLIC STREET NAMES
6349,GLENEAGLES,DR,,GLENEAGLES DRIVE,560F6,PUBLIC STREET NAMES
6459,GARVANZA,AVE,,GARVANZA AVENUE,595D2,PUBLIC STREET NAMES
10427,GRISSOM,DR,,GRISSOM DRIVE,823J7,PRIVATE ROADWAY NAMES
6272,GOODRICH,AVE,,GOODRICH AVENUE,794H5,PUBLIC STREET NAMES
6256,GOUCHER,ST,,GOUCHER STREET,631B4,PUBLIC STREET NAMES
10049,GLENHAVEN,CT,,GLENHAVEN COURT,529E5,PUBLIC STREET NAMES
6187,GREENOCK,LANE,,GREENOCK LANE,631G2,PUBLIC STREET NAMES
6277,GOODHOPE,AVE,,GOODHOPE AVENUE,823H5,PUBLIC STREET NAMES
10609,GIOVANNI,LANE,,GIOVANNI LANE,500D1,PRIVATE ROADWAY NAMES
11046,GAVIOTA,CT,,GAVIOTA COURT,561F4,PRIVATE STREET NAMES
11172,GALWAY,LANE,,GALWAY LANE,480D7,PRIVATE STREET NAMES
11202,GRAY FOX,CT,,GRAY FOX COURT,500E2,PRIVATE STREET NAMES
11159,GREENWOOD,DR,,GREENWOOD DRIVE,480D7,PRIVATE STREET NAMES
11069,GABRIELA,CT,,GABRIELA COURT,480D6,PRIVATE STREET NAMES
11240,GEORGIA,DR,,GEORGIA DRIVE,794B4,LIMITED ACCESS AREA NAMES
11242,GRACE,LANE,,GRACE LANE,591F7,UNOFFICIAL PRIVATE STREET NAMES
6190,GREEN MEADOW,DR,,GREEN MEADOW DRIVE,561A5,PUBLIC STREET NAMES
