Street ID,Street Name,Street Suffix,Street Suffix Direction,Official Street Name,Thomas Brothers Map,Street Type
5830,HOLLY,DR,,HOLLY DRIVE,593E2,PUBLIC STREET NAMES
6012,HAVERHILL,WAY,,HAVERHILL WAY,NA,PUBLIC STREET NAMES
5810,HOLLYWOOD,WAY,,HOLLYWOOD WAY,533C2,PUBLIC STREET NAMES
6077,HANLEY,WAY,,HANLEY WAY,631F2,PUBLIC STREET NAMES
10347,HARBOR HEIGHTS,DR,,HARBOR HEIGHTS DRIVE,794A4,PRIVATE STREET NAMES
5923,HIGHCLIFF,TR,,HIGHCLIFF TRAIL,504A5,PUBLIC STREET NAMES
5770,HOWARD,ST,,HOWARD STREET,634H3,PUBLIC STREET NAMES
6110,HALLDALE,AVE,,HALLDALE AVENUE,633J6,PUBLIC STREET NAMES
6075,HANNUM,DR,,HANNUM DRIVE,632G7,PUBLIC STREET NAMES
5911,HIGHLAND VIEW,AVE,,HIGHLAND VIEW AVENUE,565A5,PUBLIC STREET NAMES
5771,HOWARD,CT,,HOWARD COURT,560D5,PUBLIC STREET NAMES
5762,HUBBARD,PL,,HUBBARD PLACE,481J6,PUBLIC STREET NAMES
5981,HEDGES,WAY,,HEDGES WAY,592J5,PUBLIC STREET NAMES
5808,HOLMAN,AVE,,HOLMAN AVENUE,632C3,PUBLIC STREET NAMES
5898,HIGMAN,AVE,,HIGMAN AVENUE,593D5,PUBLIC STREET NAMES
5982,HEDGES,PL,,HEDGES PLACE,592J5,PUBLIC STREET NAMES
5943,HERMOSA,AVE,,HERMOSA AVENUE,565A5,PUBLIC STREET NAMES
5875,HILL OAK,DR,,HILL OAK DRIVE,593G2,PUBLIC STREET NAMES
6086,HAMPTON,CT,,HAMPTON COURT,480J7,PUBLIC STREET NAMES
5815,HOLLYRIDGE,LOOP,,HOLLYRIDGE LOOP,593G3,PUBLIC STREET NAMES
552,HAYNES,ST,,HAYNES STREET,530G6,PRIVATE STREET NAMES
10617,HORSE HAVEN,ST,,HORSE HAVEN STREET,503B7,PUBLIC STREET NAMES
5790,HONOLULU,AVE,,HONOLULU AVENUE,504C7,PUBLIC STREET NAMES
5889,HILLCREST,DR,,HILLCREST DRIVE,592E4,PUBLIC STREET NAMES
5996,HAZEL KIRK,DR,,HAZEL KIRK DRIVE,594B3,PUBLIC STREET NAMES
10716,HOYT,LANE,,HOYT LANE,482G7,PRIVATE ROADWAY NAMES
5877,HILLHURST,AVE,,HILLHURST AVENUE,594A2,PUBLIC STREET NAMES
5812,HOLLYWOOD,FRWY,,HOLLYWOOD FREEWAY,502E7,PUBLIC STREET NAMES
5957,HENRY FORD,AVE,,HENRY FORD AVENUE,794H6,PUBLIC STREET NAMES
5915,HIGHLANDER,ROAD,,HIGHLANDER ROAD,529D5,PUBLIC STREET NAMES
6062,HARDING,CT,,HARDING COURT,672A5,PUBLIC STREET NAMES
6053,HARLISS,ST,,HARLISS STREET,500G5,PUBLIC STREET NAMES
5871,HILLROSE,ST,,HILLROSE STREET,504A3,PUBLIC STREET NAMES
6045,HARRIDGE,DR,,HARRIDGE DRIVE,592D5,PUBLIC STREET NAMES
5864,HILLSLOPE,ST,,HILLSLOPE STREET,562F6,PUBLIC STREET NAMES
5847,HOBART,PL,,HOBART PLACE,593H7,PUBLIC STREET NAMES
10624,HIDDEN OAKS,ROAD,,HIDDEN OAKS ROAD,561B4,PRIVATE STREET NAMES
6097,HAMILTON,DR,,HAMILTON DRIVE,504C6,PUBLIC STREET NAMES
5928,HIDDEN OAK,DR,,HIDDEN OAK DRIVE,503F4,PUBLIC STREET NAMES
5941,HERRON,ST,,HERRON STREET,482E1,PUBLIC STREET NAMES
6079,HANLEY,AVE,,HANLEY AVENUE,631E1,PUBLIC STREET NAMES
5751,HUMPHREY,WALK,,HUMPHREY WALK,673F3,PUBLIC STREET NAMES
5937,HESPERIA,AVE,,HESPERIA AVENUE,531A3,PUBLIC STREET NAMES
5964,HEMLOCK,ST,,HEMLOCK STREET,634G7,PUBLIC STREET NAMES
6083,HANDLEY,AVE,,HANDLEY AVENUE,702J2,PUBLIC STREET NAMES
6070,HARBOR,BLVD,,HARBOR BOULEVARD,824C4,PUBLIC STREET NAMES
6127,HACIENDA,DR,,HACIENDA DRIVE,562E6,PUBLIC STREET NAMES
10929,HUMMINGBIRD,LANE,,HUMMINGBIRD LANE,482C4,PUBLIC STREET NAMES
5821,HOLLY KNOLL,DR,,HOLLY KNOLL DRIVE,594B3,PUBLIC STREET NAMES
5773,HOUGH,ST,,HOUGH STREET,595E1,PUBLIC STREET NAMES
5740,HUTCHISON,AVE,,HUTCHISON AVENUE,632H7,PUBLIC STREET NAMES
6003,HAYVENHURST,AVE,,HAYVENHURST AVENUE,481E7,PUBLIC STREET NAMES
5822,HOLLYHOCK,PL,,HOLLYHOCK PLACE,591D2,PUBLIC STREET NAMES
5795,HOMEZELL,DR,,HOMEZELL DRIVE,529E1,PUBLIC STREET NAMES
5983,HEDDING,ST,,HEDDING STREET,672F7,PUBLIC STREET NAMES
6085,HAMPTON,DR,,HAMPTON DRIVE,671G5,PUBLIC STREET NAMES
6025,HATFIELD,PL,,HATFIELD PLACE,635C1,PUBLIC STREET NAMES
5858,HILO,TR,,HILO TRAIL,NA,PUBLIC STREET NAMES
5971,HELIOTROPE,DR,,HELIOTROPE DRIVE,594A6,PUBLIC STREET NAMES
5876,HILLMONT,AVE,,HILLMONT AVENUE,565C5,PUBLIC STREET NAMES
6008,HAWLEY,AVE,,HAWLEY AVENUE,595D5,PUBLIC STREET NAMES
6038,HARTLAND,ST,,HARTLAND STREET,532J5,PUBLIC STREET NAMES
5977,HEISS,ST,,HEISS STREET,559G4,PUBLIC STREET NAMES
5849,HIRONDELLE,LANE,,HIRONDELLE LANE,504A5,PUBLIC STREET NAMES
5930,HIDALGO,AVE,,HIDALGO AVENUE,594E4,PUBLIC STREET NAMES
6106,HALPER,ST,,HALPER STREET,561D2,PUBLIC STREET NAMES
5885,HILLCROFT,TR,,HILLCROFT TRAIL,NA,PUBLIC STREET NAMES
6128,HAAS,AVE,,HAAS AVENUE,673G6,PUBLIC STREET NAMES
6093,HAMLET,ST,,HAMLET STREET,595D2,PUBLIC STREET NAMES
561,HALSTED,ST,,HALSTED STREET,501C6,PRIVATE STREET NAMES
5902,HIGH VALLEY,PL,,HIGH VALLEY PLACE,561F5,PUBLIC STREET NAMES
5754,HUGHES,AVE,,HUGHES AVENUE,632F7,PUBLIC STREET NAMES
9807,HILLSBORO,ROAD,,HILLSBORO ROAD,500H3,PRIVATE STREET NAMES
9876,HORIZON,PL,,HORIZON PLACE,499J2,PRIVATE STREET NAMES
6015,HAVENHURST,DR,,HAVENHURST DRIVE,593A6,PUBLIC STREET NAMES
10435,HILLSDALE,AVE,,HILLSDALE AVENUE,482A6,PRIVATE ROADWAY NAMES
5838,HOLBROOK,ST,,HOLBROOK STREET,565C6,PUBLIC STREET NAMES
5854,HINDRY,PL,,HINDRY PLACE,703A4,PUBLIC STREET NAMES
9771,HIGH GLEN,WAY,,HIGH GLEN WAY,480F5,PRIVATE STREET NAMES
10285,HELLMAN,WAY,,HELLMAN WAY,674B1,PRIVATE ROADWAY NAMES
5805,HOLT,AVE,,HOLT AVENUE,632J1,PUBLIC STREET NAMES
5739,HUTTON,DR,,HUTTON DRIVE,592C1,PUBLIC STREET NAMES
543,HILLSIDE,ROAD,,HILLSIDE ROAD,NA,PRIVATE STREET NAMES
5992,HEATH,AVE,,HEATH AVENUE,632F3,PUBLIC STREET NAMES
5818,HOLLY OAK,DR,,HOLLY OAK DRIVE,593G3,PUBLIC STREET NAMES
5786,HOOVER,BLVD,,HOOVER BOULEVARD,NA,PUBLIC STREET NAMES
5803,HOLYOKE,DR,,HOLYOKE DRIVE,594H3,PUBLIC STREET NAMES
5788,HOOK,LANE,,HOOK LANE,592B3,PUBLIC STREET NAMES
5841,HOLABIRD,AVE,,HOLABIRD AVENUE,675B2,PUBLIC STREET NAMES
10477,HOME DEPOT,PL,,HOME DEPOT PLACE,531D2,PRIVATE ROADWAY NAMES
6089,HAMMOND,ST,,HAMMOND STREET,NA,PUBLIC STREET NAMES
9610,HOLLOW SPRINGS,DR,,HOLLOW SPRINGS DRIVE,480F6,PRIVATE STREET NAMES
5995,HAZELTINE,AVE,,HAZELTINE AVENUE,502A7,PUBLIC STREET NAMES
5990,HEATHER,DR,,HEATHER DRIVE,563F7,PUBLIC STREET NAMES
5926,HIGGINS,ST,,HIGGINS STREET,532H5,PUBLIC STREET NAMES
10626,HEAVEN MOUNTAIN,WAY,,HEAVEN MOUNTAIN WAY,NA,PRIVATE STREET NAMES
6000,HAYWOOD,ST,,HAYWOOD STREET,504B5,PUBLIC STREET NAMES
5827,HOLLYCREST,DR,,HOLLYCREST DRIVE,593D1,PUBLIC STREET NAMES
5785,HOOVER,ST,,HOOVER STREET,634B1,PUBLIC STREET NAMES
6099,HAMILTON,AVE,,HAMILTON AVENUE,824B7,PUBLIC STREET NAMES
10957,HERITAGE,LANE,,HERITAGE LANE,502A6,LIMITED ACCESS AREA NAMES
10290,HILLSDALE,CT,,HILLSDALE COURT,481H6,PUBLIC STREET NAMES
5748,HUNTINGTON,DR,,HUNTINGTON DRIVE,595F5,PUBLIC STREET NAMES
5961,HENDLEY,DR,,HENDLEY DRIVE,562J6,PUBLIC STREET NAMES
5932,HICKORY,ST,,HICKORY STREET,704H3,PUBLIC STREET NAMES
6019,HAUSER,BLVD,,HAUSER BOULEVARD,633C2,PUBLIC STREET NAMES
553,HASLAM,TER,,HASLAM TERRACE,592J4,PRIVATE STREET NAMES
533,HORSE SHOE CANYON,ROAD,,HORSE SHOE CANYON ROAD,592J2,PRIVATE STREET NAMES
5819,HOLLY MONT,DR,,HOLLY MONT DRIVE,593F3,PUBLIC STREET NAMES
5934,HIAWATHA,ST,,HIAWATHA STREET,501H4,PUBLIC STREET NAMES
547,HIDDEN VALLEY,ROAD,,HIDDEN VALLEY ROAD,592F1,PRIVATE STREET NAMES
5840,HOLANDA,ROAD,,HOLANDA ROAD,559H4,PUBLIC STREET NAMES
5887,HILLCREST,WAY,,HILLCREST WAY,593D3,PUBLIC STREET NAMES
10381,HANAN,CT,,HANAN COURT,560J2,PRIVATE STREET NAMES
5755,HUERTA,ROAD,,HUERTA ROAD,561D5,PUBLIC STREET NAMES
6073,HANOVER,ST,,HANOVER STREET,631E4,PUBLIC STREET NAMES
6029,HASEKIAN,DR,,HASEKIAN DRIVE,560G4,PUBLIC STREET NAMES
5856,HIMBER,PL,,HIMBER PLACE,793J2,PUBLIC STREET NAMES
6095,HAMILTON,PL,,HAMILTON PLACE,824B7,PUBLIC STREET NAMES
5896,HILGARD,AVE,,HILGARD AVENUE,592B7,PUBLIC STREET NAMES
557,HARBOR,BLVD,,HARBOR BOULEVARD,NA,PRIVATE STREET NAMES
5769,HOWARD HUGHES,PKWY,,HOWARD HUGHES PARKWAY,702H1,PUBLIC STREET NAMES
10495,HERSCHER,WAY,,HERSCHER WAY,591F1,PRIVATE ROADWAY NAMES
5942,HERRICK,AVE,,HERRICK AVENUE,481F2,PUBLIC STREET NAMES
10282,HOOVER,BLVD,,HOOVER BOULEVARD,674B1,PRIVATE ROADWAY NAMES
5836,HOLDREGE,AVE,,HOLDREGE AVENUE,672J1,PUBLIC STREET NAMES
4,HUNTERS GLEN,LANE,,HUNTERS GLEN LANE,NA,LIMITED ACCESS AREA NAMES
5989,HEATHER,ROAD,,HEATHER ROAD,592F4,PUBLIC STREET NAMES
6005,HAYES,DR,,HAYES DRIVE,633A3,PUBLIC STREET NAMES
5825,HOLLYDALE,DR,,HOLLYDALE DRIVE,594D2,PUBLIC STREET NAMES
10937,HOWARD DROLLINGER,WAY,,HOWARD DROLLINGER WAY,702G3,PUBLIC STREET NAMES
6092,HAMLIN,ST,,HAMLIN STREET,533A6,PUBLIC STREET NAMES
9677,HAINES CANYON,MTN,,HAINES CANYON MOUNTAIN,504E2,UNOFFICIAL PRIVATE STREET NAMES
542,HILLTOP,WAY,,HILLTOP WAY,631D2,PRIVATE STREET NAMES
5991,HEATHER,CT,,HEATHER COURT,592F4,PUBLIC STREET NAMES
562,HALLWAY,ST,,HALLWAY STREET,NA,PRIVATE STREET NAMES
9842,HEAVENLY,CT,,HEAVENLY COURT,529D4,PUBLIC STREET NAMES
9679,HILL VIEW,LANE,,HILL VIEW LANE,481G7,UNOFFICIAL PRIVATE STREET NAMES
5881,HILLGROVE,DR,,HILLGROVE DRIVE,592C6,PUBLIC STREET NAMES
10343,HARBOR VILLAGE,DR,,HARBOR VILLAGE DRIVE,794A5,PRIVATE STREET NAMES
5731,HYLER,AVE,,HYLER AVENUE,564J7,PUBLIC STREET NAMES
10031,HILTON HEAD,WAY,,HILTON HEAD WAY,560J5,PRIVATE STREET NAMES
5906,HIGH RIDGE,PL,,HIGH RIDGE PLACE,592D2,PUBLIC STREET NAMES
5804,HOLY CROSS,PL,,HOLY CROSS PLACE,702E3,PUBLIC STREET NAMES
5960,HENEFER,AVE,,HENEFER AVENUE,672F7,PUBLIC STREET NAMES
5855,HINDRY,AVE,,HINDRY AVENUE,703A2,PUBLIC STREET NAMES
10822,HARMONY,WAY,,HARMONY WAY,794A1,LIMITED ACCESS AREA NAMES
5878,HILLHAVEN,PL,,HILLHAVEN PLACE,504A5,PUBLIC STREET NAMES
6063,HARDING,AVE,,HARDING AVENUE,672D5,PUBLIC STREET NAMES
10783,HYLAND,CT,,HYLAND COURT,482C3,PRIVATE ROADWAY NAMES
5736,HYANNIS,DR,,HYANNIS DRIVE,529F4,PUBLIC STREET NAMES
5988,HEATHER,WAY,,HEATHER WAY,592F4,PUBLIC STREET NAMES
5907,HIGH RIDGE,DR,,HIGH RIDGE DRIVE,592D3,PUBLIC STREET NAMES
6124,HADDON,AVE,,HADDON AVENUE,481G5,PUBLIC STREET NAMES
5756,HUERTA,CT,,HUERTA COURT,561D5,PUBLIC STREET NAMES
5863,HILLTOP,ROAD,,HILLTOP ROAD,559D3,PUBLIC STREET NAMES
5987,HEAVEN,AVE,,HEAVEN AVENUE,559G4,PUBLIC STREET NAMES
5883,HILLER,PL,,HILLER PLACE,593B4,PUBLIC STREET NAMES
5993,HAZEN,DR,,HAZEN DRIVE,592G2,PUBLIC STREET NAMES
6034,HARVARD,BLVD,,HARVARD BOULEVARD,593J5,PUBLIC STREET NAMES
10378,HARBOR CROSSING,LANE,,HARBOR CROSSING LANE,672A6,PRIVATE STREET NAMES
9883,HERITAGE PASS,PL,,HERITAGE PASS PLACE,499H2,PRIVATE STREET NAMES
6112,HALL,ST,,HALL STREET,595F5,PUBLIC STREET NAMES
9964,HENSON,DR,,HENSON DRIVE,502F4,PUBLIC STREET NAMES
5951,HERBERT,ST,,HERBERT STREET,672D4,PUBLIC STREET NAMES
10240,HUNT,TER,,HUNT TERRACE,794A3,PRIVATE ROADWAY NAMES
551,HAYVENHURST,DR,,HAYVENHURST DRIVE,561E5,PRIVATE STREET NAMES
5946,HERMITAGE,AVE,,HERMITAGE AVENUE,562F2,PUBLIC STREET NAMES
554,HARRIS,PL,,HARRIS PLACE,NA,PRIVATE STREET NAMES
5859,HILLVIEW,PL,,HILLVIEW PLACE,595D6,PUBLIC STREET NAMES
5774,HOSTETTER,ST,,HOSTETTER STREET,634J7,PUBLIC STREET NAMES
5730,HYMAN,ST,,HYMAN STREET,NA,PUBLIC STREET NAMES
10236,HARTWELL,LANE,,HARTWELL LANE,794A3,PRIVATE ROADWAY NAMES
5994,HAZELWOOD,AVE,,HAZELWOOD AVENUE,595A1,PUBLIC STREET NAMES
6104,HALSTED,ST,,HALSTED STREET,501D6,PUBLIC STREET NAMES
5860,HILLVIEW PARK,AVE,,HILLVIEW PARK AVENUE,562C1,PUBLIC STREET NAMES
5735,HYANS,ST,,HYANS STREET,634B1,PUBLIC STREET NAMES
5900,HIGHWAY,PL,,HIGHWAY PLACE,NA,PUBLIC STREET NAMES
5779,HORIZON,CT,,HORIZON COURT,671G6,PUBLIC STREET NAMES
6006,HAYES,AVE,,HAYES AVENUE,595D2,PUBLIC STREET NAMES
5826,HOLLYCREST,PL,,HOLLYCREST PLACE,593D1,PUBLIC STREET NAMES
10273,HOLIDAY,WAY,,HOLIDAY WAY,481H6,PUBLIC STREET NAMES
5843,HOGAN,WALK,,HOGAN WALK,673F3,PUBLIC STREET NAMES
5729,HYNFORD,PL,,HYNFORD PLACE,793J2,PUBLIC STREET NAMES
5772,HOUSTON,ST,,HOUSTON STREET,635B4,PUBLIC STREET NAMES
5895,HILL,DR,,HILL DRIVE,565A5,PUBLIC STREET NAMES
5837,HOLCOMB,ST,,HOLCOMB STREET,632G4,PUBLIC STREET NAMES
5839,HOLBORO,DR,,HOLBORO DRIVE,594C2,PUBLIC STREET NAMES
10695,HADAD,LANE,,HADAD LANE,560J2,PRIVATE STREET NAMES
6105,HALSEY,ST,,HALSEY STREET,481E7,PUBLIC STREET NAMES
6011,HAVILAND,ST,,HAVILAND STREET,NA,PUBLIC STREET NAMES
537,HOLLYWOOD HILLS,ROAD,,HOLLYWOOD HILLS ROAD,NA,PRIVATE STREET NAMES
10134,HEATHER,LANE,,HEATHER LANE,500G7,PRIVATE ROADWAY NAMES
5789,HOOD,DR,,HOOD DRIVE,560E3,PUBLIC STREET NAMES
5962,HENDERSON,ST,,HENDERSON STREET,595F4,PUBLIC STREET NAMES
566,HACKETT,PL,,HACKETT PLACE,565B3,PRIVATE STREET NAMES
6069,HARBOR,FRWY,,HARBOR FREEWAY,634C6,PUBLIC STREET NAMES
6009,HAWICK,ST,,HAWICK STREET,594D4,PUBLIC STREET NAMES
5798,HOMEWOOD,AVE,,HOMEWOOD AVENUE,631F2,PUBLIC STREET NAMES
5931,HICKS,AVE,,HICKS AVENUE,635D1,PUBLIC STREET NAMES
6052,HARLOW,AVE,,HARLOW AVENUE,632G7,PUBLIC STREET NAMES
5953,HEPBURN,AVE,,HEPBURN AVENUE,673F2,PUBLIC STREET NAMES
6014,HAVERFORD,AVE,,HAVERFORD AVENUE,631A5,PUBLIC STREET NAMES
5929,HIDDEN,TR,,HIDDEN TRAIL,NA,PUBLIC STREET NAMES
5743,HURON,ST,,HURON STREET,594J6,PUBLIC STREET NAMES
6113,HALKIRK,ST,,HALKIRK STREET,562E6,PUBLIC STREET NAMES
6074,HANOVER,DR,,HANOVER DRIVE,592C7,PUBLIC STREET NAMES
31,HOOVER,ST,,HOOVER STREET,674B1,PEDESTRIAN MALL NAMES
5733,HYDE PARK,BLVD,,HYDE PARK BOULEVARD,673E7,PUBLIC STREET NAMES
5945,HERMITS,GLEN,,HERMITS GLEN,592H3,PUBLIC STREET NAMES
6020,HATTON,ST,,HATTON STREET,531A3,PUBLIC STREET NAMES
563,HALLDALE,AVE,,HALLDALE AVENUE,NA,PRIVATE STREET NAMES
10302,HIGH MOUNTAIN,WAY,,HIGH MOUNTAIN WAY,480E7,PRIVATE STREET NAMES
10838,HALEH,LANE,,HALEH LANE,481H5,PRIVATE STREET NAMES
10674,HARBOR VIEW,TER,,HARBOR VIEW TERRACE,824B7,PRIVATE ROADWAY NAMES
530,HUGHES,TER,,HUGHES TERRACE,NA,PRIVATE STREET NAMES
6098,HAMILTON,AVE,,HAMILTON AVENUE,764B3,PUBLIC STREET NAMES
564,HALDEMAN,ROAD,,HALDEMAN ROAD,631C6,PRIVATE STREET NAMES
6084,HANCOCK,ST,,HANCOCK STREET,595A7,PUBLIC STREET NAMES
6022,HATTON,CT,,HATTON COURT,533B2,PUBLIC STREET NAMES
5924,HIGHBURY,AVE,,HIGHBURY AVENUE,635G1,PUBLIC STREET NAMES
6017,HAVELOCK,AVE,,HAVELOCK AVENUE,672F5,PUBLIC STREET NAMES
5998,HAZELBROOK,ROAD,,HAZELBROOK ROAD,562H7,PUBLIC STREET NAMES
6035,HARTZELL,ST,,HARTZELL STREET,631B4,PUBLIC STREET NAMES
5741,HUSTON,ST,,HUSTON STREET,563C3,PUBLIC STREET NAMES
5997,HAZELHURST,PL,,HAZELHURST PLACE,532H7,PUBLIC STREET NAMES
6100,HAMILTON,AVE,,HAMILTON AVENUE,824A5,PUBLIC STREET NAMES
558,HANCOCK,WALK,,HANCOCK WALK,NA,PRIVATE STREET NAMES
5985,HEBRON,LANE,,HEBRON LANE,592A4,PUBLIC STREET NAMES
548,HETZLER,ROAD,,HETZLER ROAD,672J1,PRIVATE STREET NAMES
5999,HAYWORTH,AVE,,HAYWORTH AVENUE,593B4,PUBLIC STREET NAMES
5753,HULBERT,AVE,,HULBERT AVENUE,702C2,PUBLIC STREET NAMES
6007,HAWTHORN,AVE,,HAWTHORN AVENUE,593D4,PUBLIC STREET NAMES
5777,HORTENSE,ST,,HORTENSE STREET,563A4,PUBLIC STREET NAMES
5897,HILARY,LANE,,HILARY LANE,592C6,PUBLIC STREET NAMES
5918,HIGH KNOLL,ROAD,,HIGH KNOLL ROAD,561F5,PUBLIC STREET NAMES
5969,HELMS,AVE,,HELMS AVENUE,632H7,PUBLIC STREET NAMES
550,HEATHERLEE,LANE,,HEATHERLEE LANE,500A2,PRIVATE STREET NAMES
5806,HOLMES,AVE,,HOLMES AVENUE,674G5,PUBLIC STREET NAMES
541,HOBART,BLVD,,HOBART BOULEVARD,593H5,PRIVATE STREET NAMES
5948,HERMANO,DR,,HERMANO DRIVE,560J4,PUBLIC STREET NAMES
6048,HAROLD,WAY,,HAROLD WAY,592J5,PUBLIC STREET NAMES
532,HORSE SHOE CANYON,ROAD,EAST,HORSE SHOE CANYON ROAD EAST,592J2,PRIVATE STREET NAMES
5750,HUNNEWELL,AVE,,HUNNEWELL AVENUE,482D5,PUBLIC STREET NAMES
5903,HIGHTREE,ROAD,,HIGHTREE ROAD,499C3,PUBLIC STREET NAMES
5866,HILLSIDE,LANE,,HILLSIDE LANE,631B7,PUBLIC STREET NAMES
5734,HYATT,AVE,,HYATT AVENUE,794F5,PUBLIC STREET NAMES
5919,HIGH HILL,DR,,HIGH HILL DRIVE,633D6,PUBLIC STREET NAMES
6026,HASTINGS,WAY,,HASTINGS WAY,500J1,PUBLIC STREET NAMES
6081,HANEY,PL,,HANEY PLACE,631D4,PUBLIC STREET NAMES
5791,HONEYWOOD,ROAD,,HONEYWOOD ROAD,631E1,PUBLIC STREET NAMES
5868,HILLSDALE,DR,,HILLSDALE DRIVE,595E6,PUBLIC STREET NAMES
5912,HIGHLAND GORGE,TR,,HIGHLAND GORGE TRAIL,NA,PUBLIC STREET NAMES
6018,HAVANA,AVE,,HAVANA AVENUE,481J6,PUBLIC STREET NAMES
6078,HANLEY,PL,,HANLEY PLACE,631F2,PUBLIC STREET NAMES
5746,HUNTINGTON,DR,SOUTH,HUNTINGTON DRIVE SOUTH,595G5,PUBLIC STREET NAMES
5916,HIGHLAND,DR,,HIGHLAND DRIVE,633D6,PUBLIC STREET NAMES
6108,HALLIDAY,AVE,,HALLIDAY AVENUE,631G1,PUBLIC STREET NAMES
10101,HILLSVIEW,CT,,HILLSVIEW COURT,529E4,PUBLIC STREET NAMES
5799,HOMESIDE,AVE,,HOMESIDE AVENUE,633B7,PUBLIC STREET NAMES
6024,HATILLO,AVE,,HATILLO AVENUE,500E5,PUBLIC STREET NAMES
11009,HERON,WAY,,HERON WAY,702E1,PRIVATE ROADWAY NAMES
5947,HERMES,DR,,HERMES DRIVE,593B2,PUBLIC STREET NAMES
6116,HALDERMAN,ST,,HALDERMAN STREET,672A3,PUBLIC STREET NAMES
5829,HOLLY,PL,,HOLLY PLACE,592H3,PUBLIC STREET NAMES
5831,HOLLY,CT,,HOLLY COURT,NA,PUBLIC STREET NAMES
5764,HOYT,ST,,HOYT STREET,482G7,PUBLIC STREET NAMES
6028,HASKELL,AVE,,HASKELL AVENUE,561G3,PUBLIC STREET NAMES
5979,HEIDLEMAN,ROAD,,HEIDLEMAN ROAD,635E2,PUBLIC STREET NAMES
5958,HENRY,ST,,HENRY STREET,NA,PUBLIC STREET NAMES
5851,HINTON,AVE,,HINTON AVENUE,559F1,PUBLIC STREET NAMES
5970,HELLMAN,AVE,,HELLMAN AVENUE,595E4,PUBLIC STREET NAMES
565,HADJIAN,LANE,,HADJIAN LANE,529J5,PRIVATE STREET NAMES
5972,HELIOS,DR,,HELIOS DRIVE,593F3,PUBLIC STREET NAMES
5974,HELENA,ST,,HELENA STREET,631F4,PUBLIC STREET NAMES
6001,HAYVENHURST,PL,,HAYVENHURST PLACE,531D2,PUBLIC STREET NAMES
560,HAMLIN,ST,,HAMLIN STREET,530G6,PRIVATE STREET NAMES
5811,HOLLYWOOD,FRWY,,HOLLYWOOD FREEWAY,NA,PUBLIC STREET NAMES
5955,HENSHAW,ST,,HENSHAW STREET,560E2,PUBLIC STREET NAMES
5728,HYPERION,AVE,,HYPERION AVENUE,594C4,PUBLIC STREET NAMES
5959,HENNY,AVE,,HENNY AVENUE,481J2,PUBLIC STREET NAMES
5873,HILLPARK,DR,,HILLPARK DRIVE,593D2,PUBLIC STREET NAMES
567,HACIENDA,DR,,HACIENDA DRIVE,562E6,PRIVATE STREET NAMES
5834,HOLLAND,AVE,,HOLLAND AVENUE,595B2,PUBLIC STREET NAMES
5978,HEIDLEMAN,WALK,,HEIDLEMAN WALK,NA,PUBLIC STREET NAMES
6002,HAYVENHURST,DR,,HAYVENHURST DRIVE,561E5,PUBLIC STREET NAMES
6044,HARRIETT,ST,,HARRIETT STREET,674J2,PUBLIC STREET NAMES
5783,HOPEVALE,DR,,HOPEVALE DRIVE,561H6,PUBLIC STREET NAMES
5880,HILLGROVE,PL,,HILLGROVE PLACE,592C5,PUBLIC STREET NAMES
6071,HAPPY,LANE,,HAPPY LANE,593A3,PUBLIC STREET NAMES
5828,HOLLYBUSH,LANE,,HOLLYBUSH LANE,592B5,PUBLIC STREET NAMES
6056,HARLEM,PL,,HARLEM PLACE,634F4,PUBLIC STREET NAMES
6090,HAMMOND,ST,,HAMMOND STREET,635A3,PUBLIC STREET NAMES
5744,HURFORD,TER,,HURFORD TERRACE,561F4,PUBLIC STREET NAMES
6037,HARTSOOK,ST,,HARTSOOK STREET,563A2,PUBLIC STREET NAMES
5965,HEMET,PL,,HEMET PLACE,593B4,PUBLIC STREET NAMES
6013,HAVERHILL,DR,,HAVERHILL DRIVE,594J2,PUBLIC STREET NAMES
6046,HARPS,ST,,HARPS STREET,482D4,PUBLIC STREET NAMES
5950,HERCULES,DR,,HERCULES DRIVE,593A2,PUBLIC STREET NAMES
6059,HARGIS,ST,,HARGIS STREET,632H6,PUBLIC STREET NAMES
10127,HIGHLAND VISTA,LANE,,HIGHLAND VISTA LANE,591F4,PRIVATE ROADWAY NAMES
5905,HIGH TOP,DR,,HIGH TOP DRIVE,678C7,PUBLIC STREET NAMES
10218,HUNT CLUB,LANE,,HUNT CLUB LANE,499H6,PRIVATE STREET NAMES
5814,HOLLYVISTA,AVE,,HOLLYVISTA AVENUE,594C4,PUBLIC STREET NAMES
5768,HOWLAND,AVE,,HOWLAND AVENUE,671H6,PUBLIC STREET NAMES
6042,HARRINGTON,AVE,,HARRINGTON AVENUE,633H4,PUBLIC STREET NAMES
5913,HIGHLAND GORGE,DR,,HIGHLAND GORGE DRIVE,592E5,PUBLIC STREET NAMES
5766,HOWLAND CANAL,CT,,HOWLAND CANAL COURT,671H7,PUBLIC STREET NAMES
5823,HOLLY HILL,TER,,HOLLY HILL TERRACE,593E3,PUBLIC STREET NAMES
6047,HARPER,AVE,,HARPER AVENUE,633A1,PUBLIC STREET NAMES
5781,HORACE,ST,,HORACE STREET,501G2,PUBLIC STREET NAMES
5935,HEWITT,ST,,HEWITT STREET,634G4,PUBLIC STREET NAMES
544,HILLCREST,AVE,,HILLCREST AVENUE,481J1,PRIVATE STREET NAMES
5752,HUMBOLDT,ST,,HUMBOLDT STREET,594J7,PUBLIC STREET NAMES
9835,HONEYGLEN,ROAD,,HONEYGLEN ROAD,502F1,PRIVATE ROADWAY NAMES
5782,HOPEN,PL,,HOPEN PLACE,592H4,PUBLIC STREET NAMES
5846,HOBSON,AVE,,HOBSON AVENUE,794J5,PUBLIC STREET NAMES
6051,HARMAN,DR,,HARMAN DRIVE,504C6,PUBLIC STREET NAMES
5850,HI POINT,ST,,HI POINT STREET,633A4,PUBLIC STREET NAMES
5845,HOCKEY,TR,,HOCKEY TRAIL,593D1,PUBLIC STREET NAMES
5984,HECTOR,LANE,,HECTOR LANE,NA,PUBLIC STREET NAMES
6121,HAGEN,PL,,HAGEN PLACE,481D6,PUBLIC STREET NAMES
6082,HANEMAN,ST,,HANEMAN STREET,565C7,PUBLIC STREET NAMES
5867,HILLSIDE,AVE,,HILLSIDE AVENUE,593C4,PUBLIC STREET NAMES
6107,HALM,AVE,,HALM AVENUE,632J6,PUBLIC STREET NAMES
6033,HARVARD,WALK,,HARVARD WALK,633H7,PUBLIC STREET NAMES
5801,HOMELAND,DR,,HOMELAND DRIVE,673E4,PUBLIC STREET NAMES
5886,HILLCROFT,DR,,HILLCROFT DRIVE,529D1,PUBLIC STREET NAMES
6058,HARGRAVE,DR,,HARGRAVE DRIVE,593F2,PUBLIC STREET NAMES
5759,HUBERT,WALK,,HUBERT WALK,673F3,PUBLIC STREET NAMES
5927,HIDDEN VALLEY,PL,,HIDDEN VALLEY PLACE,592G1,PUBLIC STREET NAMES
10841,HAWKEYE,LANE,,HAWKEYE LANE,502E6,PRIVATE ROADWAY NAMES
5986,HEBRIDES,CIR,,HEBRIDES CIRCLE,529F5,PUBLIC STREET NAMES
5760,HUBERT,AVE,,HUBERT AVENUE,673F2,PUBLIC STREET NAMES
5954,HENZIE,PL,,HENZIE PLACE,481B5,PUBLIC STREET NAMES
10394,HARBORGATE,WAY,,HARBORGATE WAY,764J3,PUBLIC STREET NAMES
6120,HAGER,AVE,,HAGER AVENUE,672C5,PUBLIC STREET NAMES
5747,HUNTINGTON,DR,NORTH,HUNTINGTON DRIVE NORTH,595G5,PUBLIC STREET NAMES
10518,HONDERO,CT,,HONDERO COURT,480J6,PRIVATE STREET NAMES
549,HERMOSA,ST,,HERMOSA STREET,824E2,PRIVATE STREET NAMES
5820,HOLLYLINE,AVE,,HOLLYLINE AVENUE,562B6,PUBLIC STREET NAMES
5884,HILLDALE,AVE,,HILLDALE AVENUE,592H6,PUBLIC STREET NAMES
5909,HIGHLIGHT,PL,,HIGHLIGHT PLACE,673B1,PUBLIC STREET NAMES
5888,HILLCREST,ROAD,,HILLCREST ROAD,593D3,PUBLIC STREET NAMES
5817,HOLLYPARK,PL,,HOLLYPARK PLACE,594D1,PUBLIC STREET NAMES
5793,HONDURAS,ST,,HONDURAS STREET,674G4,PUBLIC STREET NAMES
5757,HUDSON,PL,,HUDSON PLACE,633E1,PUBLIC STREET NAMES
5794,HOMEZELL,TR,,HOMEZELL TRAIL,529E1,PUBLIC STREET NAMES
10726,HEATHERGLEN,CT,,HEATHERGLEN COURT,501A5,PRIVATE STREET NAMES
6023,HATTERAS,ST,,HATTERAS STREET,563A1,PUBLIC STREET NAMES
5767,HOWLAND,CL,,HOWLAND CANAL,671H6,PUBLIC STREET NAMES
10627,HEAVEN VIEW,PL,,HEAVEN VIEW PLACE,NA,PRIVATE STREET NAMES
5765,HOXEY,AVE,,HOXEY AVENUE,NA,PUBLIC STREET NAMES
559,HAMPTON,CT,,HAMPTON COURT,NA,PRIVATE STREET NAMES
5938,HESBY,ST,,HESBY STREET,563A3,PUBLIC STREET NAMES
5738,HUTTON,PL,,HUTTON PLACE,592D1,PUBLIC STREET NAMES
6031,HARWICH,PL,,HARWICH PLACE,529E5,PUBLIC STREET NAMES
5784,HOPE,ST,,HOPE STREET,634F3,PUBLIC STREET NAMES
6103,HALTON,ST,,HALTON STREET,561C4,PUBLIC STREET NAMES
6041,HARRISON,AVE,,HARRISON AVENUE,672A6,PUBLIC STREET NAMES
11039,HEPBURN,WAY,,HEPBURN WAY,593E5,LIMITED ACCESS AREA NAMES
5807,HOLMBY,AVE,,HOLMBY AVENUE,632C2,PUBLIC STREET NAMES
5968,HELMS,PL,,HELMS PLACE,632H6,PUBLIC STREET NAMES
6068,HARBOR,ST,,HARBOR STREET,671J6,PUBLIC STREET NAMES
6004,HAYNES,ST,,HAYNES STREET,532H6,PUBLIC STREET NAMES
6114,HALFORD,ST,,HALFORD STREET,482D3,PUBLIC STREET NAMES
5963,HEMMINGWAY,ST,,HEMMINGWAY STREET,531B3,PUBLIC STREET NAMES
6119,HAGUE,PL,,HAGUE PLACE,559J1,PUBLIC STREET NAMES
6126,HACKNEY,ST,,HACKNEY STREET,530D2,PUBLIC STREET NAMES
5914,HIGHLAND,TR,,HIGHLAND TRAIL,593B4,PUBLIC STREET NAMES
6118,HAINES CANYON,AVE,,HAINES CANYON AVENUE,504B4,PUBLIC STREET NAMES
6050,HARMONY,AVE,,HARMONY AVENUE,563A2,PUBLIC STREET NAMES
5852,HINES,DR,,HINES DRIVE,594H2,PUBLIC STREET NAMES
6123,HADLEY,AVE,,HADLEY AVENUE,500F4,PUBLIC STREET NAMES
5908,HIGH OAK,DR,,HIGH OAK DRIVE,593H2,PUBLIC STREET NAMES
10421,HUSTON,ST,,HUSTON STREET,561E3,PRIVATE STREET NAMES
5901,HIGH VALLEY,ROAD,,HIGH VALLEY ROAD,561F5,PUBLIC STREET NAMES
5910,HIGHLAND VIEW,PL,,HIGHLAND VIEW PLACE,565A5,PUBLIC STREET NAMES
6055,HARLENE,PL,,HARLENE PLACE,561A1,PUBLIC STREET NAMES
9044,HARRY BRIDGES,BLVD,,HARRY BRIDGES BOULEVARD,794F7,PUBLIC STREET NAMES
6021,HATTON,PL,,HATTON PLACE,531A3,PUBLIC STREET NAMES
6032,HARVEST,ST,,HARVEST STREET,501F1,PUBLIC STREET NAMES
9893,HENLEY,LANE,,HENLEY LANE,591G2,PRIVATE STREET NAMES
6117,HALBRENT,AVE,,HALBRENT AVENUE,501H3,PUBLIC STREET NAMES
6111,HALLACK,AVE,,HALLACK AVENUE,500F5,PUBLIC STREET NAMES
538,HOLLYWOOD BOWL,ROAD,,HOLLYWOOD BOWL ROAD,NA,PRIVATE STREET NAMES
5956,HENSAL,ROAD,,HENSAL ROAD,592D2,PUBLIC STREET NAMES
5796,HOMEWOOD,WAY,,HOMEWOOD WAY,631E2,PUBLIC STREET NAMES
5780,HORIZON,AVE,,HORIZON AVENUE,671G6,PUBLIC STREET NAMES
10434,HARVEST MOON,DR,,HARVEST MOON DRIVE,482A6,PRIVATE ROADWAY NAMES
529,HUNTER,ST,,HUNTER STREET,675B1,PRIVATE STREET NAMES
5892,HILLANDALE,DR,,HILLANDALE DRIVE,565D7,PUBLIC STREET NAMES
6016,HAVEN,ST,,HAVEN STREET,595F7,PUBLIC STREET NAMES
10073,HIBISCUS HILL,DR,,HIBISCUS HILL DRIVE,559J1,PRIVATE ROADWAY NAMES
6054,HARLESDEN,CT,,HARLESDEN COURT,593A2,PUBLIC STREET NAMES
6064,HARDING,AVE,,HARDING AVENUE,672A5,PUBLIC STREET NAMES
5940,HERSHEY,ST,,HERSHEY STREET,502J5,PUBLIC STREET NAMES
556,HARLENE,DR,,HARLENE DRIVE,561F6,PRIVATE STREET NAMES
6076,HANNA,AVE,,HANNA AVENUE,499J4,PUBLIC STREET NAMES
6102,HALVERN,DR,,HALVERN DRIVE,631G1,PUBLIC STREET NAMES
5816,HOLLYRIDGE,DR,,HOLLYRIDGE DRIVE,593G1,PUBLIC STREET NAMES
5842,HOKE,AVE,,HOKE AVENUE,NA,PUBLIC STREET NAMES
5742,HURRICANE,ST,,HURRICANE STREET,701H1,PUBLIC STREET NAMES
10450,HARLEY,AVE,,HARLEY AVENUE,482B3,PUBLIC STREET NAMES
545,HIGHWATER,ROAD,,HIGHWATER ROAD,481A6,PRIVATE STREET NAMES
10346,HARBOR VILLAGE,PL,,HARBOR VILLAGE PLACE,794A5,PRIVATE STREET NAMES
6091,HAMMACK,ST,,HAMMACK STREET,672F6,PUBLIC STREET NAMES
5749,HUNTER,ST,,HUNTER STREET,675C1,PUBLIC STREET NAMES
5980,HEIDEMARIE,ST,,HEIDEMARIE STREET,499J6,PUBLIC STREET NAMES
10572,HORSE CREEK,AVE,,HORSE CREEK AVENUE,503A3,PRIVATE STREET NAMES
5966,HELMSDALE,ROAD,,HELMSDALE ROAD,529E5,PUBLIC STREET NAMES
6125,HADDINGTON,DR,,HADDINGTON DRIVE,632E7,PUBLIC STREET NAMES
6088,HAMNER,DR,,HAMNER DRIVE,591H1,PUBLIC STREET NAMES
5893,HILL,ST,,HILL STREET,634G2,PUBLIC STREET NAMES
9678,HARTLAND,ST,,HARTLAND STREET,529H6,UNOFFICIAL PRIVATE STREET NAMES
5853,HINDS,AVE,,HINDS AVENUE,532G5,PUBLIC STREET NAMES
11010,HAMMOCK,LANE,,HAMMOCK LANE,702E1,PRIVATE ROADWAY NAMES
5778,HORNER,ST,,HORNER STREET,633A4,PUBLIC STREET NAMES
9887,HART,PL,,HART PLACE,531F5,PRIVATE STREET NAMES
5787,HOOPER,AVE,,HOOPER AVENUE,634G7,PUBLIC STREET NAMES
5776,HOSFORD,AVE,,HOSFORD AVENUE,702G1,PUBLIC STREET NAMES
9613,HAWKS HILL,ROAD,,HAWKS HILL ROAD,500E3,PRIVATE STREET NAMES
5844,HOFFMAN,ST,,HOFFMAN STREET,562G5,PUBLIC STREET NAMES
6096,HAMILTON,LANE,,HAMILTON LANE,504C6,PUBLIC STREET NAMES
5882,HILLGREEN,DR,,HILLGREEN DRIVE,632F3,PUBLIC STREET NAMES
5813,HOLLYWOOD,BLVD,,HOLLYWOOD BOULEVARD,593H4,PUBLIC STREET NAMES
6067,HARBOR VIEW,AVE,,HARBOR VIEW AVENUE,823J4,PUBLIC STREET NAMES
5802,HOMEDALE,ST,,HOMEDALE STREET,631H2,PUBLIC STREET NAMES
6087,HAMPDEN,PL,,HAMPDEN PLACE,631A6,PUBLIC STREET NAMES
5891,HILLARY,DR,,HILLARY DRIVE,529F2,PUBLIC STREET NAMES
6101,HAMEL,ROAD,,HAMEL ROAD,632J1,PUBLIC STREET NAMES
6109,HALLETT,AVE,,HALLETT AVENUE,594G3,PUBLIC STREET NAMES
5800,HOMER,ST,,HOMER STREET,595B5,PUBLIC STREET NAMES
5899,HIGHWOOD,ST,,HIGHWOOD STREET,631E3,PUBLIC STREET NAMES
9981,HELMAND,DR,,HELMAND DRIVE,NA,PRIVATE STREET NAMES
5809,HOLLYWOOD HILLS,ROAD,,HOLLYWOOD HILLS ROAD,592H2,PUBLIC STREET NAMES
5797,HOMEWOOD,ROAD,,HOMEWOOD ROAD,631F2,PUBLIC STREET NAMES
6010,HAWAIIAN,AVE,,HAWAIIAN AVENUE,794D7,PUBLIC STREET NAMES
6061,HARDING,ST,,HARDING STREET,482F3,PUBLIC STREET NAMES
5763,HUB,ST,,HUB STREET,595A1,PUBLIC STREET NAMES
5857,HILTS,AVE,,HILTS AVENUE,632B2,PUBLIC STREET NAMES
10246,HYANNIS,LANE,,HYANNIS LANE,823J6,PRIVATE ROADWAY NAMES
6066,HARCLARE,LANE,,HARCLARE LANE,561E5,PUBLIC STREET NAMES
6043,HARRIMAN,AVE,,HARRIMAN AVENUE,595E4,PUBLIC STREET NAMES
5933,HICKORY,ST,,HICKORY STREET,633D7,PUBLIC STREET NAMES
6094,HAMILTON,WAY,,HAMILTON WAY,594C6,PUBLIC STREET NAMES
5944,HERMOS,LANE,,HERMOS LANE,NA,PUBLIC STREET NAMES
5925,HIGH,ST,,HIGH STREET,565C7,PUBLIC STREET NAMES
6115,HALEY,ST,,HALEY STREET,502F7,PUBLIC STREET NAMES
9755,HERBOLD,ST,,HERBOLD STREET,501A6,PRIVATE STREET NAMES
5833,HOLLINS,ST,,HOLLINS STREET,634J6,PUBLIC STREET NAMES
5872,HILLROSE,CIR,,HILLROSE CIRCLE,503F3,PUBLIC STREET NAMES
5792,HONEY,DR,,HONEY DRIVE,593A3,PUBLIC STREET NAMES
6065,HARCOURT,AVE,,HARCOURT AVENUE,633D6,PUBLIC STREET NAMES
539,HOLLOW GLEN,CIR,,HOLLOW GLEN CIRCLE,592B1,PRIVATE STREET NAMES
5936,HEWITT,AVE,,HEWITT AVENUE,502B1,PUBLIC STREET NAMES
5922,HIGH CREST,AVE,,HIGH CREST AVENUE,565C5,PUBLIC STREET NAMES
6080,HANFORD,AVE,,HANFORD AVENUE,824A4,PUBLIC STREET NAMES
10482,HUNNEWELL,AVE,,HUNNEWELL AVENUE,502G1,PRIVATE STREET NAMES
5869,HILLSBORO,DR,,HILLSBORO DRIVE,632H5,PUBLIC STREET NAMES
5737,HUXLEY,ST,,HUXLEY STREET,594C2,PUBLIC STREET NAMES
6036,HARTWICK,ST,,HARTWICK STREET,565C5,PUBLIC STREET NAMES
5874,HILLOCK,DR,,HILLOCK DRIVE,563D6,PUBLIC STREET NAMES
534,HOOPER,PL,,HOOPER PLACE,674F2,PRIVATE STREET NAMES
6030,HARWOOD,ST,,HARWOOD STREET,594H6,PUBLIC STREET NAMES
5976,HELA,AVE,,HELA AVENUE,502H1,PUBLIC STREET NAMES
5975,HELEN,AVE,,HELEN AVENUE,503A5,PUBLIC STREET NAMES
6040,HART,ST,,HART STREET,532H5,PUBLIC STREET NAMES
5879,HILLHAVEN,AVE,,HILLHAVEN AVENUE,503J6,PUBLIC STREET NAMES
9834,HILLDALE,CT,,HILLDALE COURT,502F1,PRIVATE ROADWAY NAMES
6122,HAGAR,ST,,HAGAR STREET,482D4,PUBLIC STREET NAMES
6027,HASTINGS,AVE,,HASTINGS AVENUE,702D2,PUBLIC STREET NAMES
5862,HILLTREE,ROAD,,HILLTREE ROAD,631B6,PUBLIC STREET NAMES
540,HOLLENBECK,DR,,HOLLENBECK DRIVE,634J5,PRIVATE STREET NAMES
9680,HORACE,ST,,HORACE STREET,501G2,UNOFFICIAL PRIVATE STREET NAMES
5865,HILLSIDE,WAY,,HILLSIDE WAY,593A4,PUBLIC STREET NAMES
9586,HILLHURST,DR,,HILLHURST DRIVE,529D5,PUBLIC STREET NAMES
535,HONEY,DR,,HONEY DRIVE,NA,PRIVATE STREET NAMES
5848,HOBART,BLVD,,HOBART BOULEVARD,593J2,PUBLIC STREET NAMES
9999,HOLLOW SPRINGS,DR,,HOLLOW SPRINGS DRIVE,480F7,PUBLIC STREET NAMES
5870,HILLSBORO,AVE,,HILLSBORO AVENUE,632H5,PUBLIC STREET NAMES
5732,HYDE,ST,,HYDE STREET,595F6,PUBLIC STREET NAMES
5727,HYTHE,CT,,HYTHE COURT,592C1,PUBLIC STREET NAMES
5952,HEPNER,AVE,,HEPNER AVENUE,565C7,PUBLIC STREET NAMES
5824,HOLLYGLEN,PL,,HOLLYGLEN PLACE,562G6,PUBLIC STREET NAMES
5921,HIGHGATE,AVE,,HIGHGATE AVENUE,565C7,PUBLIC STREET NAMES
6039,HARTFORD,AVE,,HARTFORD AVENUE,634D3,PUBLIC STREET NAMES
5939,HERVEY,ST,,HERVEY STREET,632J6,PUBLIC STREET NAMES
5917,HIGHLAND,AVE,,HIGHLAND AVENUE,633E1,PUBLIC STREET NAMES
5973,HELENDALE,AVE,,HELENDALE AVENUE,503J3,PUBLIC STREET NAMES
6057,HARKER,ST,,HARKER STREET,824B4,PUBLIC STREET NAMES
5761,HUBBARD,ST,,HUBBARD STREET,482E1,PUBLIC STREET NAMES
536,HOLMBY PARK,LANE,,HOLMBY PARK LANE,592C7,PRIVATE STREET NAMES
5967,HELMSDALE,CIR,,HELMSDALE CIRCLE,529F5,PUBLIC STREET NAMES
5894,HILL,PL,,HILL PLACE,634G2,PUBLIC STREET NAMES
5920,HIGHGROVE,TER,,HIGHGROVE TERRACE,565E7,PUBLIC STREET NAMES
5949,HERKIMER,ST,,HERKIMER STREET,594D3,PUBLIC STREET NAMES
5904,HIGH TOWER,DR,,HIGH TOWER DRIVE,593E3,PUBLIC STREET NAMES
5861,HILLVIEW,AVE,,HILLVIEW AVENUE,530A2,PUBLIC STREET NAMES
5832,HOLLISTER,AVE,,HOLLISTER AVENUE,595F7,PUBLIC STREET NAMES
5775,HOSMER,WALK,,HOSMER WALK,595D2,PUBLIC STREET NAMES
555,HARNISH,ROAD,,HARNISH ROAD,559H1,PRIVATE STREET NAMES
10818,HAILEY,LANE,,HAILEY LANE,500A3,PRIVATE ROADWAY NAMES
10489,HOLLYVIEW,CT,,HOLLYVIEW COURT,593D2,PRIVATE ROADWAY NAMES
5835,HOLGATE,SQ,,HOLGATE SQUARE,635B1,PUBLIC STREET NAMES
6049,HARNETT,ST,,HARNETT STREET,500G3,PUBLIC STREET NAMES
5745,HUNTLEY,DR,,HUNTLEY DRIVE,634E3,PUBLIC STREET NAMES
10756,HENDRIX,LANE,,HENDRIX LANE,501J6,PRIVATE ROADWAY NAMES
5758,HUDSON,AVE,,HUDSON AVENUE,593E5,PUBLIC STREET NAMES
5890,HILLCREST,DR,,HILLCREST DRIVE,633E6,PUBLIC STREET NAMES
6060,HARDISON,WAY,,HARDISON WAY,595D3,PUBLIC STREET NAMES
546,HIGH VIEW,RDG,,HIGH VIEW RIDGE,480F6,PRIVATE STREET NAMES
11156,HEMINGWAY,DR,,HEMINGWAY DRIVE,482E6,PRIVATE ROADWAY NAMES
11095,HONOR,WAY,,HONOR WAY,531H3,LIMITED ACCESS AREA NAMES
11048,HOWARD DROLLINGER,WAY,,HOWARD DROLLINGER  WAY,702G3,PRIVATE ROADWAY NAMES
11103,HOTEL,DR,,HOTEL DRIVE,563B6,PRIVATE STREET NAMES
11152,HARPER,WAY,,HARPER WAY,561E4,PRIVATE STREET NAMES
11127,HELMS,CT,,HELMS COURT,632J7,LIMITED ACCESS AREA NAMES
11112,HARDING,ST,,HARDING STREET,482F3,UNOFFICIAL PRIVATE STREET NAMES
9772,HIGH VIEW,RDG,,HIGH VIEW RIDGE,480F6,PRIVATE STREET NAMES
11170,HILLSBOROUGH,LANE,,HILLSBOROUGH LANE,480D7,PRIVATE STREET NAMES
531,HOSPITAL,PL,,HOSPITAL PLACE,635A3,PRIVATE STREET NAMES
11248,HELEN,PL,,HELEN PLACE,503A4,UNOFFICIAL PRIVATE STREET NAMES
11243,HOPE,PL,,HOPE PLACE,634E4,UNOFFICIAL PRIVATE STREET NAMES
