Street ID,Street Name,Street Suffix,Street Suffix Direction,Official Street Name,Thomas Brothers Map,Street Type
10687,JARDIN,CT,,JARDIN COURT,634J4,PRIVATE STREET NAMES
5615,JANNA,WAY,,JANNA WAY,482E1,PUBLIC STREET NAMES
5562,JONESBORO,PL,,JONESBORO PLACE,631D4,PUBLIC STREET NAMES
10709,JESTER,CT,,JESTER COURT,501H6,PRIVATE ROADWAY NAMES
10443,JONAH,CT,,JONAH COURT,560J2,PRIVATE STREET NAMES
5543,JUNALUSKA,WAY,,JUNALUSKA WAY,630J5,PUBLIC STREET NAMES
10208,JULIANNA,PL,,JULIANNA PLACE,560A2,PUBLIC STREET NAMES
5566,JOLETTE,AVE,,JOLETTE AVENUE,481B4,PUBLIC STREET NAMES
10942,JACOB,LANE,,JACOB  LANE,482C3,PRIVATE ROADWAY NAMES
5560,JORDAN,AVE,,JORDAN AVENUE,500A3,PUBLIC STREET NAMES
5540,JUNGLE,ST,,JUNGLE STREET,NA,PUBLIC STREET NAMES
10850,JAMES STEWART,AVE,,JAMES STEWART AVENUE,563B5,PRIVATE ROADWAY NAMES
5602,JEANINE,PL,,JEANINE PLACE,481C5,PUBLIC STREET NAMES
5539,JUNIETTE,ST,,JUNIETTE STREET,672F6,PUBLIC STREET NAMES
5603,JEANETTE,PL,,JEANETTE PLACE,481C6,PUBLIC STREET NAMES
10219,JENNY,LANE,,JENNY LANE,501A1,PRIVATE STREET NAMES
5590,JENSEN,DR,,JENSEN DRIVE,529E2,PUBLIC STREET NAMES
5542,JUNE,ST,,JUNE STREET,633E1,PUBLIC STREET NAMES
9681,JERSEY,ST,,JERSEY STREET,501G2,UNOFFICIAL PRIVATE STREET NAMES
5604,JAYSEEL,ST,,JAYSEEL STREET,503H2,PUBLIC STREET NAMES
5532,JUTLAND,AVE,,JUTLAND AVENUE,501B5,PUBLIC STREET NAMES
5576,JOAN,LANE,,JOAN LANE,529F2,PUBLIC STREET NAMES
5580,JILL,PL,,JILL PLACE,561D5,PUBLIC STREET NAMES
5629,JADE,ST,,JADE STREET,635D2,PUBLIC STREET NAMES
5635,JACKIE,AVE,,JACKIE AVENUE,529F7,PUBLIC STREET NAMES
5544,JUMILLA,AVE,,JUMILLA AVENUE,560F3,PUBLIC STREET NAMES
520,JANET,PL,,JANET PLACE,564J6,PRIVATE STREET NAMES
5547,JUDSON,ST,,JUDSON STREET,635A3,PUBLIC STREET NAMES
5578,JIMENEZ,ST,,JIMENEZ STREET,503A1,PUBLIC STREET NAMES
5607,JASON,AVE,,JASON AVENUE,529F2,PUBLIC STREET NAMES
5548,JUDILEE,DR,,JUDILEE DRIVE,561E7,PUBLIC STREET NAMES
5589,JEROME,ST,,JEROME STREET,502F7,PUBLIC STREET NAMES
5601,JEANNE,LANE,,JEANNE LANE,561F7,PUBLIC STREET NAMES
5605,JAVA,DR,,JAVA DRIVE,562C7,PUBLIC STREET NAMES
10042,JASON,LANE,,JASON LANE,529F4,PRIVATE STREET NAMES
5553,JOY,ST,,JOY STREET,595B3,PUBLIC STREET NAMES
5617,JANDY,PL,,JANDY PLACE,672E7,PUBLIC STREET NAMES
9682,JONFIN,ST,,JONFIN STREET,501G2,UNOFFICIAL PRIVATE STREET NAMES
5568,JOHNSTON,ST,,JOHNSTON STREET,732H6,PUBLIC STREET NAMES
5585,JET,PL,,JET PLACE,NA,PUBLIC STREET NAMES
5597,JEFFERSONIA,WAY,,JEFFERSONIA WAY,631D1,PUBLIC STREET NAMES
5555,JOVITA,AVE,,JOVITA AVENUE,500D4,PUBLIC STREET NAMES
10537,JOHNNY GRANT,WAY,,JOHNNY GRANT WAY,593D4,PRIVATE ROADWAY NAMES
5586,JESSICA,DR,,JESSICA DRIVE,594J2,PUBLIC STREET NAMES
5572,JOHN,ST,,JOHN STREET,594B7,PUBLIC STREET NAMES
10041,JASON,AVE,,JASON AVENUE,529F4,PRIVATE STREET NAMES
5533,JUSTIN,CT,,JUSTIN COURT,529G4,PUBLIC STREET NAMES
5596,JEFFREY MARK,CT,,JEFFREY MARK COURT,499H4,PUBLIC STREET NAMES
5541,JUNEAU,PL,,JUNEAU PLACE,560D4,PUBLIC STREET NAMES
5556,JOVAN,ST,,JOVAN STREET,530G7,PUBLIC STREET NAMES
10193,JAGUAR,CT,,JAGUAR COURT,531A7,PRIVATE STREET NAMES
5612,JARDINE,AVE,,JARDINE AVENUE,503H3,PUBLIC STREET NAMES
5574,JOHANNA,AVE,,JOHANNA AVENUE,503C3,PUBLIC STREET NAMES
521,JACQUELIN,PL,,JACQUELIN PLACE,565E7,PRIVATE STREET NAMES
5621,JAMES,ST,,JAMES STREET,594J5,PUBLIC STREET NAMES
5545,JULLIEN,ST,,JULLIEN STREET,635B5,PUBLIC STREET NAMES
511,JULIAN,LANE,,JULIAN LANE,560G1,PRIVATE STREET NAMES
9945,JARED,DR,,JARED DRIVE,560J3,PRIVATE STREET NAMES
512,JOVENITA CANYON,DR,,JOVENITA CANYON DRIVE,593A2,PRIVATE STREET NAMES
5573,JOHANNA,PL,,JOHANNA PLACE,503D4,PUBLIC STREET NAMES
5631,JACON,WAY,,JACON WAY,630H4,PUBLIC STREET NAMES
5632,JACKSTADT,ST,,JACKSTADT STREET,853J1,PUBLIC STREET NAMES
5606,JASPER,ST,,JASPER STREET,595D7,PUBLIC STREET NAMES
5628,JADESTONE,DR,,JADESTONE DRIVE,561J6,PUBLIC STREET NAMES
29,JEFFERSON,BLVD,,JEFFERSON BOULEVARD,674E2,PEDESTRIAN MALL NAMES
5563,JONESBORO,DR,,JONESBORO DRIVE,631D4,PUBLIC STREET NAMES
9604,JEANNE,TER,,JEANNE TERRACE,503H2,PRIVATE ROADWAY NAMES
10508,JENNIFER,WAY,,JENNIFER WAY,529J2,PRIVATE ROADWAY NAMES
519,JAYSEEL,ST,,JAYSEEL STREET,503J2,PRIVATE STREET NAMES
5569,JOHNETTA,ST,,JOHNETTA STREET,559D1,PUBLIC STREET NAMES
5626,JAGUAR,ST,,JAGUAR STREET,501J2,PUBLIC STREET NAMES
5550,JUDAH,AVE,,JUDAH AVENUE,703A7,PUBLIC STREET NAMES
517,JENSEN,DR,,JENSEN DRIVE,NA,PRIVATE STREET NAMES
9605,JULIANNA,LANE,,JULIANNA LANE,560A2,PRIVATE STREET NAMES
510,JUNG JING,ROAD,,JUNG JING ROAD,634G2,PRIVATE STREET NAMES
10327,JUDGE JOHN AISO,ST,,JUDGE JOHN AISO STREET,634G4,PUBLIC STREET NAMES
5608,JASMINE,AVE,,JASMINE AVENUE,632F7,PUBLIC STREET NAMES
5583,JEWEL,ST,,JEWEL STREET,594C7,PUBLIC STREET NAMES
5546,JULIET,ST,,JULIET STREET,634A6,PUBLIC STREET NAMES
5619,JAMIESON,AVE,,JAMIESON AVENUE,561A1,PUBLIC STREET NAMES
5577,JIMENO,AVE,,JIMENO AVENUE,481C4,PUBLIC STREET NAMES
5575,JOFFRE,ST,,JOFFRE STREET,631H2,PUBLIC STREET NAMES
5549,JUDD,ST,,JUDD STREET,482F7,PUBLIC STREET NAMES
5614,JANETTA,WAY,,JANETTA WAY,503A4,PUBLIC STREET NAMES
5584,JETTY,ST,,JETTY STREET,NA,PUBLIC STREET NAMES
5564,JONES,AVE,,JONES AVENUE,635D2,PUBLIC STREET NAMES
515,JOHN SLOAT,PL,,JOHN SLOAT PLACE,823J1,PRIVATE STREET NAMES
5627,JADESTONE,PL,,JADESTONE PLACE,561J6,PUBLIC STREET NAMES
5588,JERSEY,ST,,JERSEY STREET,501F2,PUBLIC STREET NAMES
9588,JAYDEE,CIR,,JAYDEE CIRCLE,503H2,PUBLIC STREET NAMES
5595,JEFFREY,PL,,JEFFREY PLACE,560E3,PUBLIC STREET NAMES
9767,JONALLAN,DR,,JONALLAN DRIVE,532F5,PRIVATE STREET NAMES
5594,JEFFRIES,AVE,,JEFFRIES AVENUE,594J6,PUBLIC STREET NAMES
5633,JACKSON,ST,,JACKSON STREET,634H4,PUBLIC STREET NAMES
5582,JEWETT,DR,,JEWETT DRIVE,592J3,PUBLIC STREET NAMES
5598,JEFFERSON,BLVD,,JEFFERSON BOULEVARD,672G6,PUBLIC STREET NAMES
5600,JEFF,AVE,,JEFF AVENUE,503A1,PUBLIC STREET NAMES
514,JORDAN,AVE,,JORDAN AVENUE,500A7,PRIVATE STREET NAMES
513,JORDAN,LANE,,JORDAN LANE,503B7,PRIVATE STREET NAMES
5618,JAN,ST,,JAN STREET,530C6,PUBLIC STREET NAMES
5551,JUBILO,DR,,JUBILO DRIVE,560H5,PUBLIC STREET NAMES
11035,JAYDEN,LANE,,JAYDEN LANE,561B2,PRIVATE STREET NAMES
30,JAPANESE VILLAGE PLAZA,MALL,,JAPANESE VILLAGE PLAZA MALL,634G4,PEDESTRIAN MALL NAMES
5609,JARVIS,ST,,JARVIS STREET,594H7,PUBLIC STREET NAMES
5537,JUNIPERO,ST,,JUNIPERO STREET,NA,PUBLIC STREET NAMES
5535,JUSTICE,ST,,JUSTICE STREET,529F3,PUBLIC STREET NAMES
5567,JOLENE,CT,,JOLENE COURT,532F4,PUBLIC STREET NAMES
10404,JAMES M. WOOD,BLVD,,JAMES M. WOOD BOULEVARD,635E5,PUBLIC STREET NAMES
5599,JEFFDALE,AVE,,JEFFDALE AVENUE,559H3,PUBLIC STREET NAMES
5581,JIB,ST,,JIB STREET,701J1,PUBLIC STREET NAMES
5634,JACKMAN,AVE,,JACKMAN AVENUE,481J7,PUBLIC STREET NAMES
516,JOHN MONTGOMERY,DR,,JOHN MONTGOMERY DRIVE,823J1,PRIVATE STREET NAMES
5625,JALMIA,DR,,JALMIA DRIVE,593B2,PUBLIC STREET NAMES
5622,JAMES ALAN,CIR,,JAMES ALAN CIRCLE,499J4,PUBLIC STREET NAMES
5579,JIMENEZ,PL,,JIMENEZ PLACE,503B1,PUBLIC STREET NAMES
5570,JOHN,WAY,,JOHN WAY,823H5,PUBLIC STREET NAMES
5552,JUANITA,AVE,,JUANITA AVENUE,594A7,PUBLIC STREET NAMES
5593,JELLICO,AVE,,JELLICO AVENUE,561B1,PUBLIC STREET NAMES
5620,JAMIE,AVE,,JAMIE AVENUE,482A4,PUBLIC STREET NAMES
5624,JALMIA,PL,,JALMIA PLACE,593B1,PUBLIC STREET NAMES
5561,JONFIN,ST,,JONFIN STREET,501E2,PUBLIC STREET NAMES
5636,JACK,PL,,JACK PLACE,824A1,PUBLIC STREET NAMES
5592,JENNINGS,DR,,JENNINGS DRIVE,595F5,PUBLIC STREET NAMES
5558,JOSEPH,CT,,JOSEPH COURT,481F2,PUBLIC STREET NAMES
5616,JANICE,PL,,JANICE PLACE,592G2,PUBLIC STREET NAMES
9967,JEREMY,PL,,JEREMY PLACE,481A6,PUBLIC STREET NAMES
5557,JOUETT,ST,,JOUETT STREET,482G7,PUBLIC STREET NAMES
5565,JONATHAN,ST,,JONATHAN STREET,529F3,PUBLIC STREET NAMES
5630,JACQUELIN,ST,,JACQUELIN STREET,NA,PUBLIC STREET NAMES
10510,JAKE,LANE,,JAKE LANE,529J2,PRIVATE ROADWAY NAMES
5571,JOHN S GIBSON,BLVD,,JOHN S GIBSON BOULEVARD,824B2,PUBLIC STREET NAMES
5536,JUPITER,DR,,JUPITER DRIVE,593B3,PUBLIC STREET NAMES
10863,JUNEBERRY,LANE,,JUNEBERRY LANE,501H6,PRIVATE ROADWAY NAMES
5610,JARVIS,ST,,JARVIS STREET,594H7,PUBLIC STREET NAMES
5637,JACINTO,AVE,,JACINTO AVENUE,503C1,PUBLIC STREET NAMES
5559,JORDERR,AVE,,JORDERR AVENUE,593A1,PUBLIC STREET NAMES
5591,JENNY,AVE,,JENNY AVENUE,NA,PUBLIC STREET NAMES
9969,JESSICA,PL,,JESSICA PLACE,481A5,PUBLIC STREET NAMES
5554,JOVITA,PL,,JOVITA PLACE,500D5,PUBLIC STREET NAMES
9966,JACQUELINE,PL,,JACQUELINE PLACE,481A6,PUBLIC STREET NAMES
5587,JESSE,ST,,JESSE STREET,634H6,PUBLIC STREET NAMES
518,JENNY,AVE,,JENNY AVENUE,702H3,PRIVATE STREET NAMES
5611,JARED,CT,,JARED COURT,529D7,PUBLIC STREET NAMES
5623,JALMIA,WAY,,JALMIA WAY,593B2,PUBLIC STREET NAMES
5538,JUNIPER,ST,,JUNIPER STREET,704H5,PUBLIC STREET NAMES
11096,JUSTICE,WAY,,JUSTICE WAY,531H3,LIMITED ACCESS AREA NAMES
11162,JUBILEE,WAY,,JUBILEE WAY,500D1,PRIVATE STREET NAMES
11100,JUNE,PL,,JUNE PLACE,593E6,LIMITED ACCESS AREA NAMES
11221,JEAN,PL,,JEAN PLACE,672G1,PUBLIC STREET NAMES
10817,JOHNNIE COCHRAN,VIS,,JOHNNIE COCHRAN  VISTA,633F5,PUBLIC STREET NAMES
11258,JEROME,WAY,,JEROME WAY,594E5,LIMITED ACCESS AREA NAMES
11274,JIMSON,ROAD,,JIMSON ROAD,594J1,LIMITED ACCESS AREA NAMES
