Street ID,Street Name,Street Suffix,Street Suffix Direction,Official Street Name,Thomas Brothers Map,Street Type
5486,KENT,ST,,KENT STREET,594C7,PUBLIC STREET NAMES
5498,KEMPER,CIR,,KEMPER CIRCLE,594H4,PUBLIC STREET NAMES
506,KEY WEST,AVE,,KEY WEST AVENUE,500G2,PRIVATE STREET NAMES
5479,KENWATER,AVE,,KENWATER AVENUE,529E7,PUBLIC STREET NAMES
5507,KELLER,ST,,KELLER STREET,634H3,PUBLIC STREET NAMES
28,KETCH,MALL,,KETCH MALL,701J1,PEDESTRIAN MALL NAMES
5528,KAILUA,LANE,,KAILUA LANE,503J3,PUBLIC STREET NAMES
5393,KIVIK,ST,,KIVIK STREET,559F3,PUBLIC STREET NAMES
10656,KNOLL,HILL,,KNOLL HILL,480J6,PRIVATE STREET NAMES
9965,KITTY'S,LANE,,KITTY'S LANE,504C6,PUBLIC STREET NAMES
5464,KETCH,CT,,KETCH COURT,701J1,PUBLIC STREET NAMES
5438,KIMBALL,ST,,KIMBALL STREET,595E7,PUBLIC STREET NAMES
10044,KYLE,CT,,KYLE COURT,529G4,PRIVATE STREET NAMES
5427,KINGMAN,AVE,,KINGMAN AVENUE,631C7,PUBLIC STREET NAMES
5401,KIRKLAND,DR,,KIRKLAND DRIVE,592D1,PUBLIC STREET NAMES
5381,KNOWLTON,PL,,KNOWLTON PLACE,703A1,PUBLIC STREET NAMES
10370,KIYOT,WAY,,KIYOT WAY,702D1,PUBLIC STREET NAMES
5410,KIOWA,AVE,,KIOWA AVENUE,631H5,PUBLIC STREET NAMES
5374,KOPANY,AVE,,KOPANY AVENUE,482B1,PUBLIC STREET NAMES
5485,KENTER,AVE,,KENTER AVENUE,591E7,PUBLIC STREET NAMES
5382,KNOLLWOOD,DR,,KNOLLWOOD DRIVE,481D5,PUBLIC STREET NAMES
5445,KILLION,ST,,KILLION STREET,562H1,PUBLIC STREET NAMES
5449,KILLARNEY,AVE,,KILLARNEY AVENUE,594H4,PUBLIC STREET NAMES
5446,KILLIMORE,CT,,KILLIMORE COURT,480H7,PUBLIC STREET NAMES
9686,KONTIKI,WAY,,KONTIKI WAY,630J6,UNOFFICIAL PRIVATE STREET NAMES
5467,KESTER,AVE,,KESTER AVENUE,501H2,PUBLIC STREET NAMES
5478,KENWATER,PL,,KENWATER PLACE,529E7,PUBLIC STREET NAMES
5466,KESWICK,AVE,,KESWICK AVENUE,632D4,PUBLIC STREET NAMES
5367,KUEN,PL,,KUEN PLACE,562D2,PUBLIC STREET NAMES
10543,KNOLLWOOD,WAY,,KNOLLWOOD WAY,559H3,PUBLIC STREET NAMES
5413,KINNEY,WALK,,KINNEY WALK,594H2,PUBLIC STREET NAMES
5366,KURL,WAY,,KURL WAY,530H6,PUBLIC STREET NAMES
5448,KILLGORE,ST,,KILLGORE STREET,NA,PUBLIC STREET NAMES
5385,KNOB,DR,,KNOB DRIVE,594H4,PUBLIC STREET NAMES
5455,KEY WEST,AVE,,KEY WEST AVENUE,500G2,PUBLIC STREET NAMES
5496,KEMPER,ST,,KEMPER STREET,594H4,PUBLIC STREET NAMES
501,KLUMP,AVE,,KLUMP AVENUE,532J6,PRIVATE STREET NAMES
5430,KINCHELOE,DR,,KINCHELOE DRIVE,565B5,PUBLIC STREET NAMES
5488,KENNY,DR,,KENNY DRIVE,481D5,PUBLIC STREET NAMES
5459,KEWANEE,ST,,KEWANEE STREET,595D7,PUBLIC STREET NAMES
5383,KNOLL,DR,,KNOLL DRIVE,824C3,PUBLIC STREET NAMES
5447,KILLIMORE,AVE,,KILLIMORE AVENUE,480G7,PUBLIC STREET NAMES
5480,KENTWORTHY,AVE,,KENTWORTHY AVENUE,794A2,PUBLIC STREET NAMES
5378,KNOX,ST,,KNOX STREET,764A3,PUBLIC STREET NAMES
500,KRESS,ST,,KRESS STREET,592J3,PRIVATE STREET NAMES
5384,KNOBHILL,DR,,KNOBHILL DRIVE,562A6,PUBLIC STREET NAMES
5406,KIPTON,PL,,KIPTON PLACE,560J4,PUBLIC STREET NAMES
5441,KILTY,AVE,,KILTY AVENUE,529F5,PUBLIC STREET NAMES
5424,KINGSBURY,ST,,KINGSBURY STREET,502A3,PUBLIC STREET NAMES
9683,KATHY,,,KATHY,501H2,UNOFFICIAL PRIVATE STREET NAMES
5429,KING,AVE,,KING AVENUE,794D5,PUBLIC STREET NAMES
5396,KITTRIDGE,ST,,KITTRIDGE STREET,533A6,PUBLIC STREET NAMES
10230,KATRINA,LANE,,KATRINA LANE,594A2,PRIVATE STREET NAMES
5388,KLING,ST,,KLING STREET,563A4,PUBLIC STREET NAMES
5443,KILLOCH,WAY,,KILLOCH WAY,480G6,PUBLIC STREET NAMES
5489,KENNETH,DR,,KENNETH DRIVE,595D6,PUBLIC STREET NAMES
5481,KENTWOOD,AVE,,KENTWOOD AVENUE,672G7,PUBLIC STREET NAMES
10251,KENDRA,CT,,KENDRA COURT,593E3,PRIVATE STREET NAMES
5365,KURT,ST,,KURT STREET,503B1,PUBLIC STREET NAMES
5458,KEWEN,AVE,,KEWEN AVENUE,502B1,PUBLIC STREET NAMES
5421,KINGSTON,AVE,,KINGSTON AVENUE,635A3,PUBLIC STREET NAMES
10714,KEONI,LANE,,KEONI LANE,501G3,PRIVATE ROADWAY NAMES
505,KING,AVE,,KING AVENUE,NA,PRIVATE STREET NAMES
10979,KINGS,PL,,KINGS PLACE,595E7,PUBLIC STREET NAMES
5473,KEOKUK,AVE,,KEOKUK AVENUE,500D4,PUBLIC STREET NAMES
5405,KIRBY,ST,,KIRBY STREET,595D1,PUBLIC STREET NAMES
5442,KILRENNEY,AVE,,KILRENNEY AVENUE,632F6,PUBLIC STREET NAMES
5434,KIMRIDGE,ROAD,,KIMRIDGE ROAD,592F2,PUBLIC STREET NAMES
5453,KILBOURN,ST,,KILBOURN STREET,594H4,PUBLIC STREET NAMES
5409,KIP,DR,,KIP DRIVE,592C4,PUBLIC STREET NAMES
5419,KINGSWOOD,LANE,,KINGSWOOD LANE,561H6,PUBLIC STREET NAMES
5390,KLEE,ST,,KLEE STREET,501D7,PUBLIC STREET NAMES
10166,KENTWOOD,CT,,KENTWOOD COURT,672G7,PUBLIC STREET NAMES
5497,KEMPER,CT,,KEMPER COURT,594H4,PUBLIC STREET NAMES
5377,KODAK,DR,,KODAK DRIVE,594B6,PUBLIC STREET NAMES
5389,KLEINART,LANE,,KLEINART LANE,NA,PUBLIC STREET NAMES
5450,KILKEA,DR,,KILKEA DRIVE,593A7,PUBLIC STREET NAMES
5504,KELOWNA,ST,,KELOWNA STREET,482J7,PUBLIC STREET NAMES
5472,KERCKHOFF,AVE,,KERCKHOFF AVENUE,824B7,PUBLIC STREET NAMES
5439,KIM,LANE,,KIM LANE,561D6,PUBLIC STREET NAMES
5457,KEY,ST,,KEY STREET,632H4,PUBLIC STREET NAMES
5487,KENSINGTON,ROAD,,KENSINGTON ROAD,634F1,PUBLIC STREET NAMES
5525,KALUA,DR,,KALUA DRIVE,503C5,PUBLIC STREET NAMES
5521,KANSAS,AVE,,KANSAS AVENUE,674A3,PUBLIC STREET NAMES
508,KALSMAN,DR,,KALSMAN DRIVE,673A1,PRIVATE STREET NAMES
5529,KAGEL CANYON,ST,,KAGEL CANYON STREET,482J7,PUBLIC STREET NAMES
5370,KRAMERWOOD,PL,,KRAMERWOOD PLACE,632G6,PUBLIC STREET NAMES
5516,KAY FIORENTINO,DR,,KAY FIORENTINO DRIVE,853G1,PUBLIC STREET NAMES
10724,KIAN,CT,,KIAN COURT,531F5,PRIVATE STREET NAMES
5470,KERWIN,PL,,KERWIN PLACE,564J6,PUBLIC STREET NAMES
9817,KALSMAN,DR,,KALSMAN DRIVE,42E6,UNOFFICIAL PRIVATE STREET NAMES
5403,KIRKCOLM,CT,,KIRKCOLM COURT,480H6,PUBLIC STREET NAMES
5493,KENILWORTH,AVE,,KENILWORTH AVENUE,594D4,PUBLIC STREET NAMES
5404,KIRKCALDY,CIR,,KIRKCALDY CIRCLE,529E5,PUBLIC STREET NAMES
5468,KESSLER,AVE,,KESSLER AVENUE,500E4,PUBLIC STREET NAMES
5398,KIRUNA,PL,,KIRUNA PLACE,559E3,PUBLIC STREET NAMES
10141,KENSINGTON,DR,,KENSINGTON DRIVE,500G7,PRIVATE ROADWAY NAMES
10826,KING,AVE,,KING AVENUE,794D7,PRIVATE ROADWAY NAMES
5515,KEARNEY,ST,,KEARNEY STREET,634J4,PUBLIC STREET NAMES
5436,KIMBERLY,LANE,,KIMBERLY LANE,631E2,PUBLIC STREET NAMES
5495,KENDALL,AVE,,KENDALL AVENUE,595E4,PUBLIC STREET NAMES
5518,KATHERINE,AVE,,KATHERINE AVENUE,502A7,PUBLIC STREET NAMES
5418,KINGSWOOD,ROAD,,KINGSWOOD ROAD,561H6,PUBLIC STREET NAMES
5520,KARELIA,ST,,KARELIA STREET,594J3,PUBLIC STREET NAMES
5426,KINGS,ROAD,,KINGS ROAD,592J4,PUBLIC STREET NAMES
5463,KETCH,ST,,KETCH STREET,NA,PEDESTRIAN MALL NAMES
5460,KEW,DR,,KEW DRIVE,592J3,PUBLIC STREET NAMES
10659,KENS,WAY,,KENS WAY,592G4,PUBLIC STREET NAMES
5380,KNOWLTON,ST,,KNOWLTON STREET,673A7,PUBLIC STREET NAMES
5510,KEITH,ST,,KEITH STREET,635B1,PUBLIC STREET NAMES
5368,KRISTOPHER,PL,,KRISTOPHER PLACE,480H6,PUBLIC STREET NAMES
502,KLAMATH,ST,,KLAMATH STREET,595E7,PRIVATE STREET NAMES
5420,KINGSWELL,AVE,,KINGSWELL AVENUE,594A4,PUBLIC STREET NAMES
5524,KAMAN,CT,,KAMAN COURT,481A7,PUBLIC STREET NAMES
5402,KIRKCOLM,LANE,,KIRKCOLM LANE,480G6,PUBLIC STREET NAMES
5494,KENFIELD,AVE,,KENFIELD AVENUE,591F7,PUBLIC STREET NAMES
5462,KETCH,ST,,KETCH STREET,701J1,PUBLIC STREET NAMES
509,KAHLENBERG,LANE,,KAHLENBERG LANE,562E3,PRIVATE STREET NAMES
5461,KEVIN,CT,,KEVIN COURT,500J4,PUBLIC STREET NAMES
5397,KISMET,AVE,,KISMET AVENUE,482B2,PUBLIC STREET NAMES
5471,KERR,ST,,KERR STREET,594F3,PUBLIC STREET NAMES
5379,KNOX,AVE,,KNOX AVENUE,594F4,PUBLIC STREET NAMES
10655,KNOLL,HILL,,KNOLL HILL,480J6,PUBLIC STREET NAMES
5519,KAREN,DR,,KAREN DRIVE,561B4,PUBLIC STREET NAMES
5501,KELTON,AVE,,KELTON AVENUE,631J2,PUBLIC STREET NAMES
9685,KIKI,PL,,KIKI PLACE,630J6,UNOFFICIAL PRIVATE STREET NAMES
5500,KELVIN,AVE,,KELVIN AVENUE,500C7,PUBLIC STREET NAMES
5527,KALISHER,ST,,KALISHER STREET,501J1,PUBLIC STREET NAMES
5502,KELSLOAN,ST,,KELSLOAN STREET,531D4,PUBLIC STREET NAMES
5483,KENTLAND,AVE,,KENTLAND AVENUE,499H6,PUBLIC STREET NAMES
5492,KENILWORTH,WALK,,KENILWORTH WALK,594D5,PUBLIC STREET NAMES
5373,KOSTER,AVE,,KOSTER AVENUE,562C6,PUBLIC STREET NAMES
10684,KEMMETT,CT,,KEMMETT COURT,634J4,PRIVATE ROADWAY NAMES
5503,KELSEY,ST,,KELSEY STREET,562H6,PUBLIC STREET NAMES
5376,KOHLER,ST,,KOHLER STREET,634G5,PUBLIC STREET NAMES
5526,KALMIA,ST,,KALMIA STREET,704H6,PUBLIC STREET NAMES
5428,KINGLET,DR,,KINGLET DRIVE,592H4,PUBLIC STREET NAMES
5475,KENYA,ST,,KENYA STREET,500G2,PUBLIC STREET NAMES
10167,KENTWOOD BLUFFS,DR,,KENTWOOD BLUFFS DRIVE,672G7,PUBLIC STREET NAMES
5371,KRAFT,AVE,,KRAFT AVENUE,532J3,PUBLIC STREET NAMES
10920,KIRKHAM,ST,,KIRKHAM STREET,502E5,PRIVATE ROADWAY NAMES
5444,KILLOCH,PL,,KILLOCH PLACE,480G6,PUBLIC STREET NAMES
5440,KILTY,PL,,KILTY PLACE,529F5,PUBLIC STREET NAMES
5491,KENISTON,AVE,,KENISTON AVENUE,633E4,PUBLIC STREET NAMES
10715,KINGSBURY,CT,,KINGSBURY COURT,501G3,PRIVATE ROADWAY NAMES
5512,KEELER,DR,,KEELER DRIVE,481E7,PUBLIC STREET NAMES
10005,KILFINAN,ST,,KILFINAN STREET,480F5,PRIVATE STREET NAMES
5392,KLAMATH,PL,,KLAMATH PLACE,595E7,PUBLIC STREET NAMES
10051,KNOLLWOOD,CT,,KNOLLWOOD COURT,529E5,PUBLIC STREET NAMES
5422,KINGSLEY,DR,,KINGSLEY DRIVE,593J4,PUBLIC STREET NAMES
504,KINGS,CT,,KINGS COURT,561J7,PRIVATE STREET NAMES
5435,KIMDALE,LANE,,KIMDALE LANE,593B1,PUBLIC STREET NAMES
10907,KAZAZ,LANE,,KAZAZ LANE,594E2,LIMITED ACCESS AREA NAMES
5400,KIRKSIDE,ROAD,,KIRKSIDE ROAD,632G4,PUBLIC STREET NAMES
5454,KIEL,ST,,KIEL STREET,631H2,PUBLIC STREET NAMES
5369,KRIM,DR,,KRIM DRIVE,632G6,PUBLIC STREET NAMES
10451,KAREV,CT,,KAREV COURT,531A7,PRIVATE STREET NAMES
5511,KEESHEN,DR,,KEESHEN DRIVE,672B2,PUBLIC STREET NAMES
5395,KITTYHAWK,AVE,,KITTYHAWK AVENUE,673A7,PUBLIC STREET NAMES
5375,KOMAR,DR,,KOMAR DRIVE,560F4,PUBLIC STREET NAMES
5391,KLAMATH,ST,,KLAMATH STREET,595D7,PUBLIC STREET NAMES
5465,KESWICK,ST,,KESWICK STREET,533C3,PUBLIC STREET NAMES
5508,KELLAM,AVE,,KELLAM AVENUE,634E1,PUBLIC STREET NAMES
9684,KENT,,,KENT,481G2,UNOFFICIAL PRIVATE STREET NAMES
5513,KEATS,ST,,KEATS STREET,595G5,PUBLIC STREET NAMES
5509,KELI,CT,,KELI COURT,672E6,PUBLIC STREET NAMES
5425,KINGS,WAY,,KINGS WAY,592J4,PUBLIC STREET NAMES
5506,KELLY,ST,,KELLY STREET,672D7,PUBLIC STREET NAMES
5499,KELVIN,PL,,KELVIN PLACE,560C1,PUBLIC STREET NAMES
5522,KAMLOOPS,ST,,KAMLOOPS STREET,482J7,PUBLIC STREET NAMES
5412,KINROSS,AVE,,KINROSS AVENUE,632A3,PUBLIC STREET NAMES
5523,KAMLOOPS,PL,,KAMLOOPS PLACE,502H1,PUBLIC STREET NAMES
499,KYLE,ST,,KYLE STREET,503G2,PRIVATE STREET NAMES
5394,KITTYHAWK,WALK,,KITTYHAWK WALK,702H3,PUBLIC STREET NAMES
5423,KINGSLAND,ST,,KINGSLAND STREET,632E7,PUBLIC STREET NAMES
5408,KIPLING,AVE,,KIPLING AVENUE,565C5,PUBLIC STREET NAMES
5411,KINZIE,ST,,KINZIE STREET,501J5,PUBLIC STREET NAMES
5364,KYLE,ST,,KYLE STREET,503J2,PUBLIC STREET NAMES
5415,KINNEY,PL,,KINNEY PLACE,594H2,PUBLIC STREET NAMES
5387,KLUMP,AVE,,KLUMP AVENUE,532J3,PUBLIC STREET NAMES
5530,KAGAWA,ST,,KAGAWA STREET,631B4,PUBLIC STREET NAMES
5451,KILFINAN,ST,,KILFINAN STREET,480H5,PUBLIC STREET NAMES
503,KINGSBORO,WAY,,KINGSBORO WAY,560C4,PRIVATE STREET NAMES
5431,KINCARDINE,AVE,,KINCARDINE AVENUE,632G6,PUBLIC STREET NAMES
5477,KENWOOD,AVE,,KENWOOD AVENUE,633J7,PUBLIC STREET NAMES
10047,KENSINGTON,CT,,KENSINGTON COURT,529E4,PUBLIC STREET NAMES
5407,KIPPEN,ST,,KIPPEN STREET,793J2,PUBLIC STREET NAMES
10133,KENT,WAY,,KENT WAY,500G7,PRIVATE ROADWAY NAMES
5399,KIRKWOOD,DR,,KIRKWOOD DRIVE,593A3,PUBLIC STREET NAMES
5482,KENTUCKY,DR,,KENTUCKY DRIVE,563B6,PUBLIC STREET NAMES
507,KEEL,ST,,KEEL STREET,824D3,PRIVATE STREET NAMES
5476,KENYA,PL,,KENYA PLACE,500G2,PUBLIC STREET NAMES
5433,KINBRACE,ST,,KINBRACE STREET,480G6,PUBLIC STREET NAMES
5517,KATHYANN,ST,,KATHYANN STREET,482G7,PUBLIC STREET NAMES
5386,KNAPP,ST,,KNAPP STREET,501D6,PUBLIC STREET NAMES
5432,KINBROOK,ST,,KINBROOK STREET,482B1,PUBLIC STREET NAMES
5372,KOSTURAS,PL,,KOSTURAS PLACE,530D6,PUBLIC STREET NAMES
5490,KENMORE,AVE,,KENMORE AVENUE,593J3,PUBLIC STREET NAMES
5531,KADOTA,ST,,KADOTA STREET,481H2,PUBLIC STREET NAMES
5416,KINNEY,CIR,,KINNEY CIRCLE,594H2,PUBLIC STREET NAMES
5437,KIMBERLY,AVE,,KIMBERLY AVENUE,704G5,PUBLIC STREET NAMES
5514,KEARSARGE,ST,,KEARSARGE STREET,631G3,PUBLIC STREET NAMES
5474,KENYON,AVE,,KENYON AVENUE,672C5,PUBLIC STREET NAMES
5456,KEYSTONE,AVE,,KEYSTONE AVENUE,632E7,PUBLIC STREET NAMES
5484,KENTER,WAY,,KENTER WAY,631E1,PUBLIC STREET NAMES
5414,KINNEY,ST,,KINNEY STREET,594H2,PUBLIC STREET NAMES
10879,KOLSTER,ST,,KOLSTER STREET,634J5,PUBLIC STREET NAMES
5469,KERWOOD,AVE,,KERWOOD AVENUE,632D4,PUBLIC STREET NAMES
5417,KINNARD,AVE,,KINNARD AVENUE,632C3,PUBLIC STREET NAMES
5452,KILFINAN,PL,,KILFINAN PLACE,480G6,PUBLIC STREET NAMES
10886,KALEM,CT,,KALEM COURT,593E5,LIMITED ACCESS AREA NAMES
5505,KELLYFIELD,AVE,,KELLYFIELD AVENUE,NA,PUBLIC STREET NAMES
11148,KINSLEY,CT,,KINSLEY COURT,530E1,PRIVATE ROADWAY NAMES
11198,KEER,DR,,KEER DRIVE,530J3,LIMITED ACCESS AREA NAMES
11222,KINGSTON,PL,,KINGSTON PLACE,594D7,LIMITED ACCESS AREA NAMES
11233,KLEIN,CT,,KLEIN COURT,482C5,PRIVATE ROADWAY NAMES
11246,KENNY,CT,,KENNY COURT,501H6,PRIVATE ROADWAY NAMES
