Street ID,Street Name,Street Suffix,Street Suffix Direction,Official Street Name,Thomas Brothers Map,Street Type
4818,LYLE,ST,,LYLE STREET,482A4,PUBLIC STREET NAMES
5167,LAVA,PL,,LAVA PLACE,529E1,PUBLIC STREET NAMES
5133,LEDO,WAY,,LEDO WAY,591J7,PUBLIC STREET NAMES
5064,LIFUR,AVE,,LIFUR AVENUE,595F6,PUBLIC STREET NAMES
5042,LINCOLN HIGH,CT,,LINCOLN HIGH COURT,595C7,PUBLIC STREET NAMES
5118,LEIGHTON,AVE,,LEIGHTON AVENUE,674A2,PUBLIC STREET NAMES
5344,LA CIENEGA,BLVD,,LA CIENEGA BOULEVARD,592J7,PUBLIC STREET NAMES
4905,LORENZO,DR,,LORENZO DRIVE,632F5,PUBLIC STREET NAMES
5298,LAKE VIEW,AVE,,LAKE VIEW AVENUE,594E4,PUBLIC STREET NAMES
5125,LEGARY,PL,,LEGARY PLACE,823H5,PUBLIC STREET NAMES
5123,LEGION,LANE,,LEGION LANE,594D1,PUBLIC STREET NAMES
4858,LOWRY,ROAD,,LOWRY ROAD,594B2,PUBLIC STREET NAMES
5102,LEMP,AVE,,LEMP AVENUE,532H3,PUBLIC STREET NAMES
5216,LAS FLORES,CT,,LAS FLORES COURT,672F2,PUBLIC STREET NAMES
5132,LE DOUX,ROAD,,LE DOUX ROAD,632J1,PUBLIC STREET NAMES
4870,LOUISE,AVE,,LOUISE AVENUE,481A5,PUBLIC STREET NAMES
11041,LUNA,PARK,,LUNA PARK,633A4,LIMITED ACCESS AREA NAMES
5278,LA MONTANA,PL,,LA MONTANA PLACE,560H4,PUBLIC STREET NAMES
5178,LAURELMONT,PL,,LAURELMONT PLACE,593A3,PUBLIC STREET NAMES
5319,LA GRANADA,DR,,LA GRANADA DRIVE,593E3,PUBLIC STREET NAMES
10658,LAUREN,LANE,,LAUREN LANE,592G4,PUBLIC STREET NAMES
5182,LAURELGROVE,AVE,,LAURELGROVE AVENUE,562F3,PUBLIC STREET NAMES
474,LEEDS,AVE,,LEEDS AVENUE,794H5,PRIVATE STREET NAMES
4974,LOCKETT,LANE,,LOCKETT LANE,NA,PUBLIC STREET NAMES
9689,LE CONTE,PL,,LE CONTE PLACE,632A2,UNOFFICIAL PRIVATE STREET NAMES
5154,LAWRENCE,ST,,LAWRENCE STREET,634G7,PUBLIC STREET NAMES
5114,LELIA,LANE,,LELIA LANE,592B4,PUBLIC STREET NAMES
5271,LANDALE,ST,,LANDALE STREET,563A4,PUBLIC STREET NAMES
5208,LA SOMBRA,DR,,LA SOMBRA DRIVE,563D7,PUBLIC STREET NAMES
5061,LIGHTHOUSE,ST,,LIGHTHOUSE STREET,NA,PEDESTRIAN MALL NAMES
482,LATROBE,ST,,LATROBE STREET,595C5,PRIVATE STREET NAMES
5148,LEAGUE,ST,,LEAGUE STREET,532E2,PUBLIC STREET NAMES
10702,LETICIA,PL,,LETICIA PLACE,531G4,PRIVATE STREET NAMES
5060,LIGHTHOUSE,ST,,LIGHTHOUSE STREET,701J1,PUBLIC STREET NAMES
5063,LIGGETT,ST,,LIGGETT STREET,502A6,PUBLIC STREET NAMES
5207,LAS PALMAS,AVE,,LAS PALMAS AVENUE,593E3,PUBLIC STREET NAMES
5348,LA CASTANA,DR,,LA CASTANA DRIVE,593B1,PUBLIC STREET NAMES
5297,LAKE VIEW,TER,EAST,LAKE VIEW TERRACE EAST,594D3,PUBLIC STREET NAMES
4831,LULLABY,LANE,,LULLABY LANE,532A1,PUBLIC STREET NAMES
5240,LARISSA,DR,,LARISSA DRIVE,594C6,PUBLIC STREET NAMES
5139,LECOUVREUR,AVE,,LECOUVREUR AVENUE,794F6,PUBLIC STREET NAMES
9687,LAKESIDE PLAZA,DR,,LAKESIDE PLAZA DRIVE,563D5,UNOFFICIAL PRIVATE STREET NAMES
5203,LAS PULGAS,ROAD,,LAS PULGAS ROAD,630J4,PUBLIC STREET NAMES
4876,LOS ROSAS,ST,,LOS ROSAS STREET,529E2,PUBLIC STREET NAMES
4906,LORENZANA,DR,,LORENZANA DRIVE,560D3,PUBLIC STREET NAMES
5067,LIBERTY,ST,,LIBERTY STREET,594D7,PUBLIC STREET NAMES
5018,LINFIELD,AVE,,LINFIELD AVENUE,482D2,PUBLIC STREET NAMES
5198,LATHROP,ST,,LATHROP STREET,595F4,PUBLIC STREET NAMES
5052,LILY CREST,AVE,,LILY CREST AVENUE,594A6,PUBLIC STREET NAMES
5251,LA PUNTA,DR,,LA PUNTA DRIVE,593F2,PUBLIC STREET NAMES
4998,LITTLE,ST,,LITTLE STREET,634C3,PUBLIC STREET NAMES
5253,LA PRESA,DR,,LA PRESA DRIVE,593D3,PUBLIC STREET NAMES
5033,LINDA ROSA,AVE,,LINDA ROSA AVENUE,565B6,PUBLIC STREET NAMES
5170,LAURIE,PL,,LAURIE PLACE,562J6,PUBLIC STREET NAMES
456,LONGRIDGE,PL,,LONGRIDGE PLACE,NA,PRIVATE STREET NAMES
5335,LA CRUZ,DR,,LA CRUZ DRIVE,631A5,PUBLIC STREET NAMES
9692,LOS OLIVOS,ST,,LOS OLIVOS STREET,501G2,UNOFFICIAL PRIVATE STREET NAMES
5158,LAWLER,ST,,LAWLER STREET,672E1,PUBLIC STREET NAMES
4989,LIVONIA,AVE,,LIVONIA AVENUE,632H4,PUBLIC STREET NAMES
5282,LA MIRADA,AVE,,LA MIRADA AVENUE,594A5,PUBLIC STREET NAMES
495,LAHEY,ST,,LAHEY STREET,500G2,PRIVATE STREET NAMES
5003,LISCO,PL,,LISCO PLACE,593C2,PUBLIC STREET NAMES
498,LA BREA,TER,,LA BREA TERRACE,593D3,PRIVATE STREET NAMES
5162,LAVETA,TER,,LAVETA TERRACE,594E7,PUBLIC STREET NAMES
5242,LA REINA,PL,,LA REINA PLACE,504C6,PUBLIC STREET NAMES
465,LINWOOD,DR,,LINWOOD DRIVE,593J3,PRIVATE STREET NAMES
5275,LANARK,ST,,LANARK STREET,533A2,PUBLIC STREET NAMES
4921,LONGVIEW,AVE,,LONGVIEW AVENUE,593F3,PUBLIC STREET NAMES
4993,LIVE OAK,DR,WEST,LIVE OAK DRIVE WEST,593H3,PUBLIC STREET NAMES
5358,LA BARCA,DR,,LA BARCA DRIVE,560G4,PUBLIC STREET NAMES
491,LANFRANCO,ST,,LANFRANCO STREET,634J5,PRIVATE STREET NAMES
5268,LANEWOOD,AVE,,LANEWOOD AVENUE,593D4,PUBLIC STREET NAMES
4860,LOWELL,AVE,,LOWELL AVENUE,504D5,PUBLIC STREET NAMES
5321,LA FONTAINE,CT,,LA FONTAINE COURT,592F4,PUBLIC STREET NAMES
5054,LILLIS,LANE,,LILLIS LANE,NA,PUBLIC STREET NAMES
5108,LEMMER,ST,,LEMMER STREET,500C5,PUBLIC STREET NAMES
10418,LAKE CENTER,DR,,LAKE CENTER DRIVE,672F7,PRIVATE STREET NAMES
5276,LANARK,ST,,LANARK STREET,565D6,PUBLIC STREET NAMES
471,LEVICO,WAY,,LEVICO WAY,591J5,PRIVATE STREET NAMES
5053,LILLYVALE,AVE,,LILLYVALE AVENUE,595G7,PUBLIC STREET NAMES
4910,LOPEZ CANYON,ROAD,,LOPEZ CANYON ROAD,482F5,PUBLIC STREET NAMES
4851,LUCAS,AVE,,LUCAS AVENUE,634D3,PUBLIC STREET NAMES
4878,LOS PALOS,ST,,LOS PALOS STREET,675C1,PUBLIC STREET NAMES
5070,LIBBIT,AVE,,LIBBIT AVENUE,561E3,PUBLIC STREET NAMES
5176,LAURELVALE,DR,,LAURELVALE DRIVE,562H7,PUBLIC STREET NAMES
9906,LAKER,CT,,LAKER COURT,500A2,PUBLIC STREET NAMES
4926,LONGFORD,ST,,LONGFORD STREET,503A1,PUBLIC STREET NAMES
4968,LOCKLAND,PL,,LOCKLAND PLACE,673D3,PUBLIC STREET NAMES
5117,LEIMERT,BLVD,,LEIMERT BOULEVARD,673F3,PUBLIC STREET NAMES
5269,LANDFAIR,AVE,,LANDFAIR AVENUE,632A2,PUBLIC STREET NAMES
4847,LUCERNE,BLVD,,LUCERNE BOULEVARD,593F7,PUBLIC STREET NAMES
5355,LA BREA,AVE,,LA BREA AVENUE,593D4,PUBLIC STREET NAMES
5246,LARCHMONT,BLVD,,LARCHMONT BOULEVARD,593F7,PUBLIC STREET NAMES
5094,LEONORA,DR,,LEONORA DRIVE,559F3,PUBLIC STREET NAMES
4821,LUVERNE,PL,,LUVERNE PLACE,561C5,PUBLIC STREET NAMES
5066,LICK,ST,,LICK STREET,565C6,PUBLIC STREET NAMES
5016,LINK,ST,,LINK STREET,704D6,PUBLIC STREET NAMES
4880,LOS NIETOS,DR,,LOS NIETOS DRIVE,594B3,PUBLIC STREET NAMES
5188,LAUREL,AVE,,LAUREL AVENUE,593B5,PUBLIC STREET NAMES
5290,LA MAIDA,ST,,LA MAIDA STREET,563B3,PUBLIC STREET NAMES
10091,LAVENDER BELL,LANE,,LAVENDER BELL LANE,529J7,PRIVATE ROADWAY NAMES
5199,LATHAM,ST,,LATHAM STREET,674F5,PUBLIC STREET NAMES
5012,LINNIE,CL,,LINNIE CANAL,671H6,PUBLIC STREET NAMES
4928,LONGDALE,LANE,,LONGDALE LANE,593D1,PUBLIC STREET NAMES
479,LAUREL,PL,,LAUREL PLACE,704H4,PRIVATE STREET NAMES
5049,LIMERICK,AVE,,LIMERICK AVENUE,500C2,PUBLIC STREET NAMES
449,LUCERNE,BLVD,,LUCERNE BOULEVARD,633F4,PRIVATE STREET NAMES
4939,LOMPOC,ST,,LOMPOC STREET,564H7,PUBLIC STREET NAMES
473,LEI MIN,WAY,,LEI MIN WAY,634G2,PRIVATE STREET NAMES
4861,LOWELL,AVE,,LOWELL AVENUE,595G4,PUBLIC STREET NAMES
5303,LAKERIDGE,PL,,LAKERIDGE PLACE,593D1,PUBLIC STREET NAMES
4945,LOMBARD,AVE,,LOMBARD AVENUE,631A6,PUBLIC STREET NAMES
5134,LEDGEWOOD,DR,,LEDGEWOOD DRIVE,563F7,PUBLIC STREET NAMES
5349,LA CASA,LANE,,LA CASA LANE,631F1,PUBLIC STREET NAMES
4848,LUCERNE,AVE,,LUCERNE AVENUE,672G4,PUBLIC STREET NAMES
5232,LARMAR,ROAD,,LARMAR ROAD,593C2,PUBLIC STREET NAMES
4920,LONGVIEW VALLEY,ROAD,,LONGVIEW VALLEY ROAD,562A6,PUBLIC STREET NAMES
5180,LAUREL HILLS,ROAD,,LAUREL HILLS ROAD,562G6,PUBLIC STREET NAMES
5322,LA FOLLETTE,WALK,,LA FOLLETTE WALK,595D2,PUBLIC STREET NAMES
4944,LOMBARDY,BLVD,,LOMBARDY BOULEVARD,595E7,PUBLIC STREET NAMES
5305,LAKE MANOR,DR,,LAKE MANOR DRIVE,499F7,PUBLIC STREET NAMES
5035,LINDAMERE,DR,,LINDAMERE DRIVE,591J4,PUBLIC STREET NAMES
5233,LARKWOOD,AVE,,LARKWOOD AVENUE,559G4,PUBLIC STREET NAMES
5119,LEICESTER,DR,,LEICESTER DRIVE,593A2,PUBLIC STREET NAMES
4845,LUCERO,AVE,,LUCERO AVENUE,630G5,PUBLIC STREET NAMES
5135,LEDGE,AVE,,LEDGE AVENUE,503B7,PUBLIC STREET NAMES
447,LUTHER,ST,,LUTHER STREET,NA,PRIVATE STREET NAMES
10596,LAUREN,WAY,,LAUREN WAY,561D4,PRIVATE STREET NAMES
4903,LORENZO,PL,,LORENZO PLACE,632E6,PUBLIC STREET NAMES
4846,LUCIA,PL,,LUCIA PLACE,533A1,PUBLIC STREET NAMES
5091,LERIDA,PL,,LERIDA PLACE,500D3,PUBLIC STREET NAMES
4853,LUBAO,AVE,,LUBAO AVENUE,500E3,PUBLIC STREET NAMES
5332,LACY,ST,,LACY STREET,595A6,PUBLIC STREET NAMES
5098,LEOLANG,AVE,,LEOLANG AVENUE,503H2,PUBLIC STREET NAMES
5017,LINFORTH,DR,,LINFORTH DRIVE,563G7,PUBLIC STREET NAMES
5237,LARKE ELLEN,CIR,,LARKE ELLEN CIRCLE,632H5,PUBLIC STREET NAMES
455,LONG VALLEY,ROAD,,LONG VALLEY ROAD,559F4,PRIVATE STREET NAMES
10143,LA CUESTA,LANE,,LA CUESTA LANE,561B4,PRIVATE STREET NAMES
4915,LOOKOUT,DR,,LOOKOUT DRIVE,634G1,PUBLIC STREET NAMES
4947,LOMA VERDE,AVE,,LOMA VERDE AVENUE,530C3,PUBLIC STREET NAMES
5209,LAS LUNITAS,AVE,,LAS LUNITAS AVENUE,504A2,PUBLIC STREET NAMES
5217,LAS CRUCES,DR,,LAS CRUCES DRIVE,561H5,PUBLIC STREET NAMES
4820,LYCEUM,AVE,,LYCEUM AVENUE,672B5,PUBLIC STREET NAMES
4816,LYNN,ST,,LYNN STREET,595B3,PUBLIC STREET NAMES
4830,LULU GLEN,DR,,LULU GLEN DRIVE,593A1,PUBLIC STREET NAMES
5284,LAMBIE,ST,,LAMBIE STREET,635B2,PUBLIC STREET NAMES
5026,LINDEN,AVE,,LINDEN AVENUE,671J5,PUBLIC STREET NAMES
4965,LOCKSLEY,PL,,LOCKSLEY PLACE,594E3,PUBLIC STREET NAMES
5204,LAS PULGAS,PL,,LAS PULGAS PLACE,630J4,PUBLIC STREET NAMES
5361,LA AMISTAD,PL,,LA AMISTAD PLACE,560H5,PUBLIC STREET NAMES
5041,LINCOLN HIGH,DR,,LINCOLN HIGH DRIVE,595C7,PUBLIC STREET NAMES
5289,LAMANDA,ST,,LAMANDA STREET,672D4,PUBLIC STREET NAMES
457,LONG BEACH,CT,,LONG BEACH COURT,NA,PRIVATE STREET NAMES
5163,LAVERNA,AVE,,LAVERNA AVENUE,564J6,PUBLIC STREET NAMES
5292,LAKME,AVE,,LAKME AVENUE,794E3,PUBLIC STREET NAMES
4985,LLEWELLYN,ST,,LLEWELLYN STREET,634H2,PUBLIC STREET NAMES
5211,LAS LOMAS,AVE,,LAS LOMAS AVENUE,630J4,PUBLIC STREET NAMES
4922,LONG VALLEY,ROAD,,LONG VALLEY ROAD,559F4,PUBLIC STREET NAMES
5057,LILIENTHAL,AVE,,LILIENTHAL AVENUE,702H3,PUBLIC STREET NAMES
484,LATIMER,LANE,,LATIMER LANE,631C5,PRIVATE STREET NAMES
4941,LOMITAS,DR,,LOMITAS DRIVE,595E3,PUBLIC STREET NAMES
5320,LAGOON,AVE,,LAGOON AVENUE,794D5,PUBLIC STREET NAMES
5126,LEEWARD,AVE,,LEEWARD AVENUE,634A3,PUBLIC STREET NAMES
4969,LOCKLAND,DR,,LOCKLAND DRIVE,673E3,PUBLIC STREET NAMES
470,LEWIS,TER,,LEWIS TERRACE,592J3,PRIVATE STREET NAMES
5144,LE BERTHON,ST,,LE BERTHON STREET,503H2,PUBLIC STREET NAMES
4882,LOS HERMOSOS,WAY,,LOS HERMOSOS WAY,593H2,PUBLIC STREET NAMES
4987,LIZ,CT,,LIZ COURT,529E4,PUBLIC STREET NAMES
5097,LEONA,AVE,,LEONA AVENUE,504B4,PUBLIC STREET NAMES
476,LAVAGNA,WAY,,LAVAGNA WAY,591J4,PRIVATE STREET NAMES
5028,LINDBLADE,ST,,LINDBLADE STREET,672E5,PUBLIC STREET NAMES
5252,LA PUERTA,ST,,LA PUERTA STREET,675C1,PUBLIC STREET NAMES
5010,LINNINGTON,AVE,,LINNINGTON AVENUE,632D4,PUBLIC STREET NAMES
5008,LINWOOD,AVE,,LINWOOD AVENUE,634D4,PUBLIC STREET NAMES
4867,LOUVRE,ST,,LOUVRE STREET,482E7,PUBLIC STREET NAMES
5082,LEVANDA,AVE,,LEVANDA AVENUE,635F1,PUBLIC STREET NAMES
5004,LISBURN,PL,,LISBURN PLACE,480H6,PUBLIC STREET NAMES
5296,LAKE VIEW,TER,WEST,LAKE VIEW TERRACE WEST,594D3,PUBLIC STREET NAMES
5359,LABAIG,AVE,,LABAIG AVENUE,593G4,PUBLIC STREET NAMES
5021,LINDLEY,PL,,LINDLEY PLACE,634F4,PUBLIC STREET NAMES
4896,LORRAINE,WALK,,LORRAINE WALK,674C6,PUBLIC STREET NAMES
5116,LELAND,ST,,LELAND STREET,824A6,PUBLIC STREET NAMES
5248,LARAMIE,AVE,,LARAMIE AVENUE,500D4,PUBLIC STREET NAMES
27,LA PLACITA DE DELORES,,,LA PLACITA DE DELORES,634G3,PEDESTRIAN MALL NAMES
5339,LACONIA,BLVD,,LACONIA BOULEVARD,734B1,PUBLIC STREET NAMES
5081,LEVEN,LANE,,LEVEN LANE,631G2,PUBLIC STREET NAMES
9688,LANGDON,AVE,,LANGDON AVENUE,501G2,UNOFFICIAL PRIVATE STREET NAMES
4955,LOLETA,AVE,,LOLETA AVENUE,565C6,PUBLIC STREET NAMES
5019,LINDSAY,LANE,,LINDSAY LANE,594D4,PUBLIC STREET NAMES
4975,LOCKEARN,ST,,LOCKEARN STREET,631F1,PUBLIC STREET NAMES
5068,LIBERATOR,AVE,,LIBERATOR AVENUE,702F3,PUBLIC STREET NAMES
4943,LOMITA,BLVD,,LOMITA BOULEVARD,794F3,PUBLIC STREET NAMES
5270,LANDER,DR,,LANDER DRIVE,560D4,PUBLIC STREET NAMES
5095,LEONARDO,AVE,,LEONARDO AVENUE,794A4,PUBLIC STREET NAMES
5044,LINCOLN,CT,,LINCOLN COURT,671J5,PUBLIC STREET NAMES
467,LINDBERGH,ST,,LINDBERGH STREET,531E3,PRIVATE STREET NAMES
4854,LUANDA,ST,,LUANDA STREET,482H7,PUBLIC STREET NAMES
5103,LEMOYNE,ST,,LEMOYNE STREET,594E6,PUBLIC STREET NAMES
5277,LANAI,ROAD,,LANAI ROAD,561E5,PUBLIC STREET NAMES
5200,LA SUVIDA,DR,,LA SUVIDA DRIVE,563D7,PUBLIC STREET NAMES
26,LIGHTHOUSE,MALL,,LIGHTHOUSE MALL,701J1,PEDESTRIAN MALL NAMES
5230,LA ROCHA,DR,,LA ROCHA DRIVE,593F2,PUBLIC STREET NAMES
5160,LA VISTA,CT,,LA VISTA COURT,593G7,PUBLIC STREET NAMES
468,LIME ORCHARD,ROAD,,LIME ORCHARD ROAD,592F1,PRIVATE STREET NAMES
5362,LA ALAMEDA,AL,,LA ALAMEDA ALLEY,824A5,PUBLIC STREET NAMES
4956,LOIS,LANE,,LOIS LANE,823J5,PUBLIC STREET NAMES
5109,LEMMER,DR,,LEMMER DRIVE,560G6,PUBLIC STREET NAMES
10599,LAVY,CT,,LAVY COURT,560G1,PRIVATE STREET NAMES
5022,LINDLEY,AVE,,LINDLEY AVENUE,501A2,PUBLIC STREET NAMES
4929,LONGBOW,DR,,LONGBOW DRIVE,561G7,PUBLIC STREET NAMES
466,LINDIE,LANE,,LINDIE LANE,482C4,PRIVATE STREET NAMES
4990,LIVINGSTONE,AVE,,LIVINGSTONE AVENUE,594J7,PUBLIC STREET NAMES
5085,LESTER,LANE,,LESTER LANE,529F2,PUBLIC STREET NAMES
5314,LA JUNTA,TR,,LA JUNTA TRAIL,529E1,PUBLIC STREET NAMES
10191,LORNA,CT,,LORNA COURT,631H3,PRIVATE STREET NAMES
5000,LITHUANIA,DR,,LITHUANIA DRIVE,481C5,PUBLIC STREET NAMES
4978,LOCHGREEN,DR,,LOCHGREEN DRIVE,560F6,PUBLIC STREET NAMES
10707,LOSETO,LANE,,LOSETO LANE,502G7,PRIVATE STREET NAMES
5040,LINCOLN HIGH,PL,,LINCOLN HIGH PLACE,595C7,PUBLIC STREET NAMES
5050,LIMEDALE,ST,,LIMEDALE STREET,501J6,PUBLIC STREET NAMES
5036,LINDA FLORA,DR,,LINDA FLORA DRIVE,591H3,PUBLIC STREET NAMES
5137,LEDEEN,DR,,LEDEEN DRIVE,503A1,PUBLIC STREET NAMES
4849,LUCERNE,AVE,,LUCERNE AVENUE,633D6,PUBLIC STREET NAMES
4838,LUCRETIA,AVE,,LUCRETIA AVENUE,594E6,PUBLIC STREET NAMES
10821,LUTE,LANE,,LUTE LANE,794A1,LIMITED ACCESS AREA NAMES
10852,LOGAN,LANE,,LOGAN LANE,560G1,PRIVATE STREET NAMES
4833,LUISA,ST,,LUISA STREET,635A2,PUBLIC STREET NAMES
5128,LEESCOTT,AVE,,LEESCOTT AVENUE,531C4,PUBLIC STREET NAMES
4994,LIVE OAK,DR,EAST,LIVE OAK DRIVE EAST,593H2,PUBLIC STREET NAMES
4902,LORETO,ST,,LORETO STREET,594J6,PUBLIC STREET NAMES
4992,LIVE OAK VIEW,AVE,,LIVE OAK VIEW AVENUE,564J5,PUBLIC STREET NAMES
5302,LAKERIDGE,ROAD,,LAKERIDGE ROAD,593D1,PUBLIC STREET NAMES
4912,LOOSMORE,ST,,LOOSMORE STREET,594H5,PUBLIC STREET NAMES
5328,LA DUE,WAY,,LA DUE WAY,595D4,PUBLIC STREET NAMES
4918,LONGWOOD,PL,,LONGWOOD PLACE,633E3,PUBLIC STREET NAMES
4826,LUNSFORD,DR,,LUNSFORD DRIVE,565D5,PUBLIC STREET NAMES
5249,LARAINE,CIR,,LARAINE CIRCLE,823H4,PUBLIC STREET NAMES
5324,LAFLER,ROAD,,LAFLER ROAD,635F1,PUBLIC STREET NAMES
5039,LINCOLN PARK,AVE,,LINCOLN PARK AVENUE,595B7,PUBLIC STREET NAMES
9757,LOCKNESS,PL,,LOCKNESS PLACE,793J1,PUBLIC STREET NAMES
5038,LINDA,TER,,LINDA TERRACE,630H5,PUBLIC STREET NAMES
5190,LA TUNA CANYON,ROAD,,LA TUNA CANYON ROAD,504A6,PUBLIC STREET NAMES
5113,LEMAC,ST,,LEMAC STREET,531G3,PUBLIC STREET NAMES
5267,LANFRANCO,ST,,LANFRANCO STREET,635B6,PUBLIC STREET NAMES
5283,LA MESA,ST,,LA MESA STREET,481H2,PUBLIC STREET NAMES
5014,LINNET,ST,,LINNET STREET,560F2,PUBLIC STREET NAMES
5075,LEXICON,PL,,LEXICON PLACE,482C2,PUBLIC STREET NAMES
5354,LA CALANDRIA,DR,,LA CALANDRIA DRIVE,595E7,PUBLIC STREET NAMES
453,LORNE,ST,,LORNE STREET,NA,PRIVATE STREET NAMES
9956,LONGRIDGE ESTATES,DR,,LONGRIDGE ESTATES DRIVE,562D7,PUBLIC STREET NAMES
10962,LAS VEGAS,ST,,LAS VEGAS STREET,634J4,PUBLIC STREET NAMES
4919,LONGWOOD,AVE,,LONGWOOD AVENUE,633E3,PUBLIC STREET NAMES
5316,LAHEY,ST,,LAHEY STREET,501A2,PUBLIC STREET NAMES
4934,LONG BEACH,AVE,,LONG BEACH AVENUE,634G7,PUBLIC STREET NAMES
10905,LINSCOTT,PL,,LINSCOTT PLACE,673C1,PRIVATE ROADWAY NAMES
5166,LAVA,TR,,LAVA TRAIL,529E1,PUBLIC STREET NAMES
5293,LAKEWOOD,AVE,,LAKEWOOD AVENUE,594D3,PUBLIC STREET NAMES
5043,LINCOLN,TER,,LINCOLN TERRACE,593A5,PUBLIC STREET NAMES
4815,LYNNFIELD,CIR,,LYNNFIELD CIRCLE,595E7,PUBLIC STREET NAMES
5274,LANCASTER,AVE,,LANCASTER AVENUE,635C3,PUBLIC STREET NAMES
4949,LOMA LADA,WALK,,LOMA LADA WALK,594J3,PUBLIC STREET NAMES
4966,LOCKRIDGE,ROAD,,LOCKRIDGE ROAD,562G7,PUBLIC STREET NAMES
10944,LANI VEST POCKET,PARK,,LANI VEST POCKET PARK,635A5,PEDESTRIAN MALL NAMES
4904,LORENZO,DR,,LORENZO DRIVE,593E2,PUBLIC STREET NAMES
458,LONG BEACH,AVE,,LONG BEACH AVENUE,674G4,PRIVATE STREET NAMES
4950,LOMA LADA,DR,,LOMA LADA DRIVE,594H3,PUBLIC STREET NAMES
5243,LA REINA,DR,,LA REINA DRIVE,504C6,PUBLIC STREET NAMES
5110,LEMAY,ST,,LEMAY STREET,533A6,PUBLIC STREET NAMES
4865,LOVELAND,DR,,LOVELAND DRIVE,594J2,PUBLIC STREET NAMES
5077,LEWIS,ST,,LEWIS STREET,595E1,PUBLIC STREET NAMES
5023,LINDENWOOD,LANE,,LINDENWOOD LANE,631F1,PUBLIC STREET NAMES
5315,LA JOLLA,AVE,,LA JOLLA AVENUE,593A7,PUBLIC STREET NAMES
5338,LACONIA,PL,,LACONIA PLACE,734B1,PUBLIC STREET NAMES
5106,LEMONA,AVE,,LEMONA AVENUE,501H3,PUBLIC STREET NAMES
5308,LAKE GLEN,DR,,LAKE GLEN DRIVE,562E7,PUBLIC STREET NAMES
10498,LOIS,CT,,LOIS COURT,481A7,PRIVATE STREET NAMES
5073,LEY,DR,,LEY DRIVE,594B2,PUBLIC STREET NAMES
5086,LESNY,ST,,LESNY STREET,503A1,PUBLIC STREET NAMES
5011,LINNIE CANAL,CT,,LINNIE CANAL COURT,671H6,PUBLIC STREET NAMES
5071,LIAHONA,PL,,LIAHONA PLACE,559G4,PUBLIC STREET NAMES
5027,LINDBROOK,DR,,LINDBROOK DRIVE,632C2,PUBLIC STREET NAMES
4964,LOCKSLEY,PL,,LOCKSLEY PLACE,593G2,PUBLIC STREET NAMES
5157,LAWNDALE,DR,,LAWNDALE DRIVE,564H6,PUBLIC STREET NAMES
5172,LAURENT,ST,,LAURENT STREET,500C2,PUBLIC STREET NAMES
5197,LA TIERRA,CT,,LA TIERRA COURT,480H7,PUBLIC STREET NAMES
5312,LAKE,ST,,LAKE STREET,634D1,PUBLIC STREET NAMES
5187,LAUREL,LANE,,LAUREL LANE,562G6,PUBLIC STREET NAMES
5104,LEMON GROVE,AVE,,LEMON GROVE AVENUE,593H6,PUBLIC STREET NAMES
4892,LOS ANGELES,ST,,LOS ANGELES STREET,634G3,PUBLIC STREET NAMES
5205,LAS PLUMAS,LANE,,LAS PLUMAS LANE,504A5,PUBLIC STREET NAMES
4879,LOS OLIVOS,ST,,LOS OLIVOS STREET,501H2,PUBLIC STREET NAMES
461,LOMITAS,DR,,LOMITAS DRIVE,NA,PRIVATE STREET NAMES
10571,LOST TRAIL,AVE,,LOST TRAIL AVENUE,503A2,PRIVATE STREET NAMES
10607,LIVORNO,WAY,,LIVORNO WAY,480C6,PRIVATE ROADWAY NAMES
4889,LOS DIEGOS,WAY,,LOS DIEGOS WAY,593H3,PUBLIC STREET NAMES
5122,LE GRANDE,TER,,LE GRANDE TERRACE,823J6,PUBLIC STREET NAMES
4909,LORAE,PL,,LORAE PLACE,593G2,PUBLIC STREET NAMES
5222,LAS ALTURAS,ST,,LAS ALTURAS STREET,593C1,PUBLIC STREET NAMES
5281,LAMKINS,ST,,LAMKINS STREET,503A7,PUBLIC STREET NAMES
5048,LIMEROCK,TR,,LIMEROCK TRAIL,529E1,PUBLIC STREET NAMES
5259,LANTANA,DR,,LANTANA DRIVE,565E7,PUBLIC STREET NAMES
4811,LYRIC,AVE,,LYRIC AVENUE,594C3,PUBLIC STREET NAMES
5171,LAURIE,DR,,LAURIE DRIVE,562J6,PUBLIC STREET NAMES
488,LANTANA,TER,,LANTANA TERRACE,NA,PRIVATE STREET NAMES
5333,LA CUMBRE,DR,,LA CUMBRE DRIVE,631B7,PUBLIC STREET NAMES
5121,LE GRAY,AVE,,LE GRAY AVENUE,595C1,PUBLIC STREET NAMES
5352,LA CANADA,PL,,LA CANADA PLACE,503D3,PUBLIC STREET NAMES
4836,LUDLOW,ST,,LUDLOW STREET,501G2,PUBLIC STREET NAMES
5212,LASLEY,WALK,,LASLEY WALK,595B4,PUBLIC STREET NAMES
5005,LISBON,LANE,,LISBON LANE,592A4,PUBLIC STREET NAMES
4814,LYNNFIELD,ST,,LYNNFIELD STREET,595D7,PUBLIC STREET NAMES
4957,LOIS,AVE,,LOIS AVENUE,824A3,PUBLIC STREET NAMES
5331,LADD,AVE,,LADD AVENUE,595E7,PUBLIC STREET NAMES
5129,LEEDY,AVE,,LEEDY AVENUE,482B1,PUBLIC STREET NAMES
5100,LENAWEE,AVE,,LENAWEE AVENUE,673A1,PUBLIC STREET NAMES
5059,LILAC,PL,,LILAC PLACE,634F1,PUBLIC STREET NAMES
4893,LOS ALTOS,PL,,LOS ALTOS PLACE,593D3,PUBLIC STREET NAMES
5149,LEADWELL,ST,,LEADWELL STREET,533A4,PUBLIC STREET NAMES
487,LA PALOMA,AVE,,LA PALOMA AVENUE,824E2,PRIVATE STREET NAMES
4983,LLOYD,LANE,,LLOYD LANE,NA,PUBLIC STREET NAMES
5336,LA CRESTA,CT,,LA CRESTA COURT,593H6,PUBLIC STREET NAMES
5272,LANDA,ST,,LANDA STREET,594F5,PUBLIC STREET NAMES
4866,LOVELACE,AVE,,LOVELACE AVENUE,634C6,PUBLIC STREET NAMES
5258,LANTERMAN,TER,,LANTERMAN TERRACE,594C3,PUBLIC STREET NAMES
4999,LITHUANIA,PL,,LITHUANIA PLACE,481C5,PUBLIC STREET NAMES
5141,LE CLAIRE,PL,,LE CLAIRE PLACE,633F3,PUBLIC STREET NAMES
5193,LATIN,WAY,,LATIN WAY,594J2,PUBLIC STREET NAMES
5317,LAGUNA,AVE,,LAGUNA AVENUE,594E7,PUBLIC STREET NAMES
5142,LECHNER,PL,,LECHNER PLACE,593G1,PUBLIC STREET NAMES
472,LEMP,AVE,,LEMP AVENUE,532H5,PRIVATE STREET NAMES
5265,LANGDON,AVE,,LANGDON AVENUE,501G2,PUBLIC STREET NAMES
5238,LARK,LANE,,LARK LANE,593A3,PUBLIC STREET NAMES
5175,LAUREL VIEW,DR,,LAUREL VIEW DRIVE,593A4,PUBLIC STREET NAMES
4874,LOTUS,ST,,LOTUS STREET,595A5,PUBLIC STREET NAMES
5356,LABRADOR,ST,,LABRADOR STREET,501J5,PUBLIC STREET NAMES
4971,LOCKHEED,DR,,LOCKHEED DRIVE,533C3,PUBLIC STREET NAMES
4877,LOS ROBLES,ST,,LOS ROBLES STREET,565C6,PUBLIC STREET NAMES
4837,LUDDINGTON,ST,,LUDDINGTON STREET,503A7,PUBLIC STREET NAMES
5140,LE CONTE,AVE,,LE CONTE AVENUE,632C2,PUBLIC STREET NAMES
5343,LA CIENEGA,PL,,LA CIENEGA PLACE,633A7,PUBLIC STREET NAMES
4825,LUPIN,TER,,LUPIN TERRACE,595B6,PUBLIC STREET NAMES
5159,LAWLEN,WAY,,LAWLEN WAY,592E5,PUBLIC STREET NAMES
4834,LUGO,ST,,LUGO STREET,675A1,PUBLIC STREET NAMES
494,LAKE CREST,LANE,,LAKE CREST LANE,NA,PRIVATE STREET NAMES
4927,LONGFELLOW,ST,,LONGFELLOW STREET,595C3,PUBLIC STREET NAMES
9973,LANCELOT,LANE,,LANCELOT LANE,591G3,PRIVATE STREET NAMES
4946,LOMA VISTA,PL,,LOMA VISTA PLACE,594E5,PUBLIC STREET NAMES
5329,LADRILLO,ST,,LADRILLO STREET,559F2,PUBLIC STREET NAMES
5047,LIMESTONE,PL,,LIMESTONE PLACE,561J6,PUBLIC STREET NAMES
5294,LAKE VISTA,DR,,LAKE VISTA DRIVE,561A6,PUBLIC STREET NAMES
5130,LEEDS,AVE,,LEEDS AVENUE,794H5,PUBLIC STREET NAMES
489,LANIGAN,AVE,,LANIGAN AVENUE,503B7,PRIVATE STREET NAMES
463,LIVINGSTON,WAY,,LIVINGSTON WAY,593A4,PRIVATE STREET NAMES
5301,LAKE SHORE,AVE,,LAKE SHORE AVENUE,594E5,PUBLIC STREET NAMES
5353,LA CALANDRIA,WAY,,LA CALANDRIA WAY,595E7,PUBLIC STREET NAMES
5280,LAMONT,DR,,LAMONT DRIVE,595D2,PUBLIC STREET NAMES
4908,LORD,ST,,LORD STRET,635A3,PUBLIC STREET NAMES
5261,LANSDOWNE,AVE,,LANSDOWNE AVENUE,635F1,PUBLIC STREET NAMES
5065,LIEBE,DR,,LIEBE DRIVE,592B2,PUBLIC STREET NAMES
4862,LOWE,ST,,LOWE STREET,594F4,PUBLIC STREET NAMES
5034,LINDAMERE,PL,,LINDAMERE PLACE,591J4,PUBLIC STREET NAMES
5147,LEANDER,PL,,LEANDER PLACE,592G2,PUBLIC STREET NAMES
5024,LINDENHURST,AVE,,LINDENHURST AVENUE,633A2,PUBLIC STREET NAMES
5115,LELAND,WAY,,LELAND WAY,593D5,PUBLIC STREET NAMES
9824,LAURA,LANE,,LAURA LANE,530G5,PRIVATE STREET NAMES
4916,LONZO,ST,,LONZO STREET,504A2,PUBLIC STREET NAMES
5112,LEMARSH,ST,,LEMARSH STREET,501G4,PUBLIC STREET NAMES
4824,LURIE,PL,,LURIE PLACE,500H3,PUBLIC STREET NAMES
4868,LOUVAIN,LANE,,LOUVAIN LANE,NA,PUBLIC STREET NAMES
5124,LEGHORN,AVE,,LEGHORN AVENUE,562E2,PUBLIC STREET NAMES
4960,LODI,PL,,LODI PLACE,593F5,PUBLIC STREET NAMES
10697,LUGANO,WAY,,LUGANO WAY,500C1,PRIVATE STREET NAMES
4954,LOLETA,PL,,LOLETA PLACE,565C7,PUBLIC STREET NAMES
4988,LIVORNO,DR,,LIVORNO DRIVE,630G6,PUBLIC STREET NAMES
4813,LYNTON,AVE,,LYNTON AVENUE,794C4,PUBLIC STREET NAMES
10398,LAUREL CANYON,ROAD,,LAUREL CANYON ROAD,593A3,PUBLIC STREET NAMES
5239,LARK,CT,,LARK COURT,595A3,PUBLIC STREET NAMES
10653,LAURA ANN,LANE,,LAURA ANN LANE,531J4,PRIVATE STREET NAMES
4942,LOMITA,ST,,LOMITA STREET,633E5,PUBLIC STREET NAMES
5291,LA LOMA,ROAD,,LA LOMA ROAD,565D6,PUBLIC STREET NAMES
5215,LAS FLORES,DR,,LAS FLORES DRIVE,565A5,PUBLIC STREET NAMES
5131,LEE,ST,,LEE STREET,635C7,PUBLIC STREET NAMES
4986,LLANO,DR,,LLANO DRIVE,559J3,PUBLIC STREET NAMES
5096,LEONARD,ROAD,,LEONARD ROAD,631E1,PUBLIC STREET NAMES
5341,LACLEDE,AVE,,LACLEDE AVENUE,564D7,PUBLIC STREET NAMES
10819,LINFIELD,LANE,,LINFIELD LANE,500A3,PRIVATE ROADWAY NAMES
4940,LOMOND,AVE,,LOMOND AVENUE,632C1,PUBLIC STREET NAMES
4963,LOCKWOOD,AVE,,LOCKWOOD AVENUE,594A6,PUBLIC STREET NAMES
5185,LAUREL CANYON,BLVD,,LAUREL CANYON BOULEVARD,481H6,PUBLIC STREET NAMES
4961,LODGE,AVE,,LODGE AVENUE,595D4,PUBLIC STREET NAMES
4872,LOUELLA,AVE,,LOUELLA AVENUE,671J3,PUBLIC STREET NAMES
5323,LA FOLLETTE,DR,,LA FOLLETTE DRIVE,595D2,PUBLIC STREET NAMES
5161,LA VILLA MARINA,,,LA VILLA MARINA,672C7,PUBLIC STREET NAMES
4897,LORRAINE,BLVD,,LORRAINE BOULEVARD,633G3,PUBLIC STREET NAMES
5084,LETA,ST,,LETA STREET,674F2,PUBLIC STREET NAMES
5079,LEVICO,WAY,,LEVICO WAY,591J5,PUBLIC STREET NAMES
5295,LAKE VISTA,CT,,LAKE VISTA COURT,561A6,PUBLIC STREET NAMES
446,LUY,ROAD,,LUY ROAD,672E2,PRIVATE STREET NAMES
492,LANCER,CT,,LANCER COURT,592B3,PRIVATE STREET NAMES
5334,LA CUESTA,DR,,LA CUESTA DRIVE,593B1,PUBLIC STREET NAMES
4924,LONGRIDGE,PL,,LONGRIDGE PLACE,562D7,PUBLIC STREET NAMES
4917,LONGWORTH,DR,,LONGWORTH DRIVE,631D4,PUBLIC STREET NAMES
5045,LINCOLN,BLVD,,LINCOLN BOULEVARD,671H4,PUBLIC STREET NAMES
5247,LARAMIE,PL,,LARAMIE PLACE,500D4,PUBLIC STREET NAMES
4856,LOYAL,TR,,LOYAL TRAIL,593D1,PUBLIC STREET NAMES
5350,LA CANADA,WAY,,LA CANADA WAY,503C3,PUBLIC STREET NAMES
4930,LONGBOW,CT,,LONGBOW COURT,561H7,PUBLIC STREET NAMES
5325,LA FAYETTE PARK,PL,,LA FAYETTE PARK PLACE,594C7,PUBLIC STREET NAMES
5177,LAUREL TERRACE,DR,,LAUREL TERRACE DRIVE,562F6,PUBLIC STREET NAMES
4958,LOGANDALE,DR,,LOGANDALE DRIVE,593F2,PUBLIC STREET NAMES
5058,LILAC,TER,,LILAC TERRACE,634F1,PUBLIC STREET NAMES
4817,LYMAN,PL,,LYMAN PLACE,594A4,PUBLIC STREET NAMES
493,LANAI,DR,,LANAI DRIVE,561E5,PRIVATE STREET NAMES
4890,LOS CABALLEROS,WAY,,LOS CABALLEROS WAY,593H3,PUBLIC STREET NAMES
5111,LEMAY,PL,,LEMAY PLACE,531B6,PUBLIC STREET NAMES
5229,LA RODA,AVE,,LA RODA AVENUE,565B5,PUBLIC STREET NAMES
5136,LEDERER,AVE,,LEDERER AVENUE,529F6,PUBLIC STREET NAMES
5221,LAS CANOAS,ROAD,,LAS CANOAS ROAD,630J4,PUBLIC STREET NAMES
5179,LAURELMONT,DR,,LAURELMONT DRIVE,593A2,PUBLIC STREET NAMES
5090,LEROY,ST,,LEROY STREET,634H2,PUBLIC STREET NAMES
5287,LAMBERT,DR,,LAMBERT DRIVE,593G2,PUBLIC STREET NAMES
5145,LEBANON,ST,,LEBANON STREET,634E4,PUBLIC STREET NAMES
9690,LIGHTHOUSE,ST,,LIGHTHOUSE STREET,NA,UNOFFICIAL PRIVATE STREET NAMES
4888,LOS ENCANTOS,WAY,,LOS ENCANTOS WAY,593H3,PUBLIC STREET NAMES
5105,LEMONCREST,AVE,,LEMONCREST AVENUE,503B1,PUBLIC STREET NAMES
4885,LOS FELIZ,PL,,LOS FELIZ PLACE,564D7,PUBLIC STREET NAMES
4839,LUCITA,CT,,LUCITA COURT,NA,PUBLIC STREET NAMES
10311,L. RON HUBBARD,WAY,,L. RON HUBBARD WAY,594A4,PUBLIC STREET NAMES
5255,LAPEER,DR,,LAPEER DRIVE,632H1,PUBLIC STREET NAMES
9756,LILLY,CT,,LILLY COURT,500J6,PRIVATE STREET NAMES
5213,LASH,LANE,,LASH LANE,593D2,PUBLIC STREET NAMES
5202,LASSEN,ST,,LASSEN STREET,501J5,PUBLIC STREET NAMES
4864,LOVELANE,PL,,LOVELANE PLACE,632F6,PUBLIC STREET NAMES
5025,LINDEN,CT,,LINDEN COURT,671J5,PUBLIC STREET NAMES
10502,LMU,DR,,LMU DRIVE,702D2,PRIVATE STREET NAMES
4871,LOUISE,AVE,,LOUISE AVENUE,672D5,PUBLIC STREET NAMES
5168,LAUSANNE,ROAD,,LAUSANNE ROAD,592A6,PUBLIC STREET NAMES
5220,LAS CASAS,AVE,,LAS CASAS AVENUE,630H6,PUBLIC STREET NAMES
9693,LUDLOW,ST,,LUDLOW STREET,501G2,UNOFFICIAL PRIVATE STREET NAMES
5069,LIBBY,WAY,,LIBBY WAY,593G2,PUBLIC STREET NAMES
4855,LOYOLA,BLVD,,LOYOLA BOULEVARD,702E2,PUBLIC STREET NAMES
5032,LINDA VIEW,PL,,LINDA VIEW PLACE,504A1,PUBLIC STREET NAMES
450,LOWDER,ST,,LOWDER STREET,592B4,PRIVATE STREET NAMES
4984,LLOYD,AVE,,LLOYD AVENUE,532D3,PUBLIC STREET NAMES
4977,LOCHRIN,LANE,,LOCHRIN LANE,482C1,PUBLIC STREET NAMES
4891,LOS BONITOS,WAY,,LOS BONITOS WAY,593H3,PUBLIC STREET NAMES
4832,LULL,ST,,LULL STREET,533C3,PUBLIC STREET NAMES
4979,LOBOS,ROAD,,LOBOS ROAD,560B5,PUBLIC STREET NAMES
5072,LEYDON,AVE,,LEYDON AVENUE,559G5,PUBLIC STREET NAMES
5062,LIGHTHOUSE,CT,,LIGHTHOUSE COURT,701J1,PUBLIC STREET NAMES
4935,LONG,ST,,LONG STREET,673E6,PUBLIC STREET NAMES
5083,LEV,AVE,,LEV AVENUE,501H1,PUBLIC STREET NAMES
5037,LINDACREST,DR,,LINDACREST DRIVE,592F5,PUBLIC STREET NAMES
5244,LARGA,AVE,,LARGA AVENUE,594E2,PUBLIC STREET NAMES
5235,LARKIN,PL,,LARKIN PLACE,631C6,PUBLIC STREET NAMES
5219,LAS CASAS,PL,,LAS CASAS PLACE,630H4,PUBLIC STREET NAMES
10198,LA TIJERA,PKWY,,LA TIJERA PARKWAY,702G3,PUBLIC STREET NAMES
5013,LINNIE,AVE,,LINNIE AVENUE,671H6,PUBLIC STREET NAMES
5156,LAWRENCE,AVE,,LAWRENCE AVENUE,794J6,PUBLIC STREET NAMES
5029,LINDBLADE,PL,,LINDBLADE PLACE,672E5,PUBLIC STREET NAMES
4886,LOS FELIZ,BLVD,,LOS FELIZ BOULEVARD,564D7,PUBLIC STREET NAMES
10190,LASSEN,CT,,LASSEN COURT,501B5,PRIVATE STREET NAMES
9821,LEGACY,CT,,LEGACY COURT,559H3,PUBLIC STREET NAMES
5327,LA FALDA,PL,,LA FALDA PLACE,563D7,PUBLIC STREET NAMES
10701,LIMERICK,AVE,,LIMERICK AVENUE,500C3,PRIVATE STREET NAMES
4959,LOGAN,ST,,LOGAN STREET,594E7,PUBLIC STREET NAMES
4980,LOBDELL,PL,,LOBDELL PLACE,594E6,PUBLIC STREET NAMES
5020,LINDO,ST,,LINDO STREET,563D7,PUBLIC STREET NAMES
5189,LAUGHTON,WAY,,LAUGHTON WAY,480J6,PUBLIC STREET NAMES
4810,LYSTER,AVE,,LYSTER AVENUE,480H7,PUBLIC STREET NAMES
5078,LEVITT,LANE,,LEVITT LANE,561J5,PUBLIC STREET NAMES
5076,LEXICON,AVE,,LEXICON AVENUE,582C1,PUBLIC STREET NAMES
5088,LESLIE,WAY,,LESLIE WAY,595C3,PUBLIC STREET NAMES
5174,LAUREL,WAY,,LAUREL WAY,592E5,PUBLIC STREET NAMES
5201,LA SUBIDA,PL,,LA SUBIDA PLACE,560J4,PUBLIC STREET NAMES
497,LA CANADA,WAY,,LA CANADA WAY,503B4,PRIVATE STREET NAMES
4873,LOU-DILLON,AVE,,LOU-DILLON AVENUE,704H5,PUBLIC STREET NAMES
5183,LAURELCREST,DR,,LAURELCREST DRIVE,562H6,PUBLIC STREET NAMES
454,LORNA,LANE,,LORNA LANE,631H3,PRIVATE STREET NAMES
5206,LAS PILAS,ROAD,,LAS PILAS ROAD,560B5,PUBLIC STREET NAMES
5306,LAKELAND,TR,,LAKELAND TRAIL,529E1,PUBLIC STREET NAMES
5007,LIONEL,PL,,LIONEL PLACE,530C6,PUBLIC STREET NAMES
9691,LOMAS VERDES,,,LOMAS VERDES,823F7,UNOFFICIAL PRIVATE STREET NAMES
4982,LLOYDCREST,DR,,LLOYDCREST DRIVE,592F4,PUBLIC STREET NAMES
4953,LOLINA,LANE,,LOLINA LANE,593B1,PUBLIC STREET NAMES
4936,LONDONDERRY,PL,,LONDONDERRY PLACE,592J5,PUBLIC STREET NAMES
451,LOS NIETOS,DR,,LOS NIETOS DRIVE,594B3,PRIVATE STREET NAMES
4981,LOADSTONE,DR,,LOADSTONE DRIVE,561H7,PUBLIC STREET NAMES
4972,LOCKHAVEN,AVE,,LOCKHAVEN AVENUE,564J5,PUBLIC STREET NAMES
4863,LOVETT,PL,,LOVETT PLACE,561E4,PUBLIC STREET NAMES
5279,LA MONTANA,CIR,,LA MONTANA CIRCLE,560H4,PUBLIC STREET NAMES
5087,LESNER,AVE,,LESNER AVENUE,531C2,PUBLIC STREET NAMES
5351,LA CANADA,WALK,,LA CANADA WALK,503D3,PUBLIC STREET NAMES
464,LITTLE PARK,LANE,,LITTLE PARK LANE,631G3,PRIVATE STREET NAMES
9589,LASHBURN,ST,,LASHBURN STREET,481J7,PUBLIC STREET NAMES
5051,LIMA,ST,,LIMA STREET,674F3,PUBLIC STREET NAMES
10953,LAYTON,WAY,,LAYTON WAY,631G1,PRIVATE STREET NAMES
5307,LAKE HOLLYWOOD,DR,,LAKE HOLLYWOOD DRIVE,563D7,PUBLIC STREET NAMES
4976,LOCKE,AVE,,LOCKE AVENUE,595E5,PUBLIC STREET NAMES
5231,LARNED,LANE,,LARNED LANE,592A4,PUBLIC STREET NAMES
4899,LORNA,LANE,,LORNA LANE,631H4,PUBLIC STREET NAMES
4911,LOPEZ,ST,,LOPEZ STREET,560A3,PUBLIC STREET NAMES
4812,LYON,ST,,LYON STREET,634H3,PUBLIC STREET NAMES
5143,LECCO,LANE,,LECCO LANE,630F6,PUBLIC STREET NAMES
4898,LORNE,ST,,LORNE STREET,533B2,PUBLIC STREET NAMES
5285,LAMBETH,ST,,LAMBETH STREET,594C2,PUBLIC STREET NAMES
5227,LARRYAN,DR,,LARRYAN DRIVE,559E1,PUBLIC STREET NAMES
5313,LAKE,DR,,LAKE DRIVE,593E3,PUBLIC STREET NAMES
4937,LONDON,ST,,LONDON STREET,594B7,PUBLIC STREET NAMES
481,LAUGHLIN,CT,,LAUGHLIN COURT,634G5,PRIVATE STREET NAMES
5138,LEDAN,ST,,LEDAN STREET,500H7,PUBLIC STREET NAMES
10454,LONGACRE,AVE,,LONGACRE AVENUE,480H5,PUBLIC STREET NAMES
4823,LURLINE,AVE,,LURLINE AVENUE,500C2,PUBLIC STREET NAMES
478,LAURELCREST,ROAD,,LAURELCREST ROAD,562H6,PRIVATE STREET NAMES
4850,LUCCA,DR,,LUCCA DRIVE,631D4,PUBLIC STREET NAMES
4967,LOCKNESS,AVE,,LOCKNESS AVENUE,793J1,PUBLIC STREET NAMES
5273,LANCE,PL,,LANCE PLACE,529E5,PUBLIC STREET NAMES
4933,LONG BEACH,AVE,EAST,LONG BEACH AVENUE EAST,674G1,PUBLIC STREET NAMES
11012,LAUGHLIN,LANE,,LAUGHLIN LANE,532J6,LIMITED ACCESS AREA NAMES
11008,LANTERN,CT,,LANTERN COURT,702E1,PRIVATE ROADWAY NAMES
4952,LOMA,DR,,LOMA DRIVE,634D2,PUBLIC STREET NAMES
5181,LAUREL GROVE,CT,,LAUREL GROVE COURT,532F4,PUBLIC STREET NAMES
5245,LARCHWOOD,CIR,,LARCHWOOD CIRCLE,529F6,PUBLIC STREET NAMES
5346,LACHMAN,LANE,,LACHMAN LANE,630G3,PUBLIC STREET NAMES
490,LANIA,LANE,,LANIA LANE,592F4,PRIVATE STREET NAMES
5191,LATROBE,ST,,LATROBE STREET,595C5,PUBLIC STREET NAMES
5089,LE SAGE,AVE,,LE SAGE AVENUE,529F7,PUBLIC STREET NAMES
5254,LA PRADA,,,LA PRADA,565D7,PUBLIC STREET NAMES
4887,LOS ENCINOS,WAY,,LOS ENCINOS WAY,559F3,PUBLIC STREET NAMES
9775,LISA,LANE,,LISA LANE,480E6,PUBLIC STREET NAMES
4931,LONG BEACH,FRWY,,LONG BEACH FREEWAY,635G2,PUBLIC STREET NAMES
5223,LA SALLE,AVE,,LA SALLE AVENUE,633J6,PUBLIC STREET NAMES
4881,LOS LIONES,DR,,LOS LIONES DRIVE,630F5,PUBLIC STREET NAMES
4809,LYTELLE,PL,,LYTELLE PLACE,564J7,PUBLIC STREET NAMES
4829,LUNA,PL,,LUNA PLACE,481C5,PUBLIC STREET NAMES
5155,LAWRENCE,LANE,,LAWRENCE LANE,592C6,PUBLIC STREET NAMES
10395,LOCKRIDGE ESTATE,ROAD,,LOCKRIDGE ESTATE ROAD,592D1,PRIVATE STREET NAMES
5120,LEHIGH,AVE,,LEHIGH AVENUE,502C1,PUBLIC STREET NAMES
4842,LUCILE,ST,,LUCILE STREET,672F6,PUBLIC STREET NAMES
485,LASSEN,ST,,LASSEN STREET,501A5,PRIVATE STREET NAMES
4857,LOY,LANE,,LOY LANE,564J5,PUBLIC STREET NAMES
4907,LORENA,ST,,LORENA STREET,635C5,PUBLIC STREET NAMES
10744,LOS OLIVOS,ROAD,,LOS OLIVOS ROAD,481G3,PUBLIC STREET NAMES
5241,LA RIBA,WAY,,LA RIBA WAY,595D2,PUBLIC STREET NAMES
4843,LUCILE,AVE,,LUCILE AVENUE,594C5,PUBLIC STREET NAMES
9792,LINDENHURST,AVE,,LINDENHURST AVENUE,633C2,PRIVATE STREET NAMES
5299,LAKESIDE,ST,,LAKESIDE STREET,482A2,PUBLIC STREET NAMES
5186,LAUREL,PASS,,LAUREL PASS,592H1,PUBLIC STREET NAMES
5151,LAZARD,ST,,LAZARD STREET,482E2,PUBLIC STREET NAMES
4822,LUTHER,ST,,LUTHER STREET,595C6,PUBLIC STREET NAMES
4973,LOCKFORD,ST,,LOCKFORD STREET,632G4,PUBLIC STREET NAMES
5250,LARA,ST,,LARA STREET,635C4,PUBLIC STREET NAMES
5342,LA CIENEGA WESTWAY,,,LA CIENEGA WESTWAY,673A7,PUBLIC STREET NAMES
5326,LA FAYETTE,ROAD,,LA FAYETTE ROAD,633E5,PUBLIC STREET NAMES
5030,LINDBLADE,DR,,LINDBLADE DRIVE,672D5,PUBLIC STREET NAMES
5309,LAKE FRANKLIN,DR,,LAKE FRANKLIN DRIVE,592E4,PUBLIC STREET NAMES
5055,LILLIAN,WAY,,LILLIAN WAY,593F7,PUBLIC STREET NAMES
5192,LATONA,AVE,,LATONA AVENUE,595B5,PUBLIC STREET NAMES
10952,LAYTON,DR,,LAYTON  DRIVE,631G1,PRIVATE STREET NAMES
5164,LAVELL,DR,,LAVELL DRIVE,594H2,PUBLIC STREET NAMES
5360,LA AMISTAD,WAY,,LA AMISTAD WAY,560H5,PUBLIC STREET NAMES
5311,LAKE,ST,,LAKE STREET,672A3,PUBLIC STREET NAMES
4970,LOCKHURST,DR,,LOCKHURST DRIVE,529E7,PUBLIC STREET NAMES
5224,LASAINE,AVE,,LASAINE AVENUE,501B2,PUBLIC STREET NAMES
4844,LUCERO,PL,,LUCERO PLACE,630G5,PUBLIC STREET NAMES
4951,LOMA,PL,,LOMA PLACE,634D2,PUBLIC STREET NAMES
5046,LINCOLN,AVE,,LINCOLN AVENUE,594J1,PUBLIC STREET NAMES
475,LAZARD,ST,,LAZARD STREET,482C4,PRIVATE STREET NAMES
4948,LOMA LINDA,AVE,,LOMA LINDA AVENUE,593H4,PUBLIC STREET NAMES
4900,LORING,AVE,,LORING AVENUE,592B7,PUBLIC STREET NAMES
4884,LOS FRANCISCOS,WAY,,LOS FRANCISCOS WAY,593H3,PUBLIC STREET NAMES
452,LOS FELIZ,PARK,,LOS FELIZ PARK,594C2,PRIVATE STREET NAMES
5234,LARKSPUR,ST,,LARKSPUR STREET,481H2,PUBLIC STREET NAMES
448,LULU GLEN,DR,,LULU GLEN DRIVE,NA,PRIVATE STREET NAMES
5099,LENNOX,AVE,,LENNOX AVENUE,532A1,PUBLIC STREET NAMES
5195,LATIMER,LANE,,LATIMER LANE,592A3,PUBLIC STREET NAMES
5173,LAURELWOOD,DR,,LAURELWOOD DRIVE,562G6,PUBLIC STREET NAMES
5127,LEESDALE,AVE,,LEESDALE AVENUE,793J6,PUBLIC STREET NAMES
477,LAUREL VIEW,DR,,LAUREL VIEW DRIVE,NA,PRIVATE STREET NAMES
5347,LA CESTA,PL,,LA CESTA PLACE,560H4,PUBLIC STREET NAMES
4852,LUBAO,PL,,LUBAO PLACE,500E4,PUBLIC STREET NAMES
486,LASAINE,AVE,,LASAINE AVENUE,NA,PRIVATE STREET NAMES
4914,LOOKOUT MOUNTAIN,AVE,,LOOKOUT MOUNTAIN AVENUE,592J2,PUBLIC STREET NAMES
4827,LUND,ST,,LUND STREET,559E3,PUBLIC STREET NAMES
5152,LAYTON,WAY,,LAYTON WAY,NA,PUBLIC STREET NAMES
5056,LILLA,PL,,LILLA PLACE,529E4,PUBLIC STREET NAMES
5194,LATIMER,ROAD,,LATIMER ROAD,631B6,PUBLIC STREET NAMES
5074,LEXINGTON,AVE,,LEXINGTON AVENUE,594A5,PUBLIC STREET NAMES
5260,LANSING,AVE,,LANSING AVENUE,794G6,PUBLIC STREET NAMES
4828,LUNA VISTA,DR,,LUNA VISTA DRIVE,630G3,PUBLIC STREET NAMES
5318,LA GRANGE,AVE,,LA GRANGE AVENUE,632D3,PUBLIC STREET NAMES
5196,LA TIJERA,BLVD,,LA TIJERA BOULEVARD,673A7,PUBLIC STREET NAMES
9758,LONE OAK,DR,,LONE OAK DRIVE,481A5,PUBLIC STREET NAMES
5300,LAKE SHORE,TER,,LAKE SHORE TERRACE,634E2,PUBLIC STREET NAMES
496,LA COLLINA,DR,,LA COLLINA DRIVE,592G5,PRIVATE STREET NAMES
4819,LYDIA,DR,,LYDIA DRIVE,675A1,PUBLIC STREET NAMES
5184,LAUREL CANYON,PL,,LAUREL CANYON PLACE,593A1,PUBLIC STREET NAMES
5101,LENA,AVE,,LENA AVENUE,529G3,PUBLIC STREET NAMES
4923,LONGRIDGE,TER,,LONGRIDGE TERRACE,562D7,PUBLIC STREET NAMES
5236,LARKER,AVE,,LARKER AVENUE,565F7,PUBLIC STREET NAMES
462,LOBDELL,PL,,LOBDELL PLACE,NA,PRIVATE STREET NAMES
5015,LINLEY,LANE,,LINLEY LANE,529E4,PUBLIC STREET NAMES
10974,LUCY,LANE,,LUCY LANE,501B5,LIMITED ACCESS AREA NAMES
4835,LUGANO,PL,,LUGANO PLACE,563F6,PUBLIC STREET NAMES
5002,LISETTE,ST,,LISETTE STREET,481C5,PUBLIC STREET NAMES
5330,LADERA,DR,,LADERA DRIVE,592D7,PUBLIC STREET NAMES
459,LONGACRE,AVE,,LONGACRE AVENUE,480J6,PRIVATE STREET NAMES
5228,LARRABEE,ST,,LARRABEE STREET,592H5,PUBLIC STREET NAMES
469,LIMEKILN CANYON,ROAD,,LIMEKILN CANYON ROAD,480F3,PRIVATE STREET NAMES
5107,LEMON,ST,,LEMON STREET,634H7,PUBLIC STREET NAMES
460,LONDONDERRY,VIEW,,LONDONDERRY VIEW,592J5,PRIVATE STREET NAMES
483,LATONA,ROAD,,LATONA ROAD,595B5,PRIVATE STREET NAMES
5357,LA BARCA,PL,,LA BARCA PLACE,560G4,PUBLIC STREET NAMES
5288,LAMAR,ST,,LAMAR STREET,634J2,PUBLIC STREET NAMES
4869,LOUISIANA,AVE,,LOUISIANA AVENUE,632D4,PUBLIC STREET NAMES
5218,LAS COLINAS,AVE,,LAS COLINAS AVENUE,565A7,PUBLIC STREET NAMES
4913,LOOM,PL,,LOOM PLACE,561G7,PUBLIC STREET NAMES
5210,LAS LOMAS,PL,,LAS LOMAS PLACE,630J4,PUBLIC STREET NAMES
5146,LEAYN,CT,,LEAYN COURT,532F4,PUBLIC STREET NAMES
5006,LISA,PL,,LISA PLACE,561H7,PUBLIC STREET NAMES
4901,LORILLARD,ST,,LORILLARD STREET,481C7,PUBLIC STREET NAMES
5080,LEVERING,AVE,,LEVERING AVENUE,632A2,PUBLIC STREET NAMES
5304,LAKERIDGE,DR,,LAKERIDGE DRIVE,593E1,PUBLIC STREET NAMES
10967,LIAM,LANE,,LIAM LANE,560G1,PRIVATE STREET NAMES
10553,LONZO,ST,,LONZO STREET,504A2,PRIVATE STREET NAMES
4883,LOS GRANDES,WAY,,LOS GRANDES WAY,593H2,PUBLIC STREET NAMES
5092,LERDO,AVE,,LERDO AVENUE,481A7,PUBLIC STREET NAMES
5031,LINDA VISTA,TER,,LINDA VISTA TERRACE,595F6,PUBLIC STREET NAMES
10897,LUCKY,WAY,,LUCKY WAY,504A3,PRIVATE STREET NAMES
5345,LA CIENEGA,AVE,,LA CIENEGA AVENUE,632J7,PUBLIC STREET NAMES
10396,LOIS,CT,,LOIS COURT,481A7,PRIVATE STREET NAMES
4875,LOS TILOS,ROAD,,LOS TILOS ROAD,593D3,PUBLIC STREET NAMES
5150,LEACH,ST,,LEACH STREET,482E2,PUBLIC STREET NAMES
5266,LANGDALE,AVE,,LANGDALE AVENUE,564J7,PUBLIC STREET NAMES
5214,LA SHELL,DR,,LA SHELL DRIVE,504B6,PUBLIC STREET NAMES
5226,LA RUE,ST,,LA RUE STREET,502A2,PUBLIC STREET NAMES
5165,LA VALLE,ST,,LA VALLE STREET,482A2,PUBLIC STREET NAMES
4841,LUCILLE,AVE,,LUCILLE AVENUE,672B4,PUBLIC STREET NAMES
5363,L,ST,,L STREET,794F5,PUBLIC STREET NAMES
5310,LAKE ENCINO,DR,,LAKE ENCINO DRIVE,561A5,PUBLIC STREET NAMES
4995,LITTLER,PL,,LITTLER PLACE,481D5,PUBLIC STREET NAMES
5256,LA PAZ,DR,,LA PAZ DRIVE,594C3,PUBLIC STREET NAMES
5337,LACOTA,PL,,LACOTA PLACE,561J5,PUBLIC STREET NAMES
4840,LUCILLE,TR,,LUCILLE TRAIL,593A3,PUBLIC STREET NAMES
5262,LANKERSHIM,BLVD,,LANKERSHIM BOULEVARD,502H7,PUBLIC STREET NAMES
4895,LOS ADORNOS,WAY,,LOS ADORNOS WAY,593H3,PUBLIC STREET NAMES
5093,LEOTI,TER,,LEOTI TERRACE,593A4,PUBLIC STREET NAMES
10938,L A LIVE,WAY,,L A LIVE WAY,634C5,PUBLIC STREET NAMES
5225,LARWIN,AVE,,LARWIN AVENUE,499H4,PUBLIC STREET NAMES
5286,LAMBERT,PL,,LAMBERT PLACE,593G2,PUBLIC STREET NAMES
4991,LIVERMORE,TER,,LIVERMORE TERRACE,595D2,PUBLIC STREET NAMES
4859,LOWEN,ST,,LOWEN STREET,794C4,PUBLIC STREET NAMES
5264,LANGMUIR,AVE,,LANGMUIR AVENUE,503H1,PUBLIC STREET NAMES
4932,LONG BEACH,AVE,WEST,LONG BEACH AVENUE WEST,674G1,PUBLIC STREET NAMES
5153,LAYTON,DR,,LAYTON DRIVE,631H2,PUBLIC STREET NAMES
4894,LOS ALIMOS,ST,,LOS ALIMOS STREET,501H2,PUBLIC STREET NAMES
4962,LOCUST,ST,,LOCUST STREET,594J5,PUBLIC STREET NAMES
4997,LITTLE OAK,LANE,,LITTLE OAK LANE,559C1,PUBLIC STREET NAMES
480,LAUGHLIN PARK,DR,,LAUGHLIN PARK DRIVE,593H3,PRIVATE STREET NAMES
10745,LANCE,CT,,LANCE COURT,532B5,PRIVATE STREET NAMES
4938,LONDELIUS,ST,,LONDELIUS STREET,531F1,PUBLIC STREET NAMES
5257,LANZIT,AVE,,LANZIT AVENUE,704E6,PUBLIC STREET NAMES
5263,LANGTRY,LANE,,LANGTRY LANE,NA,PUBLIC STREET NAMES
5001,LITA,PL,,LITA PLACE,559G5,PUBLIC STREET NAMES
5340,LA CONDESA,DR,,LA CONDESA DRIVE,591C7,PUBLIC STREET NAMES
5169,LAURISTON,AVE,,LAURISTON AVENUE,632E4,PUBLIC STREET NAMES
10943,LEMONA,AVE,,LEMONA  AVENUE,531H4,PRIVATE STREET NAMES
4996,LITTLE TUJUNGA,ROAD,,LITTLE TUJUNGA ROAD,482J7,PUBLIC STREET NAMES
4925,LONGRIDGE,AVE,,LONGRIDGE AVENUE,532D2,PUBLIC STREET NAMES
10105,LITCHFIELD,LANE,,LITCHFIELD LANE,560G7,PRIVATE STREET NAMES
11122,LA CRESTA,WAY,,LA CRESTA WAY,482E4,UNOFFICIAL PRIVATE STREET NAMES
11140,LILA,PL,,LILA PLACE,530E1,PRIVATE ROADWAY NAMES
11086,LEYLAND,LANE,,LEYLAND LANE,633A6,PRIVATE STREET NAMES
11176,LIVERPOOL,WAY,,LIVERPOOL WAY,480D7,PRIVATE STREET NAMES
11044,LEVI,LANE,,LEVI LANE,562A1,LIMITED ACCESS AREA NAMES
11143,LINNEA,CT,,LINNEA COURT,530E1,PRIVATE ROADWAY NAMES
10931,LIVIA,LANE,,LIVIA LANE,593A4,PRIVATE STREET NAMES
11139,LEMP,CT,,LEMP COURT,562H4,LIMITED ACCESS AREA NAMES
11201,LONGHORN,DR,,LONGHORN  DRIVE,500E2,PRIVATE STREET NAMES
10947,LYLE,WAY,,LYLE WAY,531F6,PRIVATE STREET NAMES
11117,LA TIERRA,WAY,,LA TIERRA WAY,482F3,UNOFFICIAL PRIVATE STREET NAMES
11073,LANTANA,CT,,LANTANA COURT,480D6,PRIVATE STREET NAMES
11146,LEILANI,AVE,,LEILANI AVENUE,530E1,PRIVATE ROADWAY NAMES
11214,LILAC,ROAD,,LILAC ROAD,501J7,LIMITED ACCESS AREA NAMES
11245,LAMIA,CT,,LAMIA COURT,501H6,PRIVATE ROADWAY NAMES
11253,LUCKY,PL,,LUCKY PLACE,481G4,PRIVATE STREET NAMES
11256,LOBBY,CIR,,LOBBY CIRCLE,794A3,PRIVATE STREET NAMES
11257,LADERA,LANE,,LADERA LANE,560A4,PRIVATE STREET NAMES
11269,LAUREL,ST,,LAUREL STREET,704H4,PUBLIC STREET NAMES
11270,LILAC,ST,,LILAC STREET,704J4,PUBLIC STREET NAMES
11271,LILLY,WAY,,LILLY WAY,532A5,LIMITED ACCESS AREA NAMES
