Street ID,Street Name,Street Suffix,Street Suffix Direction,Official Street Name,Thomas Brothers Map,Street Type
10146,MELISSA,LANE,,MELISSA LANE,559H1,PRIVATE STREET NAMES
4471,MELHILL,WAY,,MELHILL WAY,631D2,PUBLIC STREET NAMES
4676,MARIGOLD,AVE,,MARIGOLD AVENUE,794A3,PUBLIC STREET NAMES
4766,MAIE,AVE,,MAIE AVENUE,674G7,PUBLIC STREET NAMES
4686,MARGATE,ST,,MARGATE STREET,563B2,PUBLIC STREET NAMES
10390,MARCUS,DR,,MARCUS DRIVE,481A5,PUBLIC STREET NAMES
4724,MANOR,LANE,,MANOR LANE,672B4,PUBLIC STREET NAMES
422,MONT EAGLE,PL,,MONT EAGLE PLACE,594J1,PRIVATE STREET NAMES
4347,MINTO,CT,,MINTO COURT,595E6,PUBLIC STREET NAMES
4645,MARMORA,DR,,MARMORA DRIVE,560C5,PUBLIC STREET NAMES
4172,MURDOCK,AVE,,MURDOCK AVENUE,794H6,PUBLIC STREET NAMES
4462,MELVILLE,AVE,,MELVILLE AVENUE,481B6,PUBLIC STREET NAMES
4314,MOLINO,ST,,MOLINO STREET,634H5,PUBLIC STREET NAMES
4464,MELROSE,PL,,MELROSE PLACE,593A6,PUBLIC STREET NAMES
4536,MCDONIE,AVE,,MCDONIE AVENUE,560D1,PUBLIC STREET NAMES
4628,MARSHALL,DR,,MARSHALL DRIVE,672E5,PUBLIC STREET NAMES
4330,MISSISSIPPI,AVE,,MISSISSIPPI AVENUE,632D4,PUBLIC STREET NAMES
4318,MODJESKA,ST,,MODJESKA STREET,594F4,PUBLIC STREET NAMES
9567,MINI,WAY,,MINI WAY,561F4,PRIVATE STREET NAMES
4377,MILLER,DR,,MILLER DRIVE,592J5,PUBLIC STREET NAMES
4732,MANITOU,PL,,MANITOU PLACE,635C1,PUBLIC STREET NAMES
4461,MELVILLE,PL,,MELVILLE PLACE,481B5,PUBLIC STREET NAMES
4473,MELBOURNE,AVE,,MELBOURNE AVENUE,594A4,PUBLIC STREET NAMES
9614,MARILYN,LANE,,MARILYN LANE,561G4,PRIVATE STREET NAMES
4308,MONETTE,PL,,MONETTE PLACE,633H4,PUBLIC STREET NAMES
4598,MASSELIN,AVE,,MASSELIN AVENUE,633C5,PUBLIC STREET NAMES
4612,MARY,AVE,,MARY AVENUE,704F3,PUBLIC STREET NAMES
4204,MOUNTAIR,AVE,,MOUNTAIR AVENUE,503J2,PUBLIC STREET NAMES
4784,MAESTRO,AVE,,MAESTRO AVENUE,529F3,PUBLIC STREET NAMES
9794,METROPOLITAN,PZ,,METROPOLITAN PLAZA,633B2,PRIVATE STREET NAMES
4388,MILBANK,ST,,MILBANK STREET,562E4,PUBLIC STREET NAMES
4163,MYOSOTIS,ST,,MYOSOTIS STREET,595D1,PUBLIC STREET NAMES
4767,MAIDSTONE,PL,,MAIDSTONE PLACE,793J2,PUBLIC STREET NAMES
4451,MENDON,PL,,MENDON PLACE,500D3,PUBLIC STREET NAMES
4489,MECCA,AVE,,MECCA AVENUE,560J2,PUBLIC STREET NAMES
4253,MOONSTONE,DR,,MOONSTONE DRIVE,595C7,PUBLIC STREET NAMES
10531,MOUNTAIN VIEW,PL,,MOUNTAIN VIEW PLACE,482D1,PRIVATE ROADWAY NAMES
4272,MONTE VISTA,WALK,,MONTE VISTA WALK,595E4,PUBLIC STREET NAMES
4399,MIDFIELD,AVE,,MIDFIELD AVENUE,703A1,PUBLIC STREET NAMES
4452,MENDOCINO,CT,,MENDOCINO COURT,564H6,PUBLIC STREET NAMES
4419,MESMER,AVE,,MESMER AVENUE,672F5,PUBLIC STREET NAMES
444,MACFARLANE,LANE,,MACFARLANE LANE,559H3,PRIVATE STREET NAMES
4666,MARIONDALE,AVE,,MARIONDALE AVENUE,595F7,PUBLIC STREET NAMES
4524,MCKENZIE,AVE,,MCKENZIE AVENUE,595D6,PUBLIC STREET NAMES
4610,MARY ELLEN,AVE,,MARY ELLEN AVENUE,532D2,PUBLIC STREET NAMES
9874,MAYAN,DR,,MAYAN DRIVE,500A1,PRIVATE STREET NAMES
4792,MADDEN,AVE,,MADDEN AVENUE,673F6,PUBLIC STREET NAMES
4508,MCQUEEN,ST,,MCQUEEN STREET,481F2,PUBLIC STREET NAMES
4252,MOONSTONE,WALK,,MOONSTONE WALK,595C7,PUBLIC STREET NAMES
4480,MEDLEY,DR,,MEDLEY DRIVE,561A5,PUBLIC STREET NAMES
4370,MILNER,ROAD,,MILNER ROAD,593E3,PUBLIC STREET NAMES
4707,MARBLE,DR,,MARBLE DRIVE,561H6,PUBLIC STREET NAMES
4623,MARTHA,ST,,MARTHA STREET,562J1,PUBLIC STREET NAMES
4535,MCDONIE,PL,,MCDONIE PLACE,560E1,PUBLIC STREET NAMES
4727,MANNIX,DR,,MANNIX DRIVE,593A4,PUBLIC STREET NAMES
430,MCGARRY,ST,,MCGARRY STREET,674G4,PRIVATE STREET NAMES
4230,MORMON,ST,,MORMON STREET,824F3,PUBLIC STREET NAMES
4467,MELODY,LANE,,MELODY LANE,NA,PUBLIC STREET NAMES
10172,MID PINES,LANE,,MID PINES LANE,480E7,PRIVATE STREET NAMES
4608,MARYLAND,ST,,MARYLAND STREET,634D3,PUBLIC STREET NAMES
9569,MISSION HILLS,ROAD,,MISSION HILLS ROAD,501H1,PRIVATE STREET NAMES
10232,MARIACHI PLAZA DE LOS ANGELES,,,MARIACHI PLAZA DE LOS ANGELES,634J4,PEDESTRIAN MALL NAMES
4239,MORELLA,AVE,,MORELLA AVENUE,532G3,PUBLIC STREET NAMES
4539,MCDERMOTT,AVE,,MCDERMOTT AVENUE,531A3,PUBLIC STREET NAMES
10935,MAINTENANCE,ROAD,,MAINTENANCE ROAD,702D5,PRIVATE STREET NAMES
4292,MONTE BONITO,DR,,MONTE BONITO DRIVE,565C5,PUBLIC STREET NAMES
4444,MERCER,ST,,MERCER STREET,482F7,PUBLIC STREET NAMES
10445,MARIPOSA,CT,,MARIPOSA COURT,529E2,PRIVATE STREET NAMES
4755,MALGREN,AVE,,MALGREN AVENUE,823H4,PUBLIC STREET NAMES
4590,MATILIJA,AVE,,MATILIJA AVENUE,532B1,PUBLIC STREET NAMES
4688,MARGARET,AVE,,MARGARET AVENUE,635H7,PUBLIC STREET NAMES
4477,MEGAN,AVE,,MEGAN AVENUE,500A7,PUBLIC STREET NAMES
4394,MIDWOOD,DR,,MIDWOOD DRIVE,501G1,PUBLIC STREET NAMES
4427,MERRYWOOD,TR,,MERRYWOOD TRAIL,593A2,PUBLIC STREET NAMES
4752,MALLORY,ST,,MALLORY STREET,595E7,PUBLIC STREET NAMES
4367,MILTON,ST,,MILTON STREET,672D6,PUBLIC STREET NAMES
4319,MODJESKA,PL,,MODJESKA PLACE,672C3,PUBLIC STREET NAMES
4478,MEDLOW,AVE,,MEDLOW AVENUE,564J7,PUBLIC STREET NAMES
4574,MAYBROOK,DR,,MAYBROOK DRIVE,592C6,PUBLIC STREET NAMES
4631,MARSDEN,ST,,MARSDEN STREET,594F6,PUBLIC STREET NAMES
4329,MISSOURI,AVE,,MISSOURI AVENUE,632D3,PUBLIC STREET NAMES
4800,MACEO,ST,,MACEO STREET,594H5,PUBLIC STREET NAMES
4250,MOORCROFT,PL,,MOORCROFT PLACE,529J1,PUBLIC STREET NAMES
4433,MERMAID,DR,,MERMAID DRIVE,823G7,PUBLIC STREET NAMES
4375,MILLER,WAY,,MILLER WAY,592J5,PUBLIC STREET NAMES
10169,MARIPOSA CREEK,WAY,,MARIPOSA CREEK WAY,500E1,PRIVATE STREET NAMES
9871,MOHAWK,AVE,,MOHAWK AVENUE,500A1,PRIVATE STREET NAMES
4534,MCDUFF,ST,,MCDUFF STREET,594E7,PUBLIC STREET NAMES
4423,MESA,ROAD,,MESA ROAD,499D6,PUBLIC STREET NAMES
4351,MINNEHAHA,ST,,MINNEHAHA STREET,502A3,PUBLIC STREET NAMES
10987,MARCASEL,CT,,MARCASEL COURT,672D4,PRIVATE STREET NAMES
4762,MAJOR,ST,,MAJOR STREET,672G6,PUBLIC STREET NAMES
4618,MARTSON,DR,,MARTSON DRIVE,561A5,PUBLIC STREET NAMES
4335,MIRIAM,ST,,MIRIAM STREET,595B2,PUBLIC STREET NAMES
4426,MERTON,AVE,,MERTON AVENUE,564J6,PUBLIC STREET NAMES
4349,MINORCA,DR,,MINORCA DRIVE,631C5,PUBLIC STREET NAMES
4194,MOUNT OLYMPUS,DR,,MOUNT OLYMPUS DRIVE,593A3,PUBLIC STREET NAMES
4569,MAYFIELD,AVE,,MAYFIELD AVENUE,631J4,PUBLIC STREET NAMES
4633,MARR,ST,,MARR STREET,672A6,PUBLIC STREET NAMES
436,MARYON,DR,,MARYON DRIVE,NA,PRIVATE STREET NAMES
4382,MILLARD,PL,,MILLARD PLACE,501C6,PUBLIC STREET NAMES
4582,MAURY,AVE,,MAURY AVENUE,529C7,PUBLIC STREET NAMES
4504,MEADE,PL,,MEADE PLACE,671J5,PUBLIC STREET NAMES
4738,MANDEVILLE CANYON,ROAD,,MANDEVILLE CANYON ROAD,591C1,PUBLIC STREET NAMES
4617,MARVA,AVE,,MARVA AVENUE,481A5,PUBLIC STREET NAMES
4510,MCPHERSON,AVE,,MCPHERSON AVENUE,635E1,PUBLIC STREET NAMES
4361,MINA RICA,DR,,MINA RICA DRIVE,504C6,PUBLIC STREET NAMES
4573,MAYCOTTE,ROAD,,MAYCOTTE ROAD,559J3,PUBLIC STREET NAMES
4641,MARNICE,AVE,,MARNICE AVENUE,504C2,PUBLIC STREET NAMES
4322,MOBILE,ST,,MOBILE STREET,530F6,PUBLIC STREET NAMES
4609,MARYLAND,DR,,MARYLAND DRIVE,633B2,PUBLIC STREET NAMES
4453,MENDEL,DR,,MENDEL DRIVE,481B5,PUBLIC STREET NAMES
4672,MARINA,PL,,MARINA PLACE,823H7,PUBLIC STREET NAMES
4804,MAC ARTHUR,AVE,,MAC ARTHUR AVENUE,824A3,PUBLIC STREET NAMES
4158,MYSTIC,LANE,,MYSTIC LANE,529E5,PUBLIC STREET NAMES
4435,MERIT,AVE,,MERIT AVENUE,734B7,PUBLIC STREET NAMES
11038,MALTMAN,CT,,MALTMAN COURT,594B6,LIMITED ACCESS AREA NAMES
9947,MENDIPS RIDGE,ROAD,,MENDIPS RIDGE ROAD,592H1,PRIVATE STREET NAMES
4737,MANDEVILLE,LANE,,MANDEVILLE LANE,631E2,PUBLIC STREET NAMES
4264,MONTLINE,LANE,,MONTLINE LANE,592B6,PUBLIC STREET NAMES
4255,MOONCREST,PL,,MOONCREST PLACE,561C5,PUBLIC STREET NAMES
4479,MEDLEY,PL,,MEDLEY PLACE,561A5,PUBLIC STREET NAMES
4670,MARINE,CT,,MARINE COURT,671F5,PUBLIC STREET NAMES
4241,MORAY,AVE,,MORAY AVENUE,823H7,PUBLIC STREET NAMES
10466,MODENA,LANE,,MODENA LANE,500C1,PRIVATE STREET NAMES
428,MEADOWLARK,AVE,,MEADOWLARK AVENUE,1E4,PRIVATE STREET NAMES
4445,MERCEDES,AVE,,MERCEDES AVENUE,502B5,PUBLIC STREET NAMES
4164,MYERS,ST,,MYERS STREET,634H4,PUBLIC STREET NAMES
4789,MADISON,AVE,,MADISON AVENUE,594A7,PUBLIC STREET NAMES
10338,MAPLE,LANE,,MAPLE LANE,794A3,PRIVATE ROADWAY NAMES
4521,MCKINLEY,AVE,,MCKINLEY AVENUE,671J6,PUBLIC STREET NAMES
4565,MAYO,ST,,MAYO STREET,595A2,PUBLIC STREET NAMES
4592,MATHEWS,PL,,MATHEWS PLACE,635A6,PUBLIC STREET NAMES
4761,MAJORCA,PL,,MAJORCA PLACE,631F1,PUBLIC STREET NAMES
4675,MARILLA,ST,,MARILLA STREET,501D5,PUBLIC STREET NAMES
4499,MEADOWLARK,AVE,,MEADOWLARK AVENUE,481C4,PUBLIC STREET NAMES
4259,MOODY,ST,,MOODY STREET,501J5,PUBLIC STREET NAMES
9563,MERLIN,PL,,MERLIN PLACE,561D4,PRIVATE STREET NAMES
4691,MARCUS,LANE,,MARCUS LANE,504B5,PUBLIC STREET NAMES
4740,MANDARIN,CT,,MANDARIN COURT,481C6,PUBLIC STREET NAMES
423,MENLO,AVE,,MENLO AVENUE,63F4,PRIVATE STREET NAMES
4652,MARLTON,AVE,,MARLTON AVENUE,673D3,PUBLIC STREET NAMES
4501,MEADOWCREST,ROAD,,MEADOWCREST ROAD,561F6,PUBLIC STREET NAMES
4678,MARIE,AVE,,MARIE AVENUE,565E7,PUBLIC STREET NAMES
10976,MURPHY,LANE,,MURPHY LANE,501B5,LIMITED ACCESS AREA NAMES
4328,MISTLETOE,ROAD,,MISTLETOE ROAD,504B5,PUBLIC STREET NAMES
10528,MISSION HILLS ESTATES,CT,,MISSION HILLS ESTATES COURT,501J4,PRIVATE STREET NAMES
9904,MAYA,PL,,MAYA PLACE,531F1,PRIVATE STREET NAMES
4273,MONTE VISTA,ST,,MONTE VISTA STREET,595B3,PUBLIC STREET NAMES
4745,MALVINA,AVE,,MALVINA AVENUE,594G7,PUBLIC STREET NAMES
4545,MCCOOL,AVE,,MCCOOL AVENUE,672G7,PUBLIC STREET NAMES
4269,MONTFORD,ST,,MONTFORD STREET,482E7,PUBLIC STREET NAMES
4251,MOORCROFT,AVE,,MOORCROFT AVENUE,499J7,PUBLIC STREET NAMES
4468,MELLON,AVE,,MELLON AVENUE,594F3,PUBLIC STREET NAMES
4346,MINUET,PL,,MINUET PLACE,532B1,PUBLIC STREET NAMES
4422,MESA,ST,,MESA STREET,824C4,PUBLIC STREET NAMES
25,MAST,MALL,,MAST MALL,701J1,PEDESTRIAN MALL NAMES
4557,MCCLEMONT,AVE,,MCCLEMONT AVENUE,503J3,PUBLIC STREET NAMES
4790,MADERA,AVE,,MADERA AVENUE,594D2,PUBLIC STREET NAMES
4166,MUSKINGUM,AVE,,MUSKINGUM AVENUE,630J5,PUBLIC STREET NAMES
4450,MENDOTA,AVE,,MENDOTA AVENUE,595A2,PUBLIC STREET NAMES
4622,MARTIN,ST,,MARTIN STREET,595F7,PUBLIC STREET NAMES
4544,MCCORMICK,ST,,MCCORMICK STREET,563A2,PUBLIC STREET NAMES
4384,MILITARY,AVE,,MILITARY AVENUE,632C6,PUBLIC STREET NAMES
4429,MERRYWOOD,DR,,MERRYWOOD DRIVE,593A2,PUBLIC STREET NAMES
4607,MARYLEE,ST,,MARYLEE STREET,560A1,PUBLIC STREET NAMES
401,MULHOLLAND,HWY,,MULHOLLAND HIGHWAY,563H6,PRIVATE STREET NAMES
4483,MEDINA,DR,,MEDINA DRIVE,560A4,PUBLIC STREET NAMES
4632,MARS,LANE,,MARS LANE,592A5,PUBLIC STREET NAMES
4459,MEMO,CT,,MEMO COURT,480H7,PUBLIC STREET NAMES
4679,MARICOPA,DR,,MARICOPA DRIVE,594J2,PUBLIC STREET NAMES
4651,MARMADUKE,PL,,MARMADUKE PLACE,561D5,PUBLIC STREET NAMES
10380,MICHAELS,ST,,MICHAELS STREET,532A3,PRIVATE STREET NAMES
4181,MULHOLLAND,TER,,MULHOLLAND TERRACE,592J1,PUBLIC STREET NAMES
4674,MARILYN,DR,,MARILYN DRIVE,481E7,PUBLIC STREET NAMES
4758,MALCOLM,AVE,,MALCOLM AVENUE,632B2,PUBLIC STREET NAMES
10877,MEWS,DR,,MEWS DRIVE,564D7,LIMITED ACCESS AREA NAMES
10815,MILKY,WAY,,MILKY WAY,531G1,PRIVATE ROADWAY NAMES
4629,MARSHALL,CT,,MARSHALL COURT,824B4,PUBLIC STREET NAMES
10898,MONTERIA PARK,ROAD,,MONTERIA PARK ROAD,500D3,PRIVATE STREET NAMES
10843,MARIEL,LANE,,MARIEL LANE,592A4,UNOFFICIAL PRIVATE STREET NAMES
404,MT HELENA,AVE,,MT HELENA AVENUE,565C5,PRIVATE STREET NAMES
443,MAGNOLIA,DR,,MAGNOLIA DRIVE,592J4,PRIVATE STREET NAMES
439,MARKET,CT,,MARKET COURT,634G6,PRIVATE STREET NAMES
4639,MARQUAND,AVE,,MARQUAND AVENUE,529E3,PUBLIC STREET NAMES
4770,MAHONY,PL,,MAHONY PLACE,481A6,PUBLIC STREET NAMES
4400,MIDDLETON,PL,,MIDDLETON PLACE,673G2,PUBLIC STREET NAMES
4190,MT WASHINGTON,DR,,MT WASHINGTON DRIVE,595A4,PUBLIC STREET NAMES
4613,MARWOOD,DR,,MARWOOD DRIVE,564J7,PUBLIC STREET NAMES
400,MUSTANG,WAY,,MUSTANG WAY,503D3,PRIVATE STREET NAMES
4350,MINNESOTA,ST,,MINNESOTA STREET,595A7,PUBLIC STREET NAMES
4616,MARVIEW,AVE,,MARVIEW AVENUE,534F1,PUBLIC STREET NAMES
4586,MATULA,DR,,MATULA DRIVE,560H3,PUBLIC STREET NAMES
11016,MAMALIGA,DR,,MAMALIGA DRIVE,532A5,LIMITED ACCESS AREA NAMES
4583,MAURETANIA,ST,,MAURETANIA STREET,794H5,PUBLIC STREET NAMES
4470,MELINDA,DR,,MELINDA DRIVE,592C1,PUBLIC STREET NAMES
4543,MCCOY,AVE,,MCCOY AVENUE,794B4,PUBLIC STREET NAMES
4428,MERRYWOOD,TER,,MERRYWOOD TERRACE,592J3,PUBLIC STREET NAMES
4481,MEDIO,DR,,MEDIO DRIVE,631F3,PUBLIC STREET NAMES
4661,MARK,ST,,MARK STREET,635A3,PUBLIC STREET NAMES
4556,MCCLEMONT,LANE,,MCCLEMONT LANE,503J4,PUBLIC STREET NAMES
4495,MEADOWVALE,AVE,,MEADOWVALE AVENUE,594G5,PUBLIC STREET NAMES
4580,MAXELLA,AVE,,MAXELLA AVENUE,672C5,PUBLIC STREET NAMES
4327,MISTON,DR,,MISTON DRIVE,559J3,PUBLIC STREET NAMES
4454,MENCKEN,AVE,,MENCKEN AVENUE,529E3,PUBLIC STREET NAMES
4754,MALIBU,WALK,,MALIBU WALK,630G6,PUBLIC STREET NAMES
4577,MAY,ST,,MAY STREET,672B3,PUBLIC STREET NAMES
4173,MURCHISON,ST,,MURCHISON STREET,635C3,PUBLIC STREET NAMES
4682,MARIAN,PL,,MARIAN PLACE,672A5,PUBLIC STREET NAMES
435,MASON,AVE,,MASON AVENUE,500D2,PRIVATE STREET NAMES
4366,MILWAUKEE,AVE,,MILWAUKEE AVENUE,595C2,PUBLIC STREET NAMES
9793,MARYLAND,DR,,MARYLAND DRIVE,633B2,PRIVATE STREET NAMES
4317,MODOC,ST,,MODOC STREET,674H1,PUBLIC STREET NAMES
9815,MONTE HERMOSO,DR,,MONTE HERMOSO DRIVE,630G2,PUBLIC STREET NAMES
4796,MACLAY,ST,,MACLAY STREET,482E4,PUBLIC STREET NAMES
4757,MALDEN,ST,,MALDEN STREET,531H1,PUBLIC STREET NAMES
4669,MARINE,ST,,MARINE STREET,672B2,PUBLIC STREET NAMES
10950,MILLENNIUM,,,MILLENNIUM,672F7,PRIVATE STREET NAMES
9907,MIRANDA,ST,,MIRANDA STREET,559E1,PRIVATE STREET NAMES
4472,MELGRE,AVE,,MELGRE AVENUE,559F3,PUBLIC STREET NAMES
4301,MONROE,ST,,MONROE STREET,594A6,PUBLIC STREET NAMES
4763,MAISON,AVE,,MAISON AVENUE,565C5,PUBLIC STREET NAMES
4642,MARNEY,WALK,,MARNEY WALK,635E2,PUBLIC STREET NAMES
10926,MOURNING DOVE,LANE,,MOURNING DOVE LANE,482C3,PUBLIC STREET NAMES
4600,MASON,AVE,,MASON AVENUE,480C6,PUBLIC STREET NAMES
4455,MENARD,PL,,MENARD PLACE,560G5,PUBLIC STREET NAMES
409,MORSE,AVE,,MORSE AVENUE,NA,PRIVATE STREET NAMES
4764,MAIN,ST,,MAIN STREET,671G5,PUBLIC STREET NAMES
10038,MELBA,AVE,,MELBA AVENUE,529F4,PRIVATE STREET NAMES
4356,MINEOLA,ST,,MINEOLA STREET,502E5,PUBLIC STREET NAMES
4522,MCKINLEY,AVE,,MCKINLEY AVENUE,674E2,PUBLIC STREET NAMES
4323,MOBERLY,PL,,MOBERLY PLACE,530D6,PUBLIC STREET NAMES
9562,MEREDITH,PL,,MEREDITH PLACE,33C2,PRIVATE STREET NAMES
4229,MORNINGSIDE,CT,,MORNINGSIDE COURT,593F5,PUBLIC STREET NAMES
4431,MERRIDY,ST,,MERRIDY STREET,501A5,PUBLIC STREET NAMES
4248,MOORE,ST,,MOORE STREET,594E5,PUBLIC STREET NAMES
4304,MONOGRAM,AVE,,MONOGRAM AVENUE,481E7,PUBLIC STREET NAMES
10560,MGM,DR,,MGM DRIVE,NA,PRIVATE ROADWAY NAMES
4505,MCVINE,TR,,MCVINE TRAIL,503G4,PUBLIC STREET NAMES
4798,MACHADO,DR,,MACHADO DRIVE,671H4,PUBLIC STREET NAMES
4611,MARY BELL,AVE,,MARY BELL AVENUE,503C3,PUBLIC STREET NAMES
4249,MOORE,DR,,MOORE DRIVE,633A3,PUBLIC STREET NAMES
4203,MOUNT ANGELUS,DR,,MOUNT ANGELUS DRIVE,595D2,PUBLIC STREET NAMES
4662,MARISCAL,LANE,,MARISCAL LANE,592H2,PUBLIC STREET NAMES
4344,MIRABEL,LANE,,MIRABEL LANE,NA,PUBLIC STREET NAMES
4233,MORGAN HILL,DR,,MORGAN HILL DRIVE,593G3,PUBLIC STREET NAMES
4710,MAPLEWOOD,AVE,,MAPLEWOOD AVENUE,672A3,PUBLIC STREET NAMES
4396,MIDWAY,PL,,MIDWAY PLACE,634E5,PUBLIC STREET NAMES
10231,MARIACHI PLAZA DE LOS ANGELES,,,MARIACHI PLAZA DE LOS ANGELES,NA,PUBLIC STREET NAMES
4340,MIRALESTE,DR,,MIRALESTE DRIVE,823H4,PUBLIC STREET NAMES
4262,MONTROSE,ST,,MONTROSE STREET,594D7,PUBLIC STREET NAMES
4343,MIRACOSTA,ST,,MIRACOSTA STREET,823J4,PUBLIC STREET NAMES
4409,MICHAEL,AVE,,MICHAEL AVENUE,672B5,PUBLIC STREET NAMES
4774,MAGNOLIA,DR,,MAGNOLIA DRIVE,592J4,PUBLIC STREET NAMES
4290,MONTE CIELO,DR,,MONTE CIELO DRIVE,592F4,PUBLIC STREET NAMES
4578,MAXWELLTON,ROAD,,MAXWELLTON ROAD,562G6,PUBLIC STREET NAMES
4693,MARCOS,ROAD,,MARCOS ROAD,560C6,PUBLIC STREET NAMES
4446,MERCED,ST,,MERCED STREET,594J5,PUBLIC STREET NAMES
4791,MADELIA,AVE,,MADELIA AVENUE,561J6,PUBLIC STREET NAMES
4279,MONTE MAR,TER,,MONTE MAR TERRACE,632F5,PUBLIC STREET NAMES
4460,MELVIN,AVE,,MELVIN AVENUE,500F4,PUBLIC STREET NAMES
4769,MAIDEN,LANE,,MAIDEN LANE,481D7,PUBLIC STREET NAMES
4474,MELBA,AVE,,MELBA AVENUE,529F2,PUBLIC STREET NAMES
4294,MONTE,ST,,MONTE STREET,481H2,PUBLIC STREET NAMES
9862,MELVIN,LANE,,MELVIN LANE,531A1,PRIVATE STREET NAMES
4331,MISSION TIERRA,WAY,,MISSION TIERRA WAY,481C3,PUBLIC STREET NAMES
4564,MAYVIEW,DR,,MAYVIEW DRIVE,594C4,PUBLIC STREET NAMES
10176,MADERA BAY,LANE,,MADERA BAY LANE,480E6,PRIVATE STREET NAMES
4371,MILLWOOD,AVE,,MILLWOOD AVENUE,500B3,PUBLIC STREET NAMES
4566,MAYNARD,AVE,,MAYNARD AVENUE,529H2,PUBLIC STREET NAMES
4437,MERIDIAN,TER,,MERIDIAN TERRACE,595D1,PUBLIC STREET NAMES
4411,MEYLER,ST,,MEYLER STREET,794A3,PUBLIC STREET NAMES
4498,MEADOW RIDGE,PL,,MEADOW RIDGE PLACE,561E5,PUBLIC STREET NAMES
424,MELVIN,AVE,,MELVIN AVENUE,7A1,PRIVATE STREET NAMES
10985,MERCURY,DR,,MERCURY DRIVE,672B3,PRIVATE STREET NAMES
4372,MILLRACE,ST,,MILLRACE STREET,532D1,PUBLIC STREET NAMES
4302,MONOVALE,DR,,MONOVALE DRIVE,592D7,PUBLIC STREET NAMES
4706,MARBURN,AVE,,MARBURN AVENUE,673C5,PUBLIC STREET NAMES
9570,MISSION,ROAD,SOUTH,MISSION ROAD SOUTH,44B4,PRIVATE STREET NAMES
4286,MONTEEL,ROAD,,MONTEEL ROAD,593A5,PUBLIC STREET NAMES
4747,MALTMAN,AVE,,MALTMAN AVENUE,594C5,PUBLIC STREET NAMES
4725,MANOR,CT,,MANOR COURT,594H1,PUBLIC STREET NAMES
4512,MCNULTY,AVE,,MCNULTY AVENUE,530C2,PUBLIC STREET NAMES
4660,MARKET,PL,,MARKET PLACE,793J5,PUBLIC STREET NAMES
9836,MEADOWVIEW,LANE,,MEADOWVIEW LANE,502F1,PRIVATE ROADWAY NAMES
4383,MILL,ST,,MILL STREET,634H6,PUBLIC STREET NAMES
4683,MARIAN,CT,,MARIAN COURT,671J5,PUBLIC STREET NAMES
4184,MULHOLLAND,DR,,MULHOLLAND DRIVE,593C2,PUBLIC STREET NAMES
4373,MILLRACE,PL,,MILLRACE PLACE,532D1,PUBLIC STREET NAMES
4595,MAST,ST,,MAST STREET,701J1,PUBLIC STREET NAMES
10109,MARLIA,CT,,MARLIA COURT,560G6,PRIVATE STREET NAMES
4664,MARIOTA,AVE,,MARIOTA AVENUE,563C4,PUBLIC STREET NAMES
4547,MCCONNELL,DR,,MCCONNELL DRIVE,632F5,PUBLIC STREET NAMES
4182,MULHOLLAND,PL,,MULHOLLAND PLACE,561F7,PUBLIC STREET NAMES
4213,MOTT,ST,,MOTT STREET,635B4,PUBLIC STREET NAMES
4713,MAPLE,DR,,MAPLE DRIVE,593A4,PUBLIC STREET NAMES
4321,MOCKINGBIRD,PL,,MOCKINGBIRD PLACE,592H5,PUBLIC STREET NAMES
4739,MANDELL,ST,,MANDELL STREET,530C2,PUBLIC STREET NAMES
4624,MARTEL,AVE,,MARTEL AVENUE,593C4,PUBLIC STREET NAMES
4381,MILLBORO,PL,,MILLBORO PLACE,592C3,PUBLIC STREET NAMES
4588,MATRANGA,PL,,MATRANGA PLACE,503C7,PUBLIC STREET NAMES
4654,MARLBOROUGH,CT,,MARLBOROUGH COURT,529F4,PUBLIC STREET NAMES
4756,MALEZA,PL,,MALEZA PLACE,560H4,PUBLIC STREET NAMES
4242,MORAGA,WALK,,MORAGA WALK,591H7,PUBLIC STREET NAMES
4653,MARLIN,PL,,MARLIN PLACE,531H5,PUBLIC STREET NAMES
4601,MASEFIELD,CT,,MASEFIELD COURT,529E3,PUBLIC STREET NAMES
4540,MCCUNE,AVE,,MCCUNE AVENUE,672F2,PUBLIC STREET NAMES
4760,MALABAR,ST,,MALABAR STREET,635B4,PUBLIC STREET NAMES
4626,MARSHFIELD,WAY,,MARSHFIELD WAY,593D4,PUBLIC STREET NAMES
4285,MONTEGO,DR,,MONTEGO DRIVE,591G7,PUBLIC STREET NAMES
4482,MEDINA,ROAD,,MEDINA ROAD,560A3,PUBLIC STREET NAMES
4773,MAHAR,AVE,,MAHAR AVENUE,794G5,PUBLIC STREET NAMES
10444,MARINA POINTE,DR,,MARINA POINTE DRIVE,672B6,PRIVATE STREET NAMES
4533,MCFARLAND,AVE,,MCFARLAND AVENUE,594F6,PUBLIC STREET NAMES
4199,MOUNTCASTLE,DR,,MOUNTCASTLE DRIVE,563A7,PUBLIC STREET NAMES
4306,MONMOUTH,AVE,,MONMOUTH AVENUE,634B7,PUBLIC STREET NAMES
4596,MAST,ST,,MAST STREET,NA,PEDESTRIAN MALL NAMES
4579,MAXWELL,ST,,MAXWELL STREET,594C2,PUBLIC STREET NAMES
4603,MASCARELL,AVE,,MASCARELL AVENUE,501J2,PUBLIC STREET NAMES
4271,MONTE VISTA,WAY,,MONTE VISTA WAY,592E5,PUBLIC STREET NAMES
4202,MOUNT ANGELUS,PL,,MOUNT ANGELUS PLACE,595D2,PUBLIC STREET NAMES
4334,MIRROR LAKE,DR,,MIRROR LAKE DRIVE,593F1,PUBLIC STREET NAMES
4491,MEADOW WOOD,LANE,,MEADOW WOOD LANE,481C3,PUBLIC STREET NAMES
4513,MCMANUS,AVE,,MCMANUS AVENUE,632J7,PUBLIC STREET NAMES
4589,MATISSE,AVE,,MATISSE AVENUE,560A5,PUBLIC STREET NAMES
4730,MANNING,AVE,,MANNING AVENUE,632B2,PUBLIC STREET NAMES
4432,MERRICK,ST,,MERRICK STREET,634H5,PUBLIC STREET NAMES
4581,MAVIS,DR,,MAVIS DRIVE,595A4,PUBLIC STREET NAMES
4750,MALONE,ST,,MALONE STREET,672B1,PUBLIC STREET NAMES
4277,MONTEREY,ROAD,,MONTEREY ROAD,595D4,PUBLIC STREET NAMES
4170,MURRAY,CIR,,MURRAY CIRCLE,594C6,PUBLIC STREET NAMES
4289,MONTECITO,CIR,,MONTECITO CIRCLE,595C5,PUBLIC STREET NAMES
425,MELINDA,WAY,,MELINDA WAY,501A5,PRIVATE STREET NAMES
10949,MARLOW,LANE,,MARLOW LANE,500F3,PRIVATE STREET NAMES
4585,MAUBERT,AVE,,MAUBERT AVENUE,594A4,PUBLIC STREET NAMES
407,MORTON,WALK,,MORTON WALK,594F6,PRIVATE STREET NAMES
4571,MAYERLING,ST,,MAYERLING STREET,481C7,PUBLIC STREET NAMES
4303,MONON,ST,,MONON STREET,594B3,PUBLIC STREET NAMES
445,M,ST,,M STREET,74D3,PRIVATE STREET NAMES
4552,MCCLURE,ST,,MCCLURE STREET,594J6,PUBLIC STREET NAMES
4692,MARCUS,AVE,,MARCUS AVENUE,504B4,PUBLIC STREET NAMES
4390,MILAN,PL,,MILAN PLACE,823H5,PUBLIC STREET NAMES
4802,MAC CULLOCH,DR,,MAC CULLOCH DRIVE,631G1,PUBLIC STREET NAMES
406,MOSSY ROCK,CIR,,MOSSY ROCK CIRCLE,592B1,PRIVATE STREET NAMES
4245,MOORPARK,ST,,MOORPARK STREET,563A4,PUBLIC STREET NAMES
4780,MAGELLAN,DR,,MAGELLAN DRIVE,764A4,PUBLIC STREET NAMES
4785,MAEMURRAY,DR,,MAEMURRAY DRIVE,565B4,PUBLIC STREET NAMES
4263,MONTREAL,ST,,MONTREAL STREET,702A3,PUBLIC STREET NAMES
4398,MIDLAND,ST,,MIDLAND STREET,595A5,PUBLIC STREET NAMES
4178,MULLEN,AVE,,MULLEN AVENUE,633E3,PUBLIC STREET NAMES
4744,MAMMOTH,AVE,,MAMMOTH AVENUE,532B1,PUBLIC STREET NAMES
4333,MISSION,ROAD,,MISSION ROAD,595C7,PUBLIC STREET NAMES
4630,MARSH,ST,,MARSH STREET,594F3,PUBLIC STREET NAMES
4402,MIDDLECOFF,PL,,MIDDLECOFF PLACE,481D5,PUBLIC STREET NAMES
4665,MARIONWOOD,DR,,MARIONWOOD DRIVE,672E5,PUBLIC STREET NAMES
4168,MUSCATINE,ST,,MUSCATINE STREET,502E6,PUBLIC STREET NAMES
4687,MARGARITA,DR,,MARGARITA DRIVE,559H5,PUBLIC STREET NAMES
4486,MEDIA,DR,,MEDIA DRIVE,595C3,PUBLIC STREET NAMES
4175,MUMFORD,ST,,MUMFORD STREET,501J5,PUBLIC STREET NAMES
4699,MARCHENA,DR,,MARCHENA DRIVE,594J3,PUBLIC STREET NAMES
4179,MULLDAE,AVE,,MULLDAE AVENUE,623H7,PUBLIC STREET NAMES
4363,MILWOOD,CT,,MILWOOD COURT,671H5,PUBLIC STREET NAMES
4575,MAYBERRY,ST,,MAYBERRY STREET,594D6,PUBLIC STREET NAMES
10611,MELETO,LANE,,MELETO LANE,500D1,PRIVATE ROADWAY NAMES
10168,MARIPOSA BAY,LANE,,MARIPOSA BAY LANE,480E7,PRIVATE STREET NAMES
4217,MOSS,AVE,,MOSS AVENUE,594G2,PUBLIC STREET NAMES
4206,MOUNTAIN VIEW,AVE,,MOUNTAIN VIEW AVENUE,634D1,PUBLIC STREET NAMES
4648,MARMOL,DR,,MARMOL DRIVE,560B3,PUBLIC STREET NAMES
4360,MINDANAO,WAY,,MINDANAO WAY,672C6,PUBLIC STREET NAMES
4207,MOUNTAIN OAK,DR,,MOUNTAIN OAK DRIVE,593H3,PUBLIC STREET NAMES
4525,MCKENDREE,AVE,,MCKENDREE AVENUE,631A4,PUBLIC STREET NAMES
4497,MEADOW RIDGE,ROAD,,MEADOW RIDGE ROAD,561E5,PUBLIC STREET NAMES
4799,MACFARLANE,DR,,MACFARLANE DRIVE,559H3,PUBLIC STREET NAMES
4684,MARGUERITE,ST,,MARGUERITE STREET,594G2,PUBLIC STREET NAMES
4650,MARMAY,PL,,MARMAY PLACE,532J2,PUBLIC STREET NAMES
4593,MATHER,AVE,,MATHER AVENUE,503G3,PUBLIC STREET NAMES
4514,MCLEOD,DR,,MCLEOD DRIVE,592J4,PUBLIC STREET NAMES
4180,MULHOLLAND,WAY,,MULHOLLAND WAY,560A4,PUBLIC STREET NAMES
9571,MITCHELL,PL,,MITCHELL PLACE,44B4,PRIVATE STREET NAMES
4528,MCGROARTY,TER,,MCGROARTY TERRACE,503J4,PUBLIC STREET NAMES
4443,MERCHANT,ST,,MERCHANT STREET,634G6,PUBLIC STREET NAMES
4591,MATHEWS,ST,,MATHEWS STREET,635B5,PUBLIC STREET NAMES
4795,MACNEIL,ST,,MACNEIL STREET,482D5,PUBLIC STREET NAMES
4410,MIAMI,WAY,,MIAMI WAY,630J5,PUBLIC STREET NAMES
10968,MORNINGSTAR,LANE,,MORNINGSTAR LANE,530B1,PRIVATE STREET NAMES
4219,MOSHER,AVE,,MOSHER AVENUE,595B5,PUBLIC STREET NAMES
4362,MIMOSA,DR,,MIMOSA DRIVE,594H2,PUBLIC STREET NAMES
4368,MILTON,CT,,MILTON COURT,595A3,PUBLIC STREET NAMES
4192,MT ROYAL,DR,,MT ROYAL DRIVE,565B5,PUBLIC STREET NAMES
4771,MAHONEY,DR,,MAHONEY DRIVE,503B3,PUBLIC STREET NAMES
411,MORRIS,AVE,,MORRIS AVENUE,79C1,PRIVATE STREET NAMES
4236,MORENO,DR,,MORENO DRIVE,632E2,PUBLIC STREET NAMES
413,MORAGA,TER,,MORAGA TERRACE,32C5,PRIVATE STREET NAMES
4635,MARQUEZ,PL,,MARQUEZ PLACE,630H6,PUBLIC STREET NAMES
4161,MYRA,TR,,MYRA TRAIL,593A3,PUBLIC STREET NAMES
414,MORAGA,LANE,,MORAGA LANE,591H6,PRIVATE STREET NAMES
4358,MINDORA,AVE,,MINDORA AVENUE,482D2,PUBLIC STREET NAMES
9697,MUSTANG,,,MUSTANG,481G1,UNOFFICIAL PRIVATE STREET NAMES
4772,MAHOGANY,TR,,MAHOGANY TRAIL,504C4,PUBLIC STREET NAMES
421,MONTAGUE,LANE,,MONTAGUE LANE,502F4,PRIVATE STREET NAMES
4365,MILWOOD,AVE,,MILWOOD AVENUE,500B4,PUBLIC STREET NAMES
4162,MYRA,AVE,,MYRA AVENUE,594B3,PUBLIC STREET NAMES
4337,MIRANDA,ST,,MIRANDA STREET,562H1,PUBLIC STREET NAMES
4709,MARATHON,ST,,MARATHON STREET,594A6,PUBLIC STREET NAMES
4570,MAYFAIR,DR,,MAYFAIR DRIVE,594J4,PUBLIC STREET NAMES
4405,MICHELTORENA,ST,,MICHELTORENA STREET,594C3,PUBLIC STREET NAMES
4324,MOANA,WALK,,MOANA WALK,562A6,PUBLIC STREET NAMES
417,MOONRIDGE,DR,,MOONRIDGE DRIVE,561G6,PRIVATE STREET NAMES
10667,MOPENA,WAY,,MOPENA WAY,500C1,PRIVATE STREET NAMES
434,MATEO,PL,,MATEO PLACE,674H1,PRIVATE STREET NAMES
4220,MOSBY,ST,,MOSBY STREET,559G4,PUBLIC STREET NAMES
4490,MEADVILLE,DR,,MEADVILLE DRIVE,561H6,PUBLIC STREET NAMES
4282,MONTE LEON,WAY,,MONTE LEON WAY,480G7,PUBLIC STREET NAMES
4783,MAESTRO,PL,,MAESTRO PLACE,529F4,PUBLIC STREET NAMES
4519,MCLAREN,AVE,,MCLAREN AVENUE,529H3,PUBLIC STREET NAMES
4775,MAGNOLIA,CT,,MAGNOLIA COURT,634B6,PUBLIC STREET NAMES
4296,MONTCALM,AVE,,MONTCALM AVENUE,593C1,PUBLIC STREET NAMES
9696,MAYNARD,AVE,,MAYNARD AVENUE,529H6,UNOFFICIAL PRIVATE STREET NAMES
4729,MANNING,AVE,,MANNING AVENUE,632F7,PUBLIC STREET NAMES
431,MAYERLING,ST,,MAYERLING STREET,481A6,PRIVATE STREET NAMES
4555,MCCLINTOCK,AVE,,MCCLINTOCK AVENUE,634B7,PUBLIC STREET NAMES
4430,MERRIMAC,ROAD,,MERRIMAC ROAD,591D4,PUBLIC STREET NAMES
4733,MANITOU,AVE,,MANITOU AVENUE,635A1,PUBLIC STREET NAMES
10849,MAIN,ST,,MAIN STREET,563B5,PRIVATE ROADWAY NAMES
4397,MIDVALE,AVE,,MIDVALE AVENUE,632A2,PUBLIC STREET NAMES
4777,MAGNOLIA,AVE,,MAGNOLIA AVENUE,634B6,PUBLIC STREET NAMES
4731,MANKATO,ST,,MANKATO STREET,501H2,PUBLIC STREET NAMES
4406,MICHELANGELO,AVE,,MICHELANGELO AVENUE,560A5,PUBLIC STREET NAMES
4668,MARINETTE,ROAD,,MARINETTE ROAD,631B4,PUBLIC STREET NAMES
4183,MULHOLLAND,HWY,,MULHOLLAND HIGHWAY,563G7,PUBLIC STREET NAMES
4723,MANSFIELD,AVE,,MANSFIELD AVENUE,593D5,PUBLIC STREET NAMES
10001,MONTAGUE,CT,,MONTAGUE COURT,481A5,PRIVATE STREET NAMES
4751,MALLOT,PL,,MALLOT PLACE,481D7,PUBLIC STREET NAMES
4697,MARCIA,DR,,MARCIA DRIVE,594B6,PUBLIC STREET NAMES
4345,MIRABEAU,AVE,,MIRABEAU AVENUE,823J4,PUBLIC STREET NAMES
4526,MCKEEVER,ST,,MCKEEVER STREET,501G1,PUBLIC STREET NAMES
10030,MARBLEHEAD,WAY,,MARBLEHEAD WAY,560J6,PRIVATE STREET NAMES
4267,MONTIER,LANE,,MONTIER LANE,NA,PUBLIC STREET NAMES
418,MONTUSO,PL,,MONTUSO PLACE,561C6,PRIVATE STREET NAMES
4719,MANTON,AVE,,MANTON AVENUE,529F7,PUBLIC STREET NAMES
4493,MEADOW VIEW,DR,,MEADOW VIEW DRIVE,561F5,PUBLIC STREET NAMES
4440,MEREDITH,CT,,MEREDITH COURT,529E3,PUBLIC STREET NAMES
10197,MCLEAN,WAY,,MCLEAN WAY,702F4,PUBLIC STREET NAMES
4476,MEGAN,PL,,MEGAN PLACE,500A7,PUBLIC STREET NAMES
4174,MUNSON,AVE,,MUNSON AVENUE,595A1,PUBLIC STREET NAMES
442,MANDEVILLE,PL,,MANDEVILLE PLACE,31F6,PRIVATE STREET NAMES
4803,MACBETH,ST,,MACBETH STREET,594F7,PUBLIC STREET NAMES
4300,MONTAGUE,ST,,MONTAGUE STREET,502E5,PUBLIC STREET NAMES
9590,MISSION GLEN,LANE,,MISSION GLEN LANE,481J7,PUBLIC STREET NAMES
4310,MONARCA,DR,,MONARCA DRIVE,560F4,PUBLIC STREET NAMES
432,MAYDOCK,PL,,MAYDOCK PLACE,504A3,PRIVATE STREET NAMES
4387,MILBURN,DR,,MILBURN DRIVE,533C2,PUBLIC STREET NAMES
4538,MCDONALD,AVE,,MCDONALD AVENUE,794D4,PUBLIC STREET NAMES
4193,MT PLEASANT,ST,,MT PLEASANT STREET,595A1,PUBLIC STREET NAMES
4484,MEDILL,PL,,MEDILL PLACE,632G6,PUBLIC STREET NAMES
9808,MAPLEWOOD,LANE,,MAPLEWOOD LANE,500H4,PRIVATE STREET NAMES
4705,MARBRO,DR,,MARBRO DRIVE,561E5,PUBLIC STREET NAMES
4496,MEADOW RIDGE,WAY,,MEADOW RIDGE WAY,561E5,PUBLIC STREET NAMES
4225,MORSE,AVE,,MORSE AVENUE,532D2,PUBLIC STREET NAMES
4352,MINNEAPOLIS,ST,,MINNEAPOLIS STREET,594E2,PUBLIC STREET NAMES
4413,METZLER,DR,,METZLER DRIVE,595C7,PUBLIC STREET NAMES
10382,MAMMOTH,PL,,MAMMOTH PLACE,562C4,PRIVATE STREET NAMES
4500,MEADOWGATE,ROAD,,MEADOWGATE ROAD,561G5,PUBLIC STREET NAMES
4369,MILO,TER,,MILO TERRACE,595B2,PUBLIC STREET NAMES
10530,MOUNTAIN VIEW,CT,,MOUNTAIN VIEW COURT,482D1,PRIVATE ROADWAY NAMES
10593,MONDAVI,WAY,,MONDAVI WAY,500E1,PRIVATE ROADWAY NAMES
9591,MISSION HILLS,ROAD,,MISSION HILLS ROAD,481H7,PUBLIC STREET NAMES
415,MORAGA,DR,,MORAGA DRIVE,591H5,PRIVATE STREET NAMES
4160,MYRNA,ST,,MYRNA STREET,563B2,PUBLIC STREET NAMES
4523,MCKIM,CT,,MCKIM COURT,593A3,PUBLIC STREET NAMES
4488,MECHAM,WAY,,MECHAM WAY,673D6,PUBLIC STREET NAMES
4244,MOORPARK,WAY,,MOORPARK WAY,563B4,PUBLIC STREET NAMES
4189,MOY,LANE,,MOY LANE,503H4,PUBLIC STREET NAMES
4786,MADRONO,LANE,,MADRONO LANE,592B7,PUBLIC STREET NAMES
4421,MESETA,DR,,MESETA DRIVE,503A4,PUBLIC STREET NAMES
4342,MIRADOR,PL,,MIRADOR PLACE,560G4,PUBLIC STREET NAMES
4393,MIGNONETTE,ST,,MIGNONETTE STREET,634E2,PUBLIC STREET NAMES
4448,MENTONE,AVE,,MENTONE AVENUE,632E7,PUBLIC STREET NAMES
4210,MOUND VIEW,AVE,,MOUND VIEW AVENUE,562G6,PUBLIC STREET NAMES
4748,MALTBY,PL,,MALTBY PLACE,793J2,PUBLIC STREET NAMES
4355,MINERVA,AVE,,MINERVA AVENUE,672D3,PUBLIC STREET NAMES
4260,MONUMENT,ST,,MONUMENT STREET,631A4,PUBLIC STREET NAMES
10854,MOUNT CARMEL,DR,,MOUNT CARMEL DRIVE,564J4,UNOFFICIAL PRIVATE STREET NAMES
4298,MONTANA,AVE,,MONTANA AVENUE,631J2,PUBLIC STREET NAMES
4667,MARION,AVE,,MARION AVENUE,634F1,PUBLIC STREET NAMES
4568,MAYFIELD,AVE,,MAYFIELD AVENUE,504C7,PUBLIC STREET NAMES
9566,MINER,ST,,MINER STREET,704H3,PRIVATE STREET NAMES
4336,MIRASOL,ST,,MIRASOL STREET,675C1,PUBLIC STREET NAMES
4291,MONTE CIELO,CT,,MONTE CIELO COURT,592F4,PUBLIC STREET NAMES
4712,MAPLETON,DR,,MAPLETON DRIVE,592C7,PUBLIC STREET NAMES
4379,MILLDALE,CT,,MILLDALE COURT,532F3,PUBLIC STREET NAMES
4221,MORTON,TER,,MORTON TERRACE,594E6,PUBLIC STREET NAMES
4527,MCINTYRE,ST,,MCINTYRE STREET,481H6,PUBLIC STREET NAMES
4549,MCCONNELL,AVE,,MCCONNELL AVENUE,672D6,PUBLIC STREET NAMES
4216,MOSS,WALK,,MOSS WALK,594H3,PUBLIC STREET NAMES
4305,MONO,ST,,MONO STREET,634J4,PUBLIC STREET NAMES
429,MCLEOD,DR,,MCLEOD DRIVE,592J4,PRIVATE STREET NAMES
4214,MOTOR,PL,,MOTOR PLACE,632F5,PUBLIC STREET NAMES
4475,MEIER,ST,,MEIER STREET,672B3,PUBLIC STREET NAMES
4614,MAR VISTA,AVE,,MAR VISTA AVENUE,794C7,PUBLIC STREET NAMES
4711,MAPLEWOOD,AVE,,MAPLEWOOD AVENUE,593J7,PUBLIC STREET NAMES
4485,MEDICAL CENTER,DR,,MEDICAL CENTER DRIVE,594F3,PUBLIC STREET NAMES
10917,MONTICELLO,ST,,MONTICELLO STREET,502E5,PRIVATE ROADWAY NAMES
4703,MARCELLO,PL,,MARCELLO PLACE,561B4,PUBLIC STREET NAMES
4807,MABERY,ROAD,,MABERY ROAD,631B7,PUBLIC STREET NAMES
4530,MCGROARTY,PL,,MCGROARTY PLACE,NA,PUBLIC STREET NAMES
4560,MCCARTHY,DR,,MCCARTHY DRIVE,564G7,PUBLIC STREET NAMES
9695,MANNING,DR,,MANNING DRIVE,632B2,UNOFFICIAL PRIVATE STREET NAMES
4788,MADORA,AVE,,MADORA AVENUE,530E5,PUBLIC STREET NAMES
4746,MALVERN,AVE,,MALVERN AVENUE,634B5,PUBLIC STREET NAMES
10441,MOUNTAIN VIEW,PL,,MOUNTAIN VIEW PLACE,482D1,PRIVATE ROADWAY NAMES
4159,MYRTLE,ST,,MYRTLE STREET,634E6,PUBLIC STREET NAMES
4258,MOON,AVE,,MOON AVENUE,595A3,PUBLIC STREET NAMES
4261,MONTUSO,PL,,MONTUSO PLACE,561D6,PUBLIC STREET NAMES
4338,MIRANDA,PL,,MIRANDA PLACE,560D2,PUBLIC STREET NAMES
10416,MILLENNIUM,,,MILLENNIUM,672F7,PUBLIC STREET NAMES
4649,MARMION,WAY,,MARMION WAY,595C2,PUBLIC STREET NAMES
4414,METZ,PL,,METZ PLACE,592J5,PUBLIC STREET NAMES
4656,MARLAY,DR,,MARLAY DRIVE,593A4,PUBLIC STREET NAMES
437,MARTSON,DR,,MARTSON DRIVE,561A4,PRIVATE STREET NAMES
4211,MOUND,ST,,MOUND STREET,593F3,PUBLIC STREET NAMES
4320,MOCO,LANE,,MOCO LANE,593H2,PUBLIC STREET NAMES
4412,MEYER,ST,,MEYER STREET,481J6,PUBLIC STREET NAMES
4553,MCCLUNG,WALK,,MCCLUNG WALK,673E3,PUBLIC STREET NAMES
9948,MANDY,CT,,MANDY COURT,559C1,PUBLIC STREET NAMES
4594,MATEO,ST,,MATEO STREET,634H5,PUBLIC STREET NAMES
4299,MONTALVO,ST,,MONTALVO STREET,595A5,PUBLIC STREET NAMES
4492,MEADOW VIEW,PL,,MEADOW VIEW PLACE,561F5,PUBLIC STREET NAMES
4606,MARYMOUNT,PL,,MARYMOUNT PLACE,632A1,PUBLIC STREET NAMES
4436,MERION,DR,,MERION DRIVE,500G1,PUBLIC STREET NAMES
4341,MIRAFLORES,AVE,,MIRAFLORES AVENUE,824A3,PUBLIC STREET NAMES
4177,MULTIVIEW,DR,,MULTIVIEW DRIVE,563B7,PUBLIC STREET NAMES
9908,MELVIN,AVE,,MELVIN AVENUE,530F4,PRIVATE STREET NAMES
10187,MOORCROFT,AVE,,MOORCROFT AVENUE,12B2,PRIVATE STREET NAMES
438,MARLU,DR,,MARLU DRIVE,592J2,PRIVATE STREET NAMES
4541,MCCUE,CT,,MCCUE COURT,530C2,PUBLIC STREET NAMES
4644,MARMORA,ST,,MARMORA STREET,560C5,PUBLIC STREET NAMES
4424,MESA,AVE,,MESA AVENUE,595C2,PUBLIC STREET NAMES
4198,MOUNTCREST,AVE,,MOUNTCREST AVENUE,592J4,PUBLIC STREET NAMES
4235,MORGAN,AVE,,MORGAN AVENUE,674F3,PUBLIC STREET NAMES
4311,MONANGO,LANE,,MONANGO LANE,NA,PUBLIC STREET NAMES
4389,MILANO,WAY,,MILANO WAY,533C2,PUBLIC STREET NAMES
4195,MOUNT HOLYOKE,AVE,,MOUNT HOLYOKE AVENUE,631A6,PUBLIC STREET NAMES
4551,MCCOLLUM,PL,,MCCOLLUM PLACE,594D6,PUBLIC STREET NAMES
440,MARK,PL,,MARK PLACE,592B3,PRIVATE STREET NAMES
4542,MCCREADY,AVE,,MCCREADY AVENUE,594E4,PUBLIC STREET NAMES
4469,MELITA,AVE,,MELITA AVENUE,532D3,PUBLIC STREET NAMES
4529,MCGROARTY,ST,,MCGROARTY STREET,503J4,PUBLIC STREET NAMES
4604,MASCAGNI,ST,,MASCAGNI STREET,672D6,PUBLIC STREET NAMES
4456,MEMPHIS,AVE,,MEMPHIS AVENUE,481J6,PUBLIC STREET NAMES
4407,MICHALE,ST,,MICHALE STREET,530A1,PUBLIC STREET NAMES
405,MOUNTAIN CREST,LANE,,MOUNTAIN CREST LANE,591E4,PRIVATE STREET NAMES
4518,MCLAUGHLIN,AVE,,MCLAUGHLIN AVENUE,672C2,PUBLIC STREET NAMES
4643,MARNEY,AVE,,MARNEY AVENUE,635E2,PUBLIC STREET NAMES
426,MEI LING,WAY,,MEI LING WAY,634G2,PRIVATE STREET NAMES
4515,MCLENNAN,AVE,,MCLENNAN AVENUE,481C5,PUBLIC STREET NAMES
4694,MARCO,PL,,MARCO PLACE,671J5,PUBLIC STREET NAMES
4714,MAPLE,AVE,,MAPLE AVENUE,634F5,PUBLIC STREET NAMES
4441,MERCURY,CT,,MERCURY COURT,634E5,PUBLIC STREET NAMES
4418,MESNAGER,ST,,MESNAGER STREET,634H1,PUBLIC STREET NAMES
4408,MICHAEL,LANE,,MICHAEL LANE,590F7,PUBLIC STREET NAMES
4247,MOORE,ST,,MOORE STREET,672A3,PUBLIC STREET NAMES
4548,MCCONNELL,BLVD,,MCCONNELL BOULEVARD,672C5,PUBLIC STREET NAMES
4797,MACHREA,ST,,MACHREA STREET,503H3,PUBLIC STREET NAMES
4297,MONTANA,ST,,MONTANA STREET,594D7,PUBLIC STREET NAMES
9971,MORNING GLOW,WAY,,MORNING GLOW WAY,503C7,PUBLIC STREET NAMES
4434,MERIVALE,LANE,,MERIVALE LANE,630H4,PUBLIC STREET NAMES
4782,MAGDALENA,ST,,MAGDALENA STREET,634H2,PUBLIC STREET NAMES
4808,M,ST,,M STREET,794F5,PUBLIC STREET NAMES
4185,MULBERRY,DR,,MULBERRY DRIVE,503E3,PUBLIC STREET NAMES
4506,MCVINE,AVE,,MCVINE AVENUE,503G3,PUBLIC STREET NAMES
4734,MANITOBA,ST,,MANITOBA STREET,702B4,PUBLIC STREET NAMES
4708,MARAVILLA,DR,,MARAVILLA DRIVE,593D3,PUBLIC STREET NAMES
4237,MORENO,DR,,MORENO DRIVE,594D3,PUBLIC STREET NAMES
4726,MANOLA,WAY,,MANOLA WAY,593G3,PUBLIC STREET NAMES
433,MAURETANIA,ST,,MAURETANIA STREET,74E3,PRIVATE STREET NAMES
4376,MILLER,PL,,MILLER PLACE,592J5,PUBLIC STREET NAMES
10741,MARKRIDGE,ROAD,,MARKRIDGE ROAD,504D4,PUBLIC STREET NAMES
4191,MT SHASTA,DR,,MT SHASTA DRIVE,823J1,PUBLIC STREET NAMES
4403,MIDDLEBURY,ST,,MIDDLEBURY STREET,594A7,PUBLIC STREET NAMES
4806,MACAL,PL,,MACAL PLACE,593F2,PUBLIC STREET NAMES
4169,MURRAY,DR,,MURRAY DRIVE,594C6,PUBLIC STREET NAMES
4228,MORNINGSIDE,WAY,,MORNINGSIDE WAY,672A3,PUBLIC STREET NAMES
4509,MCPHERSON,PL,,MCPHERSON PLACE,595E7,PUBLIC STREET NAMES
4466,MELROSE,AVE,,MELROSE AVENUE,594A6,PUBLIC STREET NAMES
4621,MARTINDALE,AVE,,MARTINDALE AVENUE,503C7,PUBLIC STREET NAMES
4546,MCCONNELL,PL,,MCCONNELL PLACE,632F6,PUBLIC STREET NAMES
10154,MERCED,CT,,MERCED COURT,501H7,PRIVATE ROADWAY NAMES
4348,MINSTREL,AVE,,MINSTREL AVENUE,529G3,PUBLIC STREET NAMES
4696,MARCO,CT,,MARCO COURT,671J5,PUBLIC STREET NAMES
4392,MIKUNI,AVE,,MIKUNI AVENUE,500F7,PUBLIC STREET NAMES
441,MARINER,DR,,MARINER DRIVE,NA,PRIVATE STREET NAMES
9814,MONTE ALTO,PL,,MONTE ALTO PLACE,630G1,PUBLIC STREET NAMES
4442,MERCURY,AVE,,MERCURY AVENUE,595C6,PUBLIC STREET NAMES
4359,MINDEN,PL,,MINDEN PLACE,565D6,PUBLIC STREET NAMES
4627,MARSHALL,ST,,MARSHALL STREET,672E6,PUBLIC STREET NAMES
4232,MORLEY,AVE,,MORLEY AVENUE,673B6,PUBLIC STREET NAMES
4599,MASSACHUSETTS,AVE,,MASSACHUSETTS AVENUE,632B4,PUBLIC STREET NAMES
4700,MARCHEETA,PL,,MARCHEETA PLACE,592H4,PUBLIC STREET NAMES
10945,MOSAIC,CT,,MOSAIC COURT,564J6,LIMITED ACCESS AREA NAMES
4240,MOREHART,AVE,,MOREHART AVENUE,502E7,PUBLIC STREET NAMES
4637,MARQUETTE,ST,,MARQUETTE STREET,630H5,PUBLIC STREET NAMES
4749,MALTA,ST,,MALTA STREET,595B3,PUBLIC STREET NAMES
4597,MAST,CT,,MAST COURT,701J1,PUBLIC STREET NAMES
4494,MEADOW VALLEY,TER,,MEADOW VALLEY TERRACE,594C4,PUBLIC STREET NAMES
4246,MOORGATE,ROAD,,MOORGATE ROAD,592C1,PUBLIC STREET NAMES
4701,MARCHANT,AVE,,MARCHANT AVENUE,482E2,PUBLIC STREET NAMES
4404,MICHIGAN,AVE,,MICHIGAN AVENUE,635A4,PUBLIC STREET NAMES
4325,MITCHELL,PL,,MITCHELL PLACE,635A3,PUBLIC STREET NAMES
419,MONTLAKE,DR,,MONTLAKE DRIVE,563F7,PRIVATE STREET NAMES
4463,MELVIL,ST,,MELVIL STREET,632J7,PUBLIC STREET NAMES
416,MOONRIDGE,TER,,MOONRIDGE TERRACE,592E1,PRIVATE STREET NAMES
4165,MUSKINGUM,PL,,MUSKINGUM PLACE,630J5,PUBLIC STREET NAMES
4186,MUIRKIRK,DR,,MUIRKIRK DRIVE,480G6,PUBLIC STREET NAMES
4438,MERIDIAN,ST,,MERIDIAN STREET,595B1,PUBLIC STREET NAMES
4205,MOUNTAIN VIEW,AVE,,MOUNTAIN VIEW AVENUE,672B2,PUBLIC STREET NAMES
403,MT HOLLYWOOD,DR,,MT HOLLYWOOD DRIVE,563H5,PRIVATE STREET NAMES
4689,MARENGO,ST,,MARENGO STREET,635C3,PUBLIC STREET NAMES
10307,MARIPOSA PINES,WAY,,MARIPOSA PINES WAY,480E7,PRIVATE STREET NAMES
10575,MEADOW RIDGE,ST,,MEADOW RIDGE STREET,503A3,PRIVATE STREET NAMES
10335,MAGNOLIA,PL,,MAGNOLIA PLACE,794A3,PRIVATE ROADWAY NAMES
4658,MARKLEIN,AVE,,MARKLEIN AVENUE,501G2,PUBLIC STREET NAMES
4567,MAYFLOWER,DR,,MAYFLOWER DRIVE,481B7,PUBLIC STREET NAMES
4215,MOTOR,AVE,,MOTOR AVENUE,632F4,PUBLIC STREET NAMES
4572,MAYCREST,AVE,,MAYCREST AVENUE,595G5,PUBLIC STREET NAMES
4354,MINERVA,ST,,MINERVA STREET,674H2,PUBLIC STREET NAMES
4415,METTLER,ST,,METTLER STREET,672D2,PUBLIC STREET NAMES
4188,MOZART,ST,,MOZART STREET,635A1,PUBLIC STREET NAMES
4801,MACDONOUGH,AVE,,MACDONOUGH AVENUE,74E4,PUBLIC STREET NAMES
4465,MELROSE,HILL,,MELROSE HILL,593H6,PUBLIC STREET NAMES
4690,MARENGO,PL,,MARENGO PLACE,635B3,PUBLIC STREET NAMES
4768,MAIDSTONE,CIR,,MAIDSTONE CIRCLE,793J2,PUBLIC STREET NAMES
4288,MONTECITO,DR,,MONTECITO DRIVE,595B5,PUBLIC STREET NAMES
4447,MERAMEC,AVE,,MERAMEC AVENUE,824A4,PUBLIC STREET NAMES
4794,MACON,ST,,MACON STREET,594H4,PUBLIC STREET NAMES
4776,MAGNOLIA,BLVD,,MAGNOLIA BOULEVARD,563A2,PUBLIC STREET NAMES
4458,MEMORY,DR,,MEMORY DRIVE,503J2,PUBLIC STREET NAMES
4227,MORRISON,ST,,MORRISON STREET,563A3,PUBLIC STREET NAMES
4561,MCCADDEN,PL,,MCCADDEN PLACE,593E4,PUBLIC STREET NAMES
4231,MORLEY,ST,,MORLEY STREET,702J4,PUBLIC STREET NAMES
4401,MIDDLESBURY RIDGE,CIR,,MIDDLESBURY RIDGE CIRCLE,529E5,PUBLIC STREET NAMES
10074,MAGNOL,LANE,,MAGNOL LANE,559J1,PRIVATE ROADWAY NAMES
4620,MARTINEZ,ST,,MARTINEZ STREET,560A3,PUBLIC STREET NAMES
4638,MARQUESAS,WAY,,MARQUESAS WAY,671J7,PUBLIC STREET NAMES
4254,MOONSTONE,CT,,MOONSTONE COURT,595C7,PUBLIC STREET NAMES
10670,MONTALCINO,WAY,,MONTALCINO WAY,500C1,PRIVATE STREET NAMES
4640,MARONEY,LANE,,MARONEY LANE,630J4,PUBLIC STREET NAMES
4702,MARCH,AVE,,MARCH AVENUE,529F3,PUBLIC STREET NAMES
4316,MOHAWK,ST,,MOHAWK STREET,594D7,PUBLIC STREET NAMES
4779,MAGENTA,LANE,,MAGENTA LANE,NA,PUBLIC STREET NAMES
4655,MARLBORO,ST,,MARLBORO STREET,631E4,PUBLIC STREET NAMES
420,MONTE VISTA,BLVD,,MONTE VISTA BOULEVARD,10F1,PRIVATE STREET NAMES
4265,MONTLAKE,DR,,MONTLAKE DRIVE,593F1,PUBLIC STREET NAMES
402,MT LEE,DR,,MT LEE DRIVE,563G6,PRIVATE STREET NAMES
4537,MCDONALD,ST,,MCDONALD STREET,672F6,PUBLIC STREET NAMES
4224,MORSE,DR,,MORSE DRIVE,823H6,PUBLIC STREET NAMES
4673,MARINA,DR,,MARINA DRIVE,823H7,PUBLIC STREET NAMES
4395,MIDWICK,LANE,,MIDWICK LANE,560F6,PUBLIC STREET NAMES
4378,MILLDALE,DR,,MILLDALE DRIVE,591G1,PUBLIC STREET NAMES
4520,MCKINLEY,PL,,MCKINLEY PLACE,704E3,PUBLIC STREET NAMES
4223,MORTON,AVE,,MORTON AVENUE,594F6,PUBLIC STREET NAMES
10250,MEDINA ESTATES,DR,,MEDINA ESTATES DRIVE,560A4,PRIVATE STREET NAMES
4380,MILLBROOK,DR,,MILLBROOK DRIVE,562A5,PUBLIC STREET NAMES
10522,MERITAGE,CT,,MERITAGE COURT,533C2,PRIVATE STREET NAMES
4268,MONTGOMERY,AVE,,MONTGOMERY AVENUE,501F2,PUBLIC STREET NAMES
4659,MARKET,ST,,MARKET STREET,671G6,PUBLIC STREET NAMES
4657,MARLA,AVE,,MARLA AVENUE,529E2,PUBLIC STREET NAMES
4681,MARIANNA,AVE,,MARIANNA AVENUE,635E2,PUBLIC STREET NAMES
9564,MESA,ROAD,,MESA ROAD,2D1,PRIVATE STREET NAMES
4315,MOLINA,LANE,,MOLINA LANE,763J2,PUBLIC STREET NAMES
4425,MERWIN,ST,,MERWIN STREET,594D7,PUBLIC STREET NAMES
4805,MACAPA,DR,,MACAPA DRIVE,593D2,PUBLIC STREET NAMES
4222,MORTON,PL,,MORTON PLACE,594F6,PUBLIC STREET NAMES
4663,MARIPOSA,AVE,,MARIPOSA AVENUE,764A2,PUBLIC STREET NAMES
4243,MORAGA,DR,,MORAGA DRIVE,591H1,PUBLIC STREET NAMES
4278,MONTE PLACENTIA,WAY,,MONTE PLACENTIA WAY,592E5,PUBLIC STREET NAMES
3,MARSHALL VILLAS,,,MARSHALL VILLAS,595D4,LIMITED ACCESS AREA NAMES
4677,MARIETTA,ST,,MARIETTA STREET,635A7,PUBLIC STREET NAMES
4741,MANDALAY,DR,,MANDALAY DRIVE,561E6,PUBLIC STREET NAMES
4313,MONA,BLVD,,MONA BOULEVARD,704H6,PUBLIC STREET NAMES
4634,MARQUEZ,TER,,MARQUEZ TERRACE,630H5,PUBLIC STREET NAMES
4417,MESQUIT,ST,,MESQUIT STREET,634H6,PUBLIC STREET NAMES
4283,MONTE GRIGIO,DR,,MONTE GRIGIO DRIVE,630F5,PUBLIC STREET NAMES
4728,MANNING,CT,,MANNING COURT,632F7,PUBLIC STREET NAMES
4743,MANASQUAN,LANE,,MANASQUAN LANE,NA,PUBLIC STREET NAMES
10721,MUSTANG,LANE,,MUSTANG LANE,531G1,PRIVATE ROADWAY NAMES
4680,MARIANO,ST,,MARIANO STREET,559G2,PUBLIC STREET NAMES
4736,MANGO,WAY,,MANGO WAY,631E2,PUBLIC STREET NAMES
4503,MEADOW,DR,,MEADOW DRIVE,592F5,PUBLIC STREET NAMES
4234,MORGAN HILL,CIR,,MORGAN HILL CIRCLE,593G3,PUBLIC STREET NAMES
4698,MARCHENA,ST,,MARCHENA STREET,560B4,PUBLIC STREET NAMES
4615,MARVIN,AVE,,MARVIN AVENUE,633B6,PUBLIC STREET NAMES
4487,MEDFORD,ST,,MEDFORD STREET,635C2,PUBLIC STREET NAMES
4281,MONTE MAR,DR,,MONTE MAR DRIVE,632G4,PUBLIC STREET NAMES
410,MORRO,DR,,MORRO DRIVE,13D3,PRIVATE STREET NAMES
4256,MOONCREST,DR,,MOONCREST DRIVE,561C5,PUBLIC STREET NAMES
10084,MOREA,WAY,,MOREA WAY,559J1,PRIVATE ROADWAY NAMES
4605,MARZELLA,AVE,,MARZELLA AVENUE,631G1,PUBLIC STREET NAMES
4507,MCRAE,DR,,MCRAE DRIVE,823G7,PUBLIC STREET NAMES
10029,MARBELLA,LANE,,MARBELLA LANE,560J6,PRIVATE STREET NAMES
10206,MOUNTAIN RANCH,ROAD,,MOUNTAIN RANCH ROAD,481A7,PUBLIC STREET NAMES
4587,MATTESON,AVE,,MATTESON AVENUE,672D3,PUBLIC STREET NAMES
4385,MILFORD,ST,,MILFORD STREET,595E3,PUBLIC STREET NAMES
4275,MONTERICO,ST,,MONTERICO STREET,NA,PUBLIC STREET NAMES
4716,MANTUA,WALK,,MANTUA WALK,630H6,PUBLIC STREET NAMES
4391,MILACA,PL,,MILACA PLACE,562A6,PUBLIC STREET NAMES
10735,MAYERLING,CT,,MAYERLING COURT,481A6,PRIVATE STREET NAMES
427,MEDORA,ST,,MEDORA STREET,NA,PRIVATE STREET NAMES
4550,MCCOLLUM,ST,,MCCOLLUM STREET,594D6,PUBLIC STREET NAMES
10140,MAYFAIR,PL,,MAYFAIR PLACE,500G7,PRIVATE ROADWAY NAMES
4559,MCCARTHY VISTA,,,MCCARTHY VISTA,633A3,PUBLIC STREET NAMES
4511,MCNULTY,PL,,MCNULTY PLACE,530C3,PUBLIC STREET NAMES
9881,MISSION,CIR,,MISSION CIRCLE,499H1,PRIVATE STREET NAMES
4765,MAIN,ST,,MAIN STREET,635A2,PUBLIC STREET NAMES
4357,MINDORA,CT,,MINDORA COURT,481C6,PUBLIC STREET NAMES
10526,MEDIA CENTER,DR,,MEDIA CENTER DRIVE,594F3,PUBLIC STREET NAMES
4787,MADRAS,LANE,,MADRAS LANE,NA,PUBLIC STREET NAMES
4558,MCCLELLAN,DR,,MCCLELLAN DRIVE,631G5,PUBLIC STREET NAMES
4647,MARMONT,AVE,,MARMONT AVENUE,593A4,PUBLIC STREET NAMES
4502,MEADOWBROOK,AVE,,MEADOWBROOK AVENUE,633D4,PUBLIC STREET NAMES
10280,MCCLINTOCK,AVE,,MCCLINTOCK AVENUE,674A1,PRIVATE ROADWAY NAMES
4197,MT GLEASON,AVE,,MT GLEASON AVENUE,503H1,PUBLIC STREET NAMES
4212,MOULTON,AVE,,MOULTON AVENUE,634J2,PUBLIC STREET NAMES
4332,MISSION RIDGE,WAY,,MISSION RIDGE WAY,481B6,PUBLIC STREET NAMES
4759,MALAGA,ROAD,,MALAGA ROAD,593D3,PUBLIC STREET NAMES
4209,MOUND VIEW,PL,,MOUND VIEW PLACE,562G6,PUBLIC STREET NAMES
4717,MANTUA,ROAD,,MANTUA ROAD,630H6,PUBLIC STREET NAMES
4257,MOONBEAM,AVE,,MOONBEAM AVENUE,502A6,PUBLIC STREET NAMES
4270,MONTEZUMA,ST,,MONTEZUMA STREET,595B2,PUBLIC STREET NAMES
4276,MONTEREY,ST,,MONTEREY STREET,595A4,PUBLIC STREET NAMES
4685,MARGO,ST,,MARGO STREET,634D6,PUBLIC STREET NAMES
4742,MANCHESTER,AVE,,MANCHESTER AVENUE,704D2,PUBLIC STREET NAMES
4200,MT BEACON,TER,,MT BEACON TERRACE,593G2,PUBLIC STREET NAMES
4284,MONTE GRANDE,PL,,MONTE GRANDE PLACE,630G1,PUBLIC STREET NAMES
4715,MANZANITA,ST,,MANZANITA STREET,594B6,PUBLIC STREET NAMES
9787,MOUNT HELENA,AVE,,MOUNT HELENA AVENUE,565C5,PUBLIC STREET NAMES
4563,MCALLISTER,ST,,MCALLISTER STREET,635B3,PUBLIC STREET NAMES
412,MORNINGSIDE,CT,,MORNINGSIDE COURT,34C3,PRIVATE STREET NAMES
4201,MOUNT ANGELUS,WALK,,MOUNT ANGELUS WALK,595D2,PUBLIC STREET NAMES
4295,MONT CLAIR,ST,,MONT CLAIR STREET,633F7,PUBLIC STREET NAMES
10113,MARFIELD,AVE,,MARFIELD AVENUE,560G7,PRIVATE STREET NAMES
4778,MAGNETIC,TER,,MAGNETIC TERRACE,592G4,PUBLIC STREET NAMES
4636,MARQUEZ,AVE,,MARQUEZ AVENUE,630H5,PUBLIC STREET NAMES
4720,MANTIS,AVE,,MANTIS AVENUE,823H7,PUBLIC STREET NAMES
4274,MONTERO,AVE,,MONTERO AVENUE,482A2,PUBLIC STREET NAMES
408,MORTON,PL,,MORTON PLACE,35D5,PRIVATE STREET NAMES
4625,MARSON,ST,,MARSON STREET,531H3,PUBLIC STREET NAMES
4293,MONT EAGLE,PL,,MONT EAGLE PLACE,595A1,PUBLIC STREET NAMES
4531,MCGHIE,AVE,,MCGHIE AVENUE,635F2,PUBLIC STREET NAMES
4374,MILLMARK GROVE,ST,,MILLMARK GROVE STREET,824A2,PUBLIC STREET NAMES
4187,MUIRFIELD,ROAD,,MUIRFIELD ROAD,633F2,PUBLIC STREET NAMES
4287,MONTECITO,ST,,MONTECITO STREET,595B6,PUBLIC STREET NAMES
4420,MESITA,WAY,,MESITA WAY,631C6,PUBLIC STREET NAMES
4576,MAYALL,ST,,MAYALL STREET,501G4,PUBLIC STREET NAMES
4238,MORENO,AVE,,MORENO AVENUE,631F5,PUBLIC STREET NAMES
4753,MALLARD,ST,,MALLARD STREET,595C7,PUBLIC STREET NAMES
4364,MILWOOD,AVE,,MILWOOD AVENUE,671J5,PUBLIC STREET NAMES
4353,MINES,AVE,,MINES AVENUE,675B1,PUBLIC STREET NAMES
4171,MURIETTA,AVE,,MURIETTA AVENUE,502A7,PUBLIC STREET NAMES
4695,MARCO,PL,,MARCO PLACE,672D2,PUBLIC STREET NAMES
4457,MEMORY PARK,AVE,,MEMORY PARK AVENUE,531H1,PUBLIC STREET NAMES
4309,MONET,AVE,,MONET AVENUE,560A6,PUBLIC STREET NAMES
4718,MANTOVA,DR,,MANTOVA DRIVE,673B3,PUBLIC STREET NAMES
9694,MANKATO,ST,,MANKATO STREET,501G2,UNOFFICIAL PRIVATE STREET NAMES
4386,MILDRED,AVE,,MILDRED AVENUE,671H6,PUBLIC STREET NAMES
4722,MANSON,AVE,,MANSON AVENUE,559H5,PUBLIC STREET NAMES
4307,MONITOR,AVE,,MONITOR AVENUE,704G6,PUBLIC STREET NAMES
4532,MCGARRY,ST,,MCGARRY STREET,634G7,PUBLIC STREET NAMES
4562,MCBROOM,ST,,MCBROOM STREET,503A3,PUBLIC STREET NAMES
4280,MONTE MAR,PL,,MONTE MAR PLACE,632G5,PUBLIC STREET NAMES
4208,MOUNTAINGATE,DR,,MOUNTAINGATE DRIVE,591E4,PUBLIC STREET NAMES
4439,MEREDITH,PL,,MEREDITH PLACE,592G3,PUBLIC STREET NAMES
4671,MARINE,AVE,,MARINE AVENUE,794B1,PUBLIC STREET NAMES
4167,MUSEUM,DR,,MUSEUM DRIVE,595A4,PUBLIC STREET NAMES
4646,MARMONT,LANE,,MARMONT LANE,593A5,PUBLIC STREET NAMES
4339,MIRAMAR,ST,,MIRAMAR STREET,634D3,PUBLIC STREET NAMES
4781,MAGEE,AVE,,MAGEE AVENUE,502D1,PUBLIC STREET NAMES
4449,MENLO,AVE,,MENLO AVENUE,634A5,PUBLIC STREET NAMES
4554,MCCLUNG,DR,,MCCLUNG DRIVE,673E2,PUBLIC STREET NAMES
4704,MARCASEL,AVE,,MARCASEL AVENUE,672D4,PUBLIC STREET NAMES
4602,MASCOT,ST,,MASCOT STREET,633D5,PUBLIC STREET NAMES
10757,MARLEY,WAY,,MARLEY WAY,501J6,PRIVATE ROADWAY NAMES
4176,MULTNOMAH,ST,,MULTNOMAH STREET,635D1,PUBLIC STREET NAMES
4312,MONACO,DR,,MONACO DRIVE,631D3,PUBLIC STREET NAMES
4584,MAUDE,AVE,,MAUDE AVENUE,503B5,PUBLIC STREET NAMES
4326,MITCHELL,AVE,,MITCHELL AVENUE,672C4,PUBLIC STREET NAMES
4721,MANTECA,ST,,MANTECA STREET,531B4,PUBLIC STREET NAMES
9565,MIDWOOD,DR,,MIDWOOD DRIVE,481G7,PRIVATE STREET NAMES
4218,MOSLEY,AVE,,MOSLEY AVENUE,673B6,PUBLIC STREET NAMES
4226,MORRO,DR,,MORRO DRIVE,560C4,PUBLIC STREET NAMES
4266,MONTIFLORA,AVE,,MONTIFLORA AVENUE,565A6,PUBLIC STREET NAMES
11188,MOONRISE,PL,,MOONRISE PLACE,702E1,PRIVATE ROADWAY NAMES
4735,MANHATTAN,PL,,MANHATTAN PLACE,593H6,PUBLIC STREET NAMES
11163,MANCHESTER,WAY,,MANCHESTER WAY,480D7,PRIVATE STREET NAMES
10083,MADERIA,DR,,MADERIA DRIVE,559J1,PRIVATE ROADWAY NAMES
11077,MIRABEL,WAY,,MIRABEL WAY,480C6,PRIVATE STREET NAMES
11167,MERSEY,LANE,,MERSEY LANE,480D7,PRIVATE STREET NAMES
11115,MESA VERDE,WAY,,MESA VERDE WAY,482E3,UNOFFICIAL PRIVATE STREET NAMES
11116,MIRA MAR,DR,,MIRA MAR DRIVE,482E3,UNOFFICIAL PRIVATE STREET NAMES
11189,MEADOWLARK,PL,,MEADOWLARK PLACE,702E1,PRIVATE ROADWAY NAMES
2,MISTYGLEN,LANE,,MISTYGLEN LANE,NA,LIMITED ACCESS AREA NAMES
11097,MILAN,DR,,MILAN DRIVE,562G2,LIMITED ACCESS AREA NAMES
11057,MAPLE,ROAD,,MAPLE  ROAD,532B4,LIMITED ACCESS AREA NAMES
11215,MAPLE,TER,,MAPLE TERRACE,501J7,LIMITED ACCESS AREA NAMES
11254,MENSCH,CT,,MENSCH COURT,530D3,LIMITED ACCESS AREA NAMES
11276,MALLOW,ROAD,,MALLOW ROAD,594J1,LIMITED ACCESS AREA NAMES
