Street ID,Street Name,Street Suffix,Street Suffix Direction,Official Street Name,Thomas Brothers Map,Street Type
3962,OAKLAWN,ROAD,,OAKLAWN ROAD,632E6,PUBLIC STREET NAMES
3929,OCEAN FRONT,WALK,,OCEAN FRONT WALK,671G5,PUBLIC STREET NAMES
3928,OCEANO,DR,,OCEANO DRIVE,631G4,PUBLIC STREET NAMES
3793,OVERING,DR,,OVERING DRIVE,559E3,PUBLIC STREET NAMES
3795,OVADA,PL,,OVADA PLACE,631H1,PUBLIC STREET NAMES
3846,ORILLA,AVE,,ORILLA AVENUE,564G6,PUBLIC STREET NAMES
3931,OCEAN,CT,,OCEAN COURT,671H6,PUBLIC STREET NAMES
3803,OUTLAND VIEW,DR,,OUTLAND VIEW DRIVE,533B1,PUBLIC STREET NAMES
10121,OAK VIEW,CT,,OAK VIEW COURT,561D4,PRIVATE STREET NAMES
3968,OAK HILL,AVE,,OAK HILL AVENUE,595D6,PUBLIC STREET NAMES
10870,OLIVE,LANE,,OLIVE LANE,481H2,PRIVATE ROADWAY NAMES
3901,OLDEN,ST,,OLDEN STREET,481F3,PUBLIC STREET NAMES
3857,ORANGE,PL,,ORANGE PLACE,673B2,PUBLIC STREET NAMES
3906,OLAF,PL,,OLAF PLACE,481B5,PUBLIC STREET NAMES
3881,OLIVOS,DR,,OLIVOS DRIVE,560G4,PUBLIC STREET NAMES
3807,OTSEGO,CT,,OTSEGO COURT,561D3,PUBLIC STREET NAMES
3849,OREGON,ST,,OREGON STREET,635B6,PUBLIC STREET NAMES
3868,O'NEIL,ST,,O'NEIL STREET,595D7,PUBLIC STREET NAMES
3882,OLIVIA,TER,,OLIVIA TERRACE,533C2,PUBLIC STREET NAMES
3939,OBECK,AVE,,OBECK AVENUE,502A4,PUBLIC STREET NAMES
3886,OLIVE GROVE,PL,,OLIVE GROVE PLACE,503E3,PUBLIC STREET NAMES
3809,OTERO,DR,,OTERO DRIVE,595D7,PUBLIC STREET NAMES
3921,OCTAGON,ST,,OCTAGON STREET,631F1,PUBLIC STREET NAMES
10322,ORBITAL,WAY,,ORBITAL WAY,502E3,PRIVATE ROADWAY NAMES
3844,ORIOLE,LANE,,ORIOLE LANE,592H4,PUBLIC STREET NAMES
10304,OAKHURST,WAY,,OAKHURST WAY,480E7,PRIVATE STREET NAMES
10858,OLIVE,PL,,OLIVE PLACE,481J4,PRIVATE ROADWAY NAMES
3825,ORTON,AVE,,ORTON AVENUE,632E4,PUBLIC STREET NAMES
3787,OWENSMOUTH,AVE,,OWENSMOUTH AVENUE,500A2,PUBLIC STREET NAMES
3979,OAKDELL,ROAD,,OAKDELL ROAD,562H7,PUBLIC STREET NAMES
3894,OLEANDER,DR,,OLEANDER DRIVE,565D7,PUBLIC STREET NAMES
3963,OAKLAND,ST,,OAKLAND STREET,595F5,PUBLIC STREET NAMES
3915,OESTE,AVE,,OESTE AVENUE,562E7,PUBLIC STREET NAMES
3830,OROZCO,ST,,OROZCO STREET,481C4,PUBLIC STREET NAMES
3954,OAK POINT,DR,,OAK POINT DRIVE,593C1,PUBLIC STREET NAMES
3951,OAKRIDGE,ROAD,,OAKRIDGE ROAD,529E1,PUBLIC STREET NAMES
3843,ORIOLE,WAY,,ORIOLE WAY,592H5,PUBLIC STREET NAMES
11042,OLIVE TREE,PL,,OLIVE TREE PLACE,562B1,LIMITED ACCESS AREA NAMES
9748,OLYMPIAD,LANE,,OLYMPIAD LANE,531F6,PRIVATE STREET NAMES
3988,OAK,ST,,OAK STREET,634C5,PUBLIC STREET NAMES
10775,ONTEORA,PL,,ONTEORA PLACE,564J6,PUBLIC STREET NAMES
387,OAKDALE,AVE,,OAKDALE AVENUE,500E3,PRIVATE STREET NAMES
3909,OKEAN,TER,,OKEAN TERRACE,593A1,PUBLIC STREET NAMES
3942,OAKWOOD,AVE,,OAKWOOD AVENUE,671H5,PUBLIC STREET NAMES
3800,OUTPOST,DR,,OUTPOST DRIVE,593D2,PUBLIC STREET NAMES
3841,ORLANDO,AVE,,ORLANDO AVENUE,593A6,PUBLIC STREET NAMES
377,OLD RANCH,ROAD,,OLD RANCH ROAD,631E3,PRIVATE STREET NAMES
3933,OCEAN,AVE,,OCEAN AVENUE,671H6,PUBLIC STREET NAMES
3783,OZETA,TER,,OZETA TERRACE,592H5,PUBLIC STREET NAMES
376,OLEANDER,LANE,,OLEANDER LANE,562C6,PRIVATE STREET NAMES
3960,OAKLEY,WALK,,OAKLEY WALK,563C7,PUBLIC STREET NAMES
3940,OBAN,DR,,OBAN DRIVE,594J2,PUBLIC STREET NAMES
3957,OAKMORE,ROAD,,OAKMORE ROAD,632G5,PUBLIC STREET NAMES
9592,OLIVE VIEW,LANE,,OLIVE VIEW LANE,482A2,PUBLIC STREET NAMES
3850,ORDWAY,DR,,ORDWAY DRIVE,NA,PUBLIC STREET NAMES
3986,OAK BEND,DR,,OAK BEND DRIVE,504A5,PUBLIC STREET NAMES
3832,ORO VISTA,AVE,,ORO VISTA AVENUE,503G1,PUBLIC STREET NAMES
3947,OAK TERRACE,DR,,OAK TERRACE DRIVE,595B4,PUBLIC STREET NAMES
3935,OCCIDENTAL,BLVD,,OCCIDENTAL BOULEVARD,594D5,PUBLIC STREET NAMES
3801,OUTPOST,CIR,,OUTPOST CIRCLE,593D3,PUBLIC STREET NAMES
3876,OLYMPIA,ST,,OLYMPIA STREET,500G3,PUBLIC STREET NAMES
10061,OLIVIA,TER,,OLIVIA TERRACE,533C2,PRIVATE STREET NAMES
3872,OMAR,AVE,,OMAR AVENUE,634G5,PUBLIC STREET NAMES
3924,OCEANUS,DR,,OCEANUS DRIVE,593A3,PUBLIC STREET NAMES
3949,OAKSHIRE,DR,,OAKSHIRE DRIVE,563C7,PUBLIC STREET NAMES
3852,ORCHID,AVE,,ORCHID AVENUE,593D4,PUBLIC STREET NAMES
379,OLD BUCKBOARD,LANE,,OLD BUCKBOARD LANE,503C7,PRIVATE STREET NAMES
3805,OTTOMAN,ST,,OTTOMAN STREET,502E6,PUBLIC STREET NAMES
3974,OAK GLEN,WALK,,OAK GLEN WALK,563C7,PUBLIC STREET NAMES
3900,OLDHAM,PL,,OLDHAM PLACE,561D6,PUBLIC STREET NAMES
9700,OAKRIDGE,,,OAKRIDGE,481G1,UNOFFICIAL PRIVATE STREET NAMES
3784,OXNARD,ST,,OXNARD STREET,533B7,PUBLIC STREET NAMES
10096,OVERLAND,DR,,OVERLAND DRIVE,529C4,PUBLIC STREET NAMES
3895,OLD RANCH,ROAD,,OLD RANCH ROAD,631C1,PUBLIC STREET NAMES
371,ONYX,DR,,ONYX DRIVE,NA,PRIVATE STREET NAMES
3884,OLIVER VICKERY CIRCLE,WAY,,OLIVER VICKERY CIRCLE WAY,854C2,PUBLIC STREET NAMES
367,OUTER,ST,,OUTER STREET,824C7,PRIVATE STREET NAMES
9702,OWEN BROWN,ROAD,,OWEN BROWN ROAD,560F7,UNOFFICIAL PRIVATE STREET NAMES
3932,OCEAN,AVE,,OCEAN AVENUE,631C7,PUBLIC STREET NAMES
3899,OLDHAM,ST,,OLDHAM STREET,561D6,PUBLIC STREET NAMES
3815,OSTRONIC,DR,,OSTRONIC DRIVE,559F3,PUBLIC STREET NAMES
3889,OLIVE,ST,,OLIVE STREET,634F3,PUBLIC STREET NAMES
3820,OSCAR,ST,,OSCAR STREET,482C2,PUBLIC STREET NAMES
3893,OLETHA,LANE,,OLETHA LANE,592A3,PUBLIC STREET NAMES
3797,OUTRIGGER,ST,,OUTRIGGER STREET,NA,PEDESTRIAN MALL NAMES
3829,ORRVILLE,AVE,,ORRVILLE AVENUE,559E3,PUBLIC STREET NAMES
11034,OBSERVATION,LANE,,OBSERVATION LANE,593H4,LIMITED ACCESS AREA NAMES
3858,ORANGE,DR,,ORANGE DRIVE,593D4,PUBLIC STREET NAMES
3875,OLYMPIC,BLVD,,OLYMPIC BOULEVARD,675D1,PUBLIC STREET NAMES
3911,OHIO,AVE,,OHIO AVENUE,632C3,PUBLIC STREET NAMES
3828,ORTEGA,PL,,ORTEGA PLACE,823H6,PUBLIC STREET NAMES
3970,OAKHEATH,DR,,OAKHEATH DRIVE,794A2,PUBLIC STREET NAMES
10742,OLD GROVE,ROAD,,OLD GROVE ROAD,481G3,PUBLIC STREET NAMES
3982,OAK CREST,WAY,,OAK CREST WAY,565D7,PUBLIC STREET NAMES
3990,O,ST,,O STREET,794H4,PUBLIC STREET NAMES
3847,OREY,PL,,OREY PLACE,530D6,PUBLIC STREET NAMES
3920,OCTAVIA,PL,,OCTAVIA PLACE,561D5,PUBLIC STREET NAMES
10738,ORDIN RANCH,ROAD,,ORDIN RANCH ROAD,532B7,PRIVATE STREET NAMES
23,OLVERA,ST,,OLVERA STREET,NA,PUBLIC STREET NAMES
3976,OAK GLEN,DR,,OAK GLEN DRIVE,563C7,PUBLIC STREET NAMES
378,O'DONNELL,LANE,,O'DONNELL LANE,504C5,PRIVATE STREET NAMES
11013,OSPREY,LANE,,OSPREY LANE,672F7,PRIVATE ROADWAY NAMES
3916,ODYSSEY,DR,,ODYSSEY DRIVE,481G7,PUBLIC STREET NAMES
3926,OCEAN PARK,BLVD,,OCEAN PARK BOULEVARD,672A1,PUBLIC STREET NAMES
3880,OLMSTED,AVE,,OLMSTED AVENUE,673F2,PUBLIC STREET NAMES
3977,OAKFIELD,DR,,OAKFIELD DRIVE,562A6,PUBLIC STREET NAMES
3985,OAK CANYON,AVE,,OAK CANYON AVENUE,562C6,PUBLIC STREET NAMES
3934,OCEAN,AVE,,OCEAN AVENUE,824G2,PUBLIC STREET NAMES
3943,OAKWOOD,AVE,,OAKWOOD AVENUE,594B7,PUBLIC STREET NAMES
10430,ONIZUKA,CIR,,ONIZUKA CIRCLE,823H7,PRIVATE ROADWAY NAMES
3827,ORTIZ,LANE,,ORTIZ LANE,NA,PUBLIC STREET NAMES
385,OAKLEY,DR,,OAKLEY DRIVE,563B7,PRIVATE STREET NAMES
3823,OSAGE,AVE,,OSAGE AVENUE,702J1,PUBLIC STREET NAMES
3967,OAK HILL,PL,,OAK HILL PLACE,595E3,PUBLIC STREET NAMES
10262,OLD DEPOT PLAZA,ROAD,,OLD DEPOT PLAZA ROAD,500A5,PRIVATE ROADWAY NAMES
3937,OBSERVATORY,AVE,,OBSERVATORY AVENUE,594B2,PUBLIC STREET NAMES
369,OSTBYE,ROAD,,OSTBYE ROAD,NA,PRIVATE STREET NAMES
3831,ORO VISTA,PL,,ORO VISTA PLACE,NA,PUBLIC STREET NAMES
3981,OAKDALE,AVE,,OAKDALE AVENUE,500E4,PUBLIC STREET NAMES
3969,OAKHEATH,PL,,OAKHEATH PLACE,794A2,PUBLIC STREET NAMES
374,OLINDA,ST,,OLINDA STREET,533A1,PRIVATE STREET NAMES
9701,OCEAN,VIEW,,OCEAN VIEW,630J6,UNOFFICIAL PRIVATE STREET NAMES
10591,OXFORD,LANE,,OXFORD LANE,480D6,PRIVATE ROADWAY NAMES
3853,ORCHARD,AVE,,ORCHARD AVENUE,634A4,PUBLIC STREET NAMES
3984,OAKCLIFF,TR,,OAKCLIFF TRAIL,NA,PUBLIC STREET NAMES
3902,OLCOTT,ST,,OLCOTT STREET,504B4,PUBLIC STREET NAMES
3840,ORLON,AVE,,ORLON AVENUE,630J4,PUBLIC STREET NAMES
10856,OAK,ROAD,,OAK ROAD,481J4,PRIVATE ROADWAY NAMES
3948,OAKSTONE,WAY,,OAKSTONE WAY,592H3,PUBLIC STREET NAMES
3817,OSTIN,AVE,,OSTIN AVENUE,559D2,PUBLIC STREET NAMES
3878,OLVERA,ST,,OLVERA STREET,634G3,PEDESTRIAN MALL NAMES
9854,OLIVE,,,OLIVE,481G1,UNOFFICIAL PRIVATE STREET NAMES
3873,OMAHA,ST,,OMAHA STREET,595C3,PUBLIC STREET NAMES
384,OAKMONT,DR,,OAKMONT DRIVE,631E2,PRIVATE STREET NAMES
388,OAK,TER,,OAK TERRACE,NA,PRIVATE STREET NAMES
3917,ODIN,ST,,ODIN STREET,593E3,PUBLIC STREET NAMES
3792,OVERLAND,AVE,,OVERLAND AVENUE,632C4,PUBLIC STREET NAMES
380,OAK SPRINGS,LANE,,OAK SPRINGS LANE,480F6,PRIVATE STREET NAMES
3945,OAK VIEW,DR,,OAK VIEW DRIVE,561D4,PUBLIC STREET NAMES
3980,OAKDELL,LANE,,OAKDELL LANE,562H7,PUBLIC STREET NAMES
3842,ORION,AVE,,ORION AVENUE,501G1,PUBLIC STREET NAMES
3874,OLYMPIC,PL,,OLYMPIC PLACE,633A3,PUBLIC STREET NAMES
3838,ORMOND,ST,,ORMOND STREET,503B6,PUBLIC STREET NAMES
3904,OLAND,AVE,,OLAND AVENUE,533B1,PUBLIC STREET NAMES
3855,ORANGE GROVE,AVE,,ORANGE GROVE AVENUE,593B4,PUBLIC STREET NAMES
3910,OKEAN,PL,,OKEAN PLACE,593A1,PUBLIC STREET NAMES
9795,ORANGE GROVE,AVE,,ORANGE GROVE AVENUE,633C1,PRIVATE STREET NAMES
3834,ORO GRANDE,ST,,ORO GRANDE STREET,482C1,PUBLIC STREET NAMES
3983,OAKCREST,DR,,OAKCREST DRIVE,593D1,PUBLIC STREET NAMES
3836,ORNA,DR,,ORNA DRIVE,481A5,PUBLIC STREET NAMES
3905,OLANCHA,DR,,OLANCHA DRIVE,594J2,PUBLIC STREET NAMES
3907,OKLAHOMA,AVE,,OKLAHOMA AVENUE,500C2,PUBLIC STREET NAMES
3918,ODESSA,AVE,,ODESSA AVENUE,481E7,PUBLIC STREET NAMES
3822,OSBORNE,PL,,OSBORNE PLACE,502J1,PUBLIC STREET NAMES
3789,OWENS,PL,,OWENS PLACE,504A3,PUBLIC STREET NAMES
3865,ONTARIO,AVE,,ONTARIO AVENUE,533D3,PUBLIC STREET NAMES
3863,OPAL,ST,,OPAL STREET,675B1,PUBLIC STREET NAMES
3864,ONYX,DR,,ONYX DRIVE,595C7,PUBLIC STREET NAMES
3919,ODELL,AVE,,ODELL AVENUE,503G2,PUBLIC STREET NAMES
3897,OLD OAK,ROAD,,OLD OAK ROAD,631E3,PUBLIC STREET NAMES
10194,OLD SANTA SUSANA PASS,ROAD,,OLD SANTA SUSANA PASS ROAD,500A2,PUBLIC STREET NAMES
3806,OTSEGO,ST,,OTSEGO STREET,563B3,PUBLIC STREET NAMES
3965,OAKHURST,AVE,,OAKHURST AVENUE,632G6,PUBLIC STREET NAMES
3808,OTIS,AVE,,OTIS AVENUE,560J3,PUBLIC STREET NAMES
3946,OAK TREE,DR,,OAK TREE DRIVE,565A6,PUBLIC STREET NAMES
3781,OZONE,AVE,,OZONE AVENUE,671G5,PUBLIC STREET NAMES
3925,OCEANSIDE,ST,,OCEANSIDE STREET,794E3,PUBLIC STREET NAMES
3794,OVERHILL,DR,,OVERHILL DRIVE,673C6,PUBLIC STREET NAMES
372,OLNEY,WAY,,OLNEY WAY,631E1,PRIVATE STREET NAMES
381,OAKSBORO,CIR,,OAKSBORO CIRCLE,560C4,PRIVATE STREET NAMES
9760,ONEAL,CT,,ONEAL COURT,500J6,PRIVATE STREET NAMES
3927,OCEANO,PL,,OCEANO PLACE,631G3,PUBLIC STREET NAMES
3879,OLSON,ST,,OLSON STREET,565A6,PUBLIC STREET NAMES
3877,OLYMPIA,PL,,OLYMPIA PLACE,500G3,PUBLIC STREET NAMES
370,ONYX,PL,,ONYX PLACE,NA,PRIVATE STREET NAMES
375,OLEANDER,TER,,OLEANDER TERRACE,481J1,PRIVATE STREET NAMES
3913,OGDEN,DR,,OGDEN DRIVE,593B4,PUBLIC STREET NAMES
3912,OGELSBY,AVE,,OGELSBY AVENUE,672G7,PUBLIC STREET NAMES
3952,OAKRIDGE,PL,,OAKRIDGE PLACE,499H6,PUBLIC STREET NAMES
3883,OLIVE VIEW,DR,,OLIVE VIEW DRIVE,482B1,PUBLIC STREET NAMES
3870,ONARGA,AVE,,ONARGA AVENUE,565D7,PUBLIC STREET NAMES
10171,OAK HILL,WAY,,OAK HILL WAY,500E1,PRIVATE STREET NAMES
3861,OPORTO,DR,,OPORTO DRIVE,593D3,PUBLIC STREET NAMES
3973,OAK GROVE,CIR,,OAK GROVE CIRCLE,565B7,PUBLIC STREET NAMES
3821,OSBORNE,ST,,OSBORNE STREET,482J7,PUBLIC STREET NAMES
3956,OAK PARK,AVE,,OAK PARK AVENUE,501C2,PUBLIC STREET NAMES
10676,OLDENBURG,LANE,,OLDENBURG LANE,480J5,PUBLIC STREET NAMES
3816,OSTROM,AVE,,OSTROM AVENUE,481C7,PUBLIC STREET NAMES
3824,ORUM,ROAD,,ORUM ROAD,591H6,PUBLIC STREET NAMES
10585,OAKVILLE,CT,,OAKVILLE COURT,480D6,PRIVATE ROADWAY NAMES
3871,O'MELVENY,AVE,,O'MELVENY AVENUE,502A1,PUBLIC STREET NAMES
368,OTTAWA,CT,,OTTAWA COURT,634D5,PRIVATE STREET NAMES
3866,ONTEORA,WAY,,ONTEORA WAY,564J6,PUBLIC STREET NAMES
3885,OLIVER,ST,,OLIVER STREET,824C4,PUBLIC STREET NAMES
3814,OSTRONIC,PL,,OSTRONIC PLACE,559G3,PUBLIC STREET NAMES
3851,ORD,ST,,ORD STREET,634G2,PUBLIC STREET NAMES
3837,ORMSKIRK,AVE,,ORMSKIRK AVENUE,480H5,PUBLIC STREET NAMES
3896,OLD ORCHARD,ROAD,,OLD ORCHARD ROAD,631E2,PUBLIC STREET NAMES
10008,OAK CREEK,CT,,OAK CREEK COURT,561B2,PRIVATE STREET NAMES
3826,ORTLEY,PL,,ORTLEY PLACE,532D6,PUBLIC STREET NAMES
9759,OAKROCK,CT,,OAKROCK COURT,481A5,PUBLIC STREET NAMES
3890,OLIVE,AVE,,OLIVE AVENUE,671J6,PUBLIC STREET NAMES
3845,ORIOLE,DR,,ORIOLE DRIVE,592H4,PUBLIC STREET NAMES
3798,OUTRIGGER,CT,,OUTRIGGER COURT,701J1,PUBLIC STREET NAMES
3891,OLINDA,ST,,OLINDA STREET,533A1,PUBLIC STREET NAMES
3898,OLD OAK,LANE,,OLD OAK LANE,631D3,PUBLIC STREET NAMES
3987,OAK,ST,,OAK STREET,592J4,PUBLIC STREET NAMES
10799,ORO VISTA,AVE,,ORO VISTA AVENUE,503G1,UNOFFICIAL PRIVATE STREET NAMES
3888,OLIVE,ST,,OLIVE STREET,671J6,PUBLIC STREET NAMES
10135,OXFORD,WAY,,OXFORD WAY,500G7,PRIVATE ROADWAY NAMES
3961,OAKLEY,DR,,OAKLEY DRIVE,563C7,PUBLIC STREET NAMES
3812,OSWALD,ST,,OSWALD STREET,481H5,PUBLIC STREET NAMES
3804,OTTONE,WAY,,OTTONE WAY,592A5,PUBLIC STREET NAMES
3862,OPHIR,DR,,OPHIR DRIVE,632A2,PUBLIC STREET NAMES
10574,OAK MOUNTAIN,PL,,OAK MOUNTAIN PLACE,503A2,PRIVATE STREET NAMES
3782,OZONE,AVE,,OZONE AVENUE,793J6,PUBLIC STREET NAMES
3799,OUTPOST COVE,DR,,OUTPOST COVE DRIVE,593C2,PUBLIC STREET NAMES
3955,OAK PASS,ROAD,,OAK PASS ROAD,592C2,PUBLIC STREET NAMES
383,OAK PARK,LANE,,OAK PARK LANE,562D2,PRIVATE STREET NAMES
10618,OMEGA,AVE,,OMEGA AVENUE,NA,PUBLIC STREET NAMES
9796,OGDEN,DR,,OGDEN DRIVE,633B2,PRIVATE STREET NAMES
3854,ORCAS,AVE,,ORCAS AVENUE,503A1,PUBLIC STREET NAMES
3966,OAKHORNE,DR,,OAKHORNE DRIVE,793J1,PUBLIC STREET NAMES
9879,OLD RANCH,CIR,,OLD RANCH CIRCLE,499J1,PRIVATE STREET NAMES
3938,OBERLIN,ST,,OBERLIN STREET,482D4,PUBLIC STREET NAMES
3903,OLAS,DR,,OLAS DRIVE,823G7,PUBLIC STREET NAMES
3869,ONEIDA,AVE,,ONEIDA AVENUE,502A1,PUBLIC STREET NAMES
3964,OAKHURST,DR,,OAKHURST DRIVE,632H4,PUBLIC STREET NAMES
10397,OAK PARK,CT,,OAK PARK COURT,561C3,PRIVATE STREET NAMES
22,OUTRIGGER,MALL,,OUTRIGGER MALL,701J1,PEDESTRIAN MALL NAMES
3923,OCEAN VIEW,AVE,,OCEAN VIEW AVENUE,634C2,PUBLIC STREET NAMES
3930,OCEAN,WAY,,OCEAN WAY,631B7,PUBLIC STREET NAMES
3892,OLIN,ST,,OLIN STREET,632H6,PUBLIC STREET NAMES
3978,OAKDEN,DR,,OAKDEN DRIVE,593A3,PUBLIC STREET NAMES
3953,OAK POINT,TR,,OAK POINT TRAIL,593C1,PUBLIC STREET NAMES
3796,OUTRIGGER,ST,,OUTRIGGER STREET,701J1,PUBLIC STREET NAMES
3989,OAK,CT,,OAK COURT,592J4,PUBLIC STREET NAMES
10563,ONTARIO,AVE,,ONTARIO AVENUE,533D3,PRIVATE STREET NAMES
3791,OVERMAN,AVE,,OVERMAN AVENUE,500D3,PUBLIC STREET NAMES
3810,OTAY,DR,,OTAY DRIVE,594J2,PUBLIC STREET NAMES
3819,OSCEOLA,ST,,OSCEOLA STREET,481H6,PUBLIC STREET NAMES
10673,OCEAN VIEW,TER,,OCEAN VIEW TERRACE,824B7,PRIVATE ROADWAY NAMES
3972,OAK GROVE,DR,,OAK GROVE DRIVE,565B7,PUBLIC STREET NAMES
3971,OAK GROVE,PL,,OAK GROVE PLACE,565B7,PUBLIC STREET NAMES
373,OLIVE VIEW,AVE,,OLIVE VIEW AVENUE,NA,PRIVATE STREET NAMES
3839,ORME,AVE,,ORME AVENUE,635A6,PUBLIC STREET NAMES
3936,OCAMPO,DR,,OCAMPO DRIVE,631B5,PUBLIC STREET NAMES
386,OAK LANE,DR,,OAK LANE DRIVE,561C4,PRIVATE STREET NAMES
3887,OLIVE GROVE,AVE,,OLIVE GROVE AVENUE,503E3,PUBLIC STREET NAMES
3860,OPP,ST,,OPP STREET,794J5,PUBLIC STREET NAMES
10181,OAK TREE,WAY,,OAK TREE WAY,503H3,PRIVATE STREET NAMES
3975,OAK GLEN,PL,,OAK GLEN PLACE,594E5,PUBLIC STREET NAMES
3859,ORACLE,PL,,ORACLE PLACE,631B4,PUBLIC STREET NAMES
10165,OAK LEAF,DR,,OAK LEAF DRIVE,499J6,PRIVATE STREET NAMES
3941,OAKWOOD,CT,,OAKWOOD COURT,671J5,PUBLIC STREET NAMES
3914,O'FARRELL,ST,,O'FARRELL STREET,824B4,PUBLIC STREET NAMES
10237,OTTO,LANE,,OTTO LANE,794A3,PRIVATE ROADWAY NAMES
3788,OWENS,ST,,OWENS STREET,504A3,PUBLIC STREET NAMES
3848,OREO,PL,,OREO PLACE,630J4,PUBLIC STREET NAMES
3867,ONEONTA,DR,,ONEONTA DRIVE,595A2,PUBLIC STREET NAMES
3802,OUTLOOK,AVE,,OUTLOOK AVENUE,595D2,PUBLIC STREET NAMES
3780,OZONE,CT,,OZONE COURT,671G5,PUBLIC STREET NAMES
3785,OXFORD,AVE,,OXFORD AVENUE,672A6,PUBLIC STREET NAMES
3959,OAKMONT,DR,,OAKMONT DRIVE,631E1,PUBLIC STREET NAMES
3818,OSO,AVE,,OSO AVENUE,500D2,PUBLIC STREET NAMES
10306,OWL CREEK,WAY,,OWL CREEK WAY,480E7,PRIVATE STREET NAMES
3908,OKELL,DR,,OKELL DRIVE,595D7,PUBLIC STREET NAMES
3790,OVERTON,ST,,OVERTON STREET,634D4,PUBLIC STREET NAMES
3833,OROS,ST,,OROS STREET,594H6,PUBLIC STREET NAMES
3835,ORO,TER,,ORO TERRACE,824A5,PUBLIC STREET NAMES
3813,O'SULLIVAN,DR,,O'SULLIVAN DRIVE,635E1,PUBLIC STREET NAMES
10628,OCEAN BLUFF,DR,,OCEAN BLUFF DRIVE,702C2,PUBLIC STREET NAMES
3786,OXFORD,AVE,,OXFORD AVENUE,593H3,PUBLIC STREET NAMES
382,OAK PASS,ROAD,,OAK PASS ROAD,592C2,PRIVATE STREET NAMES
3958,OAKMONT,PL,,OAKMONT PLACE,529E1,PUBLIC STREET NAMES
3944,OAKWILDE,LANE,,OAKWILDE LANE,592H2,PUBLIC STREET NAMES
3856,ORANGE,ST,,ORANGE STREET,633B2,PUBLIC STREET NAMES
3811,OSWEGO,ST,,OSWEGO STREET,503H3,PUBLIC STREET NAMES
3922,OCEAN VIEW,AVE,,OCEAN VIEW AVENUE,673C3,PUBLIC STREET NAMES
3950,OAK RUN,TR,,OAK RUN TRAIL,NA,PUBLIC STREET NAMES
1,OLIVE GROVE,LANE,,OLIVE GROVE LANE,482B1,LIMITED ACCESS AREA NAMES
11111,OAKBURY,CT,,OAKBURY COURT,562F3,PRIVATE STREET NAMES
11059,OAK,LANE,,OAK  LANE,532B4,LIMITED ACCESS AREA NAMES
11133,OSPREY,PL,,OSPREY PLACE,672E7,PRIVATE ROADWAY NAMES
