Street ID,Street Name,Street Suffix,Street Suffix Direction,Official Street Name,Thomas Brothers Map,Street Type
3614,PEARSON,PL,,PEARSON PLACE,503D3,PUBLIC STREET NAMES
3463,POTOMAC,AVE,,POTOMAC AVENUE,633D7,PUBLIC STREET NAMES
9816,PIEDRA MORADA,DR,,PIEDRA MORADA DRIVE,630G2,PUBLIC STREET NAMES
3709,PARCHER,TR,,PARCHER TRAIL,504A5,PUBLIC STREET NAMES
9998,PINE VALLEY,WAY,,PINE VALLEY WAY,480E7,PRIVATE STREET NAMES
3559,PHILO,ST,,PHILO STREET,42B5,PUBLIC STREET NAMES
3535,PINE VALLEY,PL,,PINE VALLEY PLACE,480F7,PUBLIC STREET NAMES
3570,PETERSON,AVE,,PETERSON AVENUE,529E6,PUBLIC STREET NAMES
3691,PARK LANE,PL,,PARK LANE PLACE,561E7,PUBLIC STREET NAMES
10995,PASEO LOMASO,,,PASEO LOMASO,500D2,PRIVATE ROADWAY NAMES
9711,PUERTA DEL SOL,,,PUERTA DEL SOL,823G7,UNOFFICIAL PRIVATE STREET NAMES
3513,PLAZA DEL AMO,,,PLAZA DEL AMO,794A1,PUBLIC STREET NAMES
10329,PROMENADE MALL,DRWY,,PROMENADE MALL DRIVEWAY,530A7,PRIVATE ROADWAY NAMES
10919,PINE ORCHARD,ST,,PINE ORCHARD STREET,502E5,PRIVATE ROADWAY NAMES
3525,PISA,PL,,PISA PLACE,823H5,PUBLIC STREET NAMES
3519,PLAINVIEW,AVE,,PLAINVIEW AVENUE,503H2,PUBLIC STREET NAMES
3546,PILGRIMAGE,TR,,PILGRIMAGE TRAIL,593E2,PUBLIC STREET NAMES
333,PASEO DE SANTA YNEZ,,,PASEO DE SANTA YNEZ,630F1,PRIVATE STREET NAMES
319,PECAN,ST,,PECAN STREET,634J5,PRIVATE STREET NAMES
10998,PASEO DEL CIELO,,,PASEO DEL CIELO,500D2,PRIVATE ROADWAY NAMES
3730,PALOMAR,DR,,PALOMAR DRIVE,560G4,PUBLIC STREET NAMES
3624,PAUMA VALLEY,DR,,PAUMA VALLEY DRIVE,500F1,PUBLIC STREET NAMES
3702,PARK,PL,,PARK PLACE,671G5,PUBLIC STREET NAMES
10913,PASEO DEL TRANQUILO,,,PASEO DEL TRANQUILO,481J5,LIMITED ACCESS AREA NAMES
3453,PREBLE,AVE,,PREBLE AVENUE,794H6,PUBLIC STREET NAMES
3751,PALI,AVE,,PALI AVENUE,504C5,PUBLIC STREET NAMES
349,PASEO DE LA LORA,,,PASEO DE LA LORA,630F2,PRIVATE STREET NAMES
3682,PARK VIEW,ST,,PARK VIEW STREET,634C1,PUBLIC STREET NAMES
10809,PASEO AZUL,,,PASEO AZUL,500D1,PRIVATE ROADWAY NAMES
3584,PERCIVAL,PL,,PERCIVAL PLACE,593A3,PUBLIC STREET NAMES
3558,PHOENIX,ST,,PHOENIX STREET,594H7,PUBLIC STREET NAMES
9920,PALOMINO,CT,,PALOMINO COURT,503B2,PRIVATE STREET NAMES
9709,PROMENADE,,,PROMENADE,NA,UNOFFICIAL PRIVATE STREET NAMES
9869,PAIUTE,AVE,,PAIUTE AVENUE,499J1,PRIVATE STREET NAMES
312,PLUMMER,ST,,PLUMMER STREET,500G6,PRIVATE STREET NAMES
3480,POPPY PEAK,WALK,,POPPY PEAK WALK,565D7,PUBLIC STREET NAMES
3586,PERA,ROAD,,PERA ROAD,559H4,PUBLIC STREET NAMES
3599,PENDLETON,ST,,PENDLETON STREET,503A6,PUBLIC STREET NAMES
3719,PANAMINT,ST,,PANAMINT STREET,594H1,PUBLIC STREET NAMES
3766,PADILLA,PL,,PADILLA PLACE,673B3,PUBLIC STREET NAMES
3466,POSETANO,ROAD,,POSETANO ROAD,630F6,PUBLIC STREET NAMES
342,PASEO DE LA SUERTE,,,PASEO DE LA SUERTE,630F1,PRIVATE STREET NAMES
3763,PADUA,PL,,PADUA PLACE,671J5,PUBLIC STREET NAMES
3499,POLK,ST,,POLK STREET,482C1,PUBLIC STREET NAMES
3612,PEAVINE,DR,,PEAVINE DRIVE,592D4,PUBLIC STREET NAMES
352,PASEO BRILLANTE,,,PASEO BRILLANTE,630F2,PRIVATE STREET NAMES
10994,PASEO LOS ARCOS,,,PASEO LOS ARCOS,500D2,PRIVATE ROADWAY NAMES
10407,PLAZA,PKWY,,PLAZA PARKWAY,563A6,PRIVATE ROADWAY NAMES
353,PASEO ANTIGUO,,,PASEO ANTIGUO,630F2,PRIVATE STREET NAMES
326,PASEO MALAGUENA,,,PASEO MALAGUENA,630F1,PRIVATE STREET NAMES
3687,PARK OAK,DR,,PARK OAK DRIVE,593G2,PUBLIC STREET NAMES
3695,PARK HEIGHTS,TER,,PARK HEIGHTS TERRACE,635B1,PUBLIC STREET NAMES
3765,PADRE,LANE,,PADRE LANE,593A3,PUBLIC STREET NAMES
3597,PENMAR,AVE,,PENMAR AVENUE,671J3,PUBLIC STREET NAMES
3536,PINE VALLEY,AVE,,PINE VALLEY AVENUE,480F7,PUBLIC STREET NAMES
3436,PRINCE,ST,,PRINCE STREET,635C1,PUBLIC STREET NAMES
3428,PROCTOR,ST,,PROCTOR STREET,794F4,PUBLIC STREET NAMES
3718,PANDORA,AVE,,PANDORA AVENUE,632D3,PUBLIC STREET NAMES
3575,PERUGIA,WAY,,PERUGIA WAY,592A7,PUBLIC STREET NAMES
3621,PAXTON,ST,,PAXTON STREET,482E7,PUBLIC STREET NAMES
3467,PORTO MARINA,WAY,,PORTO MARINA WAY,630F6,PUBLIC STREET NAMES
3482,POPPY,ST,,POPPY STREET,565D7,PUBLIC STREET NAMES
3764,PADRE,TER,,PADRE TERRACE,593E3,PUBLIC STREET NAMES
3432,PRISMO,DR,,PRISMO DRIVE,564H7,PUBLIC STREET NAMES
3550,PIEDMONT,AVE,,PIEDMONT AVENUE,595D2,PUBLIC STREET NAMES
3419,PROVIDENCIA,ST,,PROVIDENCIA STREET,560A4,PUBLIC STREET NAMES
3672,PARRAL,PL,,PARRAL PLACE,561H5,PUBLIC STREET NAMES
3474,PORTICO,PL,,PORTICO PLACE,561C4,PUBLIC STREET NAMES
348,PASEO DE LA PAZ,,,PASEO DE LA PAZ,630F1,PRIVATE STREET NAMES
3512,PLAZA SAN ANTONIO,,,PLAZA SAN ANTONIO,634J2,PUBLIC STREET NAMES
10314,PASEO DE ORO,,,PASEO DE ORO,630G1,PRIVATE ROADWAY NAMES
10500,PINES ESTATES,DR,,PINES ESTATES DRIVE,794A6,PRIVATE ROADWAY NAMES
3630,PAULA,ST,,PAULA STREET,595D6,PUBLIC STREET NAMES
10352,PORTER RANCH,DR,,PORTER RANCH DRIVE,480D6,PUBLIC STREET NAMES
3569,PETIT,AVE,,PETIT AVENUE,501D1,PUBLIC STREET NAMES
3576,PERU,ST,,PERU STREET,594F4,PUBLIC STREET NAMES
3492,PONCA,AVE,,PONCA AVENUE,563C4,PUBLIC STREET NAMES
3654,PASEO LA VISTA,,,PASEO LA VISTA,529C7,PUBLIC STREET NAMES
10812,PASEO CRESTA,,,PASEO CRESTA,500D1,PRIVATE ROADWAY NAMES
3451,PRESIDENT,AVE,,PRESIDENT AVENUE,793J2,PUBLIC STREET NAMES
3629,PAULCREST,DR,,PAULCREST DRIVE,593A1,PUBLIC STREET NAMES
3511,PLEASANT,AVE,,PLEASANT AVENUE,634J4,PUBLIC STREET NAMES
3623,PAVIA,PL,,PAVIA PLACE,631D4,PUBLIC STREET NAMES
3779,PACE,AVE,,PACE AVENUE,704F5,PUBLIC STREET NAMES
3423,PROSPECT,DR,,PROSPECT DRIVE,593A4,PUBLIC STREET NAMES
3689,PARK MANOR,AVE,,PARK MANOR AVENUE,532C5,PUBLIC STREET NAMES
3444,PREUSS,ROAD,,PREUSS ROAD,632H5,PUBLIC STREET NAMES
10810,PASEO CASTELON,,,PASEO CASTELON,500D1,PRIVATE ROADWAY NAMES
354,PASEO ALLEGRE,,,PASEO ALLEGRE,630F2,PRIVATE STREET NAMES
327,PASEO LOS POCITOS,,,PASEO LOS POCITOS,630F1,PRIVATE STREET NAMES
3628,PAULETTE,PL,,PAULETTE PLACE,481C5,PUBLIC STREET NAMES
3609,PECK,AVE,,PECK AVENUE,824B7,PUBLIC STREET NAMES
3677,PARMA,PL,,PARMA PLACE,631C6,PUBLIC STREET NAMES
9593,PARKLAND,CIR,,PARKLAND CIRCLE,482D1,PUBLIC STREET NAMES
3476,PORTER VALLEY,DR,,PORTER VALLEY DRIVE,480G7,PUBLIC STREET NAMES
3506,PLYMOUTH,BLVD,,PLYMOUTH BOULEVARD,633G1,PUBLIC STREET NAMES
3516,PLATEAU,DR,,PLATEAU DRIVE,503E3,PUBLIC STREET NAMES
3710,PARAMOUNT,DR,,PARAMOUNT DRIVE,593D3,PUBLIC STREET NAMES
359,PARK ROW,DR,,PARK ROW DRIVE,594H7,PRIVATE STREET NAMES
3713,PARADISE,DR,,PARADISE DRIVE,595C7,PUBLIC STREET NAMES
309,PORTSMOUTH,ROAD,,PORTSMOUTH ROAD,NA,PRIVATE STREET NAMES
3566,PHAETON,DR,,PHAETON DRIVE,13E3,PUBLIC STREET NAMES
360,PARKER,PL,,PARKER PLACE,530A3,PRIVATE STREET NAMES
10694,PLAZA DEL SOL,,,PLAZA DEL SOL,634J4,PUBLIC STREET NAMES
3505,POE,AVE,,POE AVENUE,560D4,PUBLIC STREET NAMES
9703,PACIFIC,PL,,PACIFIC PLACE,630J6,UNOFFICIAL PRIVATE STREET NAMES
10912,PASEO DEL SERENO,,,PASEO DEL SERENO,481J5,LIMITED ACCESS AREA NAMES
9609,PARK PRIVADO,,,PARK PRIVADO,559G5,PRIVATE ROADWAY NAMES
3684,PARKPATH,TR,,PARKPATH TRAIL,504C4,PUBLIC STREET NAMES
3660,PASEO,DR,,PASEO DRIVE,594H2,PUBLIC STREET NAMES
3666,PARVA,AVE,,PARVA AVENUE,594B2,PUBLIC STREET NAMES
346,PASEO DE LAS FLORES,,,PASEO DE LAS FLORES,630F2,PRIVATE STREET NAMES
3580,PERRINO,PL,,PERRINO PLACE,674J1,PUBLIC STREET NAMES
3712,PARAISO,ST,,PARAISO STREET,824A3,PUBLIC STREET NAMES
3701,PARK,ROW,,PARK ROW,594H7,PUBLIC STREET NAMES
3679,PARKWOOD,DR,,PARKWOOD DRIVE,592C6,PUBLIC STREET NAMES
3667,PARTRIDGE,AVE,,PARTRIDGE AVENUE,594F3,PUBLIC STREET NAMES
3427,PROGRESS,PL,,PROGRESS PLACE,634J3,PUBLIC STREET NAMES
10480,PREMIERE HILLS,CIR,,PREMIERE HILLS CIRCLE,560C3,PRIVATE STREET NAMES
3769,PACKWOOD,TR,,PACKWOOD TRAIL,593C1,PUBLIC STREET NAMES
3540,PINELAKE,DR,,PINELAKE DRIVE,529F2,PUBLIC STREET NAMES
10366,PACIFIC PROMENADE,,,PACIFIC PROMENADE,702D1,PUBLIC STREET NAMES
10999,PASEO LAS PUERTOS,,,PASEO LAS PUERTOS,500D2,PRIVATE ROADWAY NAMES
10554,PERIGORD,CT,,PERIGORD COURT,503J1,PRIVATE STREET NAMES
3435,PRINCESS,DR,,PRINCESS DRIVE,595E2,PUBLIC STREET NAMES
3698,PARKER,ST,,PARKER STREET,824A4,PUBLIC STREET NAMES
3772,PACIFIC VIEW,DR,,PACIFIC VIEW DRIVE,593C1,PUBLIC STREET NAMES
3413,PUENTE,ROAD,,PUENTE ROAD,560C5,PUBLIC STREET NAMES
3426,PROSPECT,AVE,,PROSPECT AVENUE,594C4,PUBLIC STREET NAMES
10501,PINES ESTATES,CT,,PINES ESTATES COURT,794A6,PRIVATE ROADWAY NAMES
3562,PHILIPRIMM,ST,,PHILIPRIMM STREET,100D,PUBLIC STREET NAMES
3416,PRYOR,PL,,PRYOR PLACE,793J1,PUBLIC STREET NAMES
3608,PECK,DR,,PECK DRIVE,632F3,PUBLIC STREET NAMES
3552,PICO,BLVD,,PICO BOULEVARD,634F7,PUBLIC STREET NAMES
3418,PROVO,AVE,,PROVO AVENUE,504B5,PUBLIC STREET NAMES
3567,PETROLEUM,AVE,,PETROLEUM AVENUE,794A4,PUBLIC STREET NAMES
3530,PINYON,AVE,,PINYON AVENUE,504A3,PUBLIC STREET NAMES
10334,PARKSIDE,TER,,PARKSIDE TERRACE,794A3,PRIVATE ROADWAY NAMES
3663,PASADENA,FRWY,,PASADENA FREEWAY,595F1,PUBLIC STREET NAMES
3636,PATRICIAN,WAY,,PATRICIAN WAY,565D5,PUBLIC STREET NAMES
3591,PENTLAND,WAY,,PENTLAND WAY,529E5,PUBLIC STREET NAMES
3600,PENDER,AVE,,PENDER AVENUE,501C2,PUBLIC STREET NAMES
3589,PEORIA,ST,,PEORIA STREET,503A5,PUBLIC STREET NAMES
3537,PINE TREE,PL,,PINE TREE PLACE,592J5,PUBLIC STREET NAMES
3587,PEQUENO,PL,,PEQUENO PLACE,630H4,PUBLIC STREET NAMES
3500,POLA,WALK,,POLA WALK,595A3,PUBLIC STREET NAMES
3573,PESQUERA,DR,,PESQUERA DRIVE,591C7,PUBLIC STREET NAMES
3582,PERDIDO,LANE,,PERDIDO LANE,592A2,PUBLIC STREET NAMES
3768,PACOIMA,CT,,PACOIMA COURT,562G6,PUBLIC STREET NAMES
3767,PADDOCK,ST,,PADDOCK STREET,482B2,PUBLIC STREET NAMES
3421,PROSPECT,WALK,,PROSPECT WALK,NA,PUBLIC STREET NAMES
3479,PORT,ROAD,,PORT ROAD,672F6,PUBLIC STREET NAMES
3539,PINE NUT,DR,,PINE NUT DRIVE,560J6,PUBLIC STREET NAMES
3642,PATHWAY,TR,,PATHWAY TRAIL,504C4,PUBLIC STREET NAMES
3472,PORTNER,ST,,PORTNER STREET,594G2,PUBLIC STREET NAMES
10254,PATTERSON,PL,,PATTERSON PLACE,631A5,PRIVATE STREET NAMES
3442,PRICE,ST,,PRICE STREET,594B3,PUBLIC STREET NAMES
3494,POMONA,FRWY,,POMONA FREEWAY,635D6,PUBLIC STREET NAMES
10486,PLUM,CT,,PLUM COURT,502B2,PRIVATE STREET NAMES
11037,PRISM,DR,,PRISM DRIVE,594J1,LIMITED ACCESS AREA NAMES
365,PAGODA,CT,,PAGODA COURT,595B6,PRIVATE STREET NAMES
3564,PHELPS,AVE,,PHELPS AVENUE,36D5,PUBLIC STREET NAMES
10487,PARK GLENN,DR,,PARK GLENN DRIVE,593D2,PRIVATE ROADWAY NAMES
3422,PROSPECT,TR,,PROSPECT TRAIL,593A3,PUBLIC STREET NAMES
335,PASEO DEL PUERTO,,,PASEO DEL PUERTO,630F1,PRIVATE STREET NAMES
3491,PONCE,AVE,,PONCE AVENUE,529H1,PUBLIC STREET NAMES
3493,POMONA,ST,,POMONA STREET,595B7,PUBLIC STREET NAMES
3723,PAMPAS,ROAD,,PAMPAS ROAD,560A5,PUBLIC STREET NAMES
11024,POLYSCOPE,PL,,POLYSCOPE PLACE,594E5,LIMITED ACCESS AREA NAMES
3448,PRESTON,AVE,,PRESTON AVENUE,594E6,PUBLIC STREET NAMES
323,PASEO PUERTO BELLA,,,PASEO PUERTO BELLA,630F1,PRIVATE STREET NAMES
3405,PYRAMID,PL,,PYRAMID PLACE,593C1,PUBLIC STREET NAMES
3716,PAOLA,AVE,,PAOLA AVENUE,595E6,PUBLIC STREET NAMES
3671,PARRISH,AVE,,PARRISH AVENUE,594H3,PUBLIC STREET NAMES
3420,PROSSER,AVE,,PROSSER AVENUE,632C4,PUBLIC STREET NAMES
3544,PINE CREST,DR,,PINE CREST DRIVE,595D3,PUBLIC STREET NAMES
3747,PALISAIR,PL,,PALISAIR PLACE,631A4,PUBLIC STREET NAMES
302,PROSPECT,TR,,PROSPECT TRAIL,NA,PRIVATE STREET NAMES
3490,PONDERA,CIR,,PONDERA CIRCLE,529E5,PUBLIC STREET NAMES
3447,PRESTON TRAILS,AVE,,PRESTON TRAILS AVENUE,480F7,PUBLIC STREET NAMES
9608,PARK ESTE,,,PARK ESTE,559G5,PRIVATE ROADWAY NAMES
3484,POPLAR,BLVD,,POPLAR BOULEVARD,595G5,PUBLIC STREET NAMES
3758,PAISLEY,LANE,,PAISLEY LANE,631G4,PUBLIC STREET NAMES
3731,PALOMA,ST,,PALOMA STREET,634F7,PUBLIC STREET NAMES
3681,PARK WESTERN,DR,,PARK WESTERN DRIVE,824A3,PUBLIC STREET NAMES
10990,PASEO DEL CAMPO,,,PASEO DEL CAMPO,500D2,PRIVATE ROADWAY NAMES
3703,PARK,DR,,PARK DRIVE,594F6,PUBLIC STREET NAMES
3632,PATTON,ST,,PATTON STREET,634E2,PUBLIC STREET NAMES
3510,PLEASANT VIEW,AVE,,PLEASANT VIEW AVENUE,594J5,PUBLIC STREET NAMES
10388,PINEHAVEN,WAY,,PINEHAVEN WAY,500H4,PRIVATE STREET NAMES
10161,PORTER,ROAD,,PORTER ROAD,531G5,PRIVATE STREET NAMES
3439,PRIMERA,AVE,,PRIMERA AVENUE,563D7,PUBLIC STREET NAMES
3652,PASEO NUEVO,DR,,PASEO NUEVO DRIVE,560H5,PUBLIC STREET NAMES
3603,PELUSO,AVE,,PELUSO AVENUE,503E3,PUBLIC STREET NAMES
3488,PONET,DR,,PONET DRIVE,593H3,PUBLIC STREET NAMES
3521,PLACER,PL,,PLACER PLACE,595F4,PUBLIC STREET NAMES
3743,PALMERSTON,PL,,PALMERSTON PLACE,593J3,PUBLIC STREET NAMES
3726,PALOS VERDES,DR,NORTH,PALOS VERDES DRIVE NORTH,794A6,PUBLIC STREET NAMES
3485,POOLE,AVE,,POOLE AVENUE,503B5,PUBLIC STREET NAMES
3728,PALOMINO,DR,,PALOMINO DRIVE,560J4,PUBLIC STREET NAMES
3754,PALA MESA,DR,,PALA MESA DRIVE,480G7,PUBLIC STREET NAMES
3407,PUTNEY,ROAD,,PUTNEY ROAD,632D6,PUBLIC STREET NAMES
3717,PANORAMA,TER,,PANORAMA TERRACE,594C4,PUBLIC STREET NAMES
3554,PICKFORD,ST,,PICKFORD STREET,633C5,PUBLIC STREET NAMES
3620,PAYERAS,ST,,PAYERAS STREET,500C6,PUBLIC STREET NAMES
3694,PARK HILL,DR,,PARK HILL DRIVE,702D2,PUBLIC STREET NAMES
9705,PEACH,AVE,,PEACH AVENUE,501G2,UNOFFICIAL PRIVATE STREET NAMES
3454,PRASA,ROAD,,PRASA ROAD,560C5,PUBLIC STREET NAMES
3644,PAT,AVE,,PAT AVENUE,529D7,PUBLIC STREET NAMES
10481,PREMIERE HILLS,DR,,PREMIERE HILLS DRIVE,560C3,PUBLIC STREET NAMES
3756,PALACE,ST,,PALACE STREET,NA,PUBLIC STREET NAMES
11019,PEAK,PL,,PEAK PLACE,594G1,LIMITED ACCESS AREA NAMES
3579,PERRIS,ST,,PERRIS STREET,635C2,PUBLIC STREET NAMES
363,PAIGE,ST,,PAIGE STREET,595C5,PRIVATE STREET NAMES
9870,PUEBLO,ST,,PUEBLO STREET,499J2,PRIVATE STREET NAMES
10087,PERIWINKLE,WAY,,PERIWINKLE WAY,529J7,PRIVATE ROADWAY NAMES
3437,PRIMROSE,AVE,,PRIMROSE AVENUE,593F3,PUBLIC STREET NAMES
3593,PENRITH,DR,,PENRITH DRIVE,635A6,PUBLIC STREET NAMES
337,PASEO DEL CASTILLO,,,PASEO DEL CASTILLO,630F2,PRIVATE STREET NAMES
3486,PONTOON,PL,,PONTOON PLACE,631E4,PUBLIC STREET NAMES
10405,PEPPER TREE,WAY,,PEPPER TREE WAY,532C2,PUBLIC STREET NAMES
10806,PASEO ALTISSE,,,PASEO ALTISSE,500D1,PRIVATE ROADWAY NAMES
3686,PARK OAK,PL,,PARK OAK PLACE,593H2,PUBLIC STREET NAMES
3745,PALMERA,AVE,,PALMERA AVENUE,630J5,PUBLIC STREET NAMES
3450,PRESNELL,ST,,PRESNELL STREET,672D6,PUBLIC STREET NAMES
10615,PASO ROBLES,AVE,,PASO ROBLES AVENUE,501C5,PRIVATE STREET NAMES
9776,PARK,TER,,PARK TERRACE,672H7,PUBLIC STREET NAMES
3424,PROSPECT,CT,,PROSPECT COURT,672A5,PUBLIC STREET NAMES
3425,PROSPECT,AVE,,PROSPECT AVENUE,672A5,PUBLIC STREET NAMES
3627,PAULHAN,AVE,,PAULHAN AVENUE,565A7,PUBLIC STREET NAMES
3626,PAULINE,AVE,,PAULINE AVENUE,592H3,PUBLIC STREET NAMES
355,PASEO AGUA AZUL,,,PASEO AGUA AZUL,630F2,PRIVATE STREET NAMES
10997,PASEO LAS OLIVAS,,,PASEO LAS OLIVAS,500D2,PRIVATE ROADWAY NAMES
3465,POSEY,LANE,,POSEY LANE,529E4,PUBLIC STREET NAMES
3429,PRIVATEER,ST,,PRIVATEER STREET,701J1,PUBLIC STREET NAMES
3475,PORTIA,ST,,PORTIA STREET,594E7,PUBLIC STREET NAMES
3455,PRAIRIE,ST,,PRAIRIE STREET,501C6,PUBLIC STREET NAMES
3697,PARK FRONT,WALK,,PARK FRONT WALK,674D4,PUBLIC STREET NAMES
3771,PACIFIC VIEW,TR,,PACIFIC VIEW TRAIL,593C1,PUBLIC STREET NAMES
10057,PENOBSCOT,DR,,PENOBSCOT DRIVE,529D4,PUBLIC STREET NAMES
3596,PENMAR,CT,,PENMAR COURT,672A5,PUBLIC STREET NAMES
3441,PRIMAVERA,AVE,,PRIMAVERA AVENUE,594J3,PUBLIC STREET NAMES
3690,PARKMAN,AVE,,PARKMAN AVENUE,594C6,PUBLIC STREET NAMES
3643,PAT,PL,,PAT PLACE,559D1,PUBLIC STREET NAMES
3430,PRIVATEER,ST,,PRIVATEER STREET,NA,PEDESTRIAN MALL NAMES
3557,PICASSO,AVE,,PICASSO AVENUE,560A6,PUBLIC STREET NAMES
3607,PEERLESS,PL,,PEERLESS PLACE,632F4,PUBLIC STREET NAMES
3514,PLAY GROUND,ST,,PLAY GROUND STREET,635C2,PUBLIC STREET NAMES
3742,PALMETTO,ST,,PALMETTO STREET,634H5,PUBLIC STREET NAMES
3722,PAMPAS RICAS,BLVD,,PAMPAS RICAS BOULEVARD,631B6,PUBLIC STREET NAMES
3646,PASSMORE,DR,,PASSMORE DRIVE,563C7,PUBLIC STREET NAMES
3704,PARK,CT,,PARK COURT,671G5,PUBLIC STREET NAMES
3724,PALO VISTA,DR,,PALO VISTA DRIVE,593B1,PUBLIC STREET NAMES
10996,PASEO DORADO,,,PASEO DORADO,500D2,PRIVATE ROADWAY NAMES
366,PACOIMA CANYON,ROAD,,PACOIMA CANYON ROAD,482F3,PRIVATE STREET NAMES
3469,PORTOLA,DR,,PORTOLA DRIVE,592C3,PUBLIC STREET NAMES
3502,POINTER,LANE,,POINTER LANE,592A3,PUBLIC STREET NAMES
339,PASEO DE LOS LAGOS,,,PASEO DE LOS LAGOS,630F1,PRIVATE STREET NAMES
3696,PARK GROVE,AVE,,PARK GROVE AVENUE,634C6,PUBLIC STREET NAMES
10610,PIENZA,LANE,,PIENZA LANE,480C6,PRIVATE ROADWAY NAMES
345,PASEO DE LAS LOMAS,,,PASEO DE LAS LOMAS,630F1,PRIVATE STREET NAMES
306,PRODUCE,CT,,PRODUCE COURT,634F6,PRIVATE STREET NAMES
3560,PHILLIPS,WAY,,PHILLIPS WAY,26B6,PUBLIC STREET NAMES
3411,PULLMAN,ST,,PULLMAN STREET,595E4,PUBLIC STREET NAMES
3761,PAGODA,PL,,PAGODA PLACE,595B6,PUBLIC STREET NAMES
3496,POMELO,DR,,POMELO DRIVE,529F4,PUBLIC STREET NAMES
3673,PARR,AVE,,PARR AVENUE,503G2,PUBLIC STREET NAMES
10992,PASEO LA CUMBRE,,,PASEO LA CUMBRE,500D2,PRIVATE ROADWAY NAMES
10123,PACIFIC OAK,DR,,PACIFIC OAK DRIVE,499H5,PRIVATE STREET NAMES
3639,PATRAE,ST,,PATRAE STREET,672D6,PUBLIC STREET NAMES
3753,PALA MESA,PL,,PALA MESA PLACE,500G1,PUBLIC STREET NAMES
3457,PRADO,ST,,PRADO STREET,675C1,PUBLIC STREET NAMES
10360,PONY,LANE,,PONY LANE,481E2,PUBLIC STREET NAMES
3483,POPLAR,ST,,POPLAR STREET,594J6,PUBLIC STREET NAMES
3528,PIPER,AVE,,PIPER AVENUE,702J1,PUBLIC STREET NAMES
3675,PARMER,AVE,,PARMER AVENUE,594E7,PUBLIC STREET NAMES
3507,PLUMMER,ST,,PLUMMER STREET,502A6,PUBLIC STREET NAMES
3625,PAUL JONES,AVE,,PAUL JONES AVENUE,794J5,PUBLIC STREET NAMES
3757,PALA,AVE,,PALA AVENUE,481F3,PUBLIC STREET NAMES
3622,PAWNEE,ST,,PAWNEE STREET,533A1,PUBLIC STREET NAMES
3640,PATIRENE,PL,,PATIRENE PLACE,530G6,PUBLIC STREET NAMES
10244,PLYMOUTH,LANE,,PLYMOUTH LANE,794A3,PRIVATE ROADWAY NAMES
3637,PATRICIA,AVE,,PATRICIA AVENUE,632D4,PUBLIC STREET NAMES
3616,PEARL,PL,,PEARL PLACE,632A7,PUBLIC STREET NAMES
3452,PRESCOTT,CT,,PRESCOTT COURT,633G7,PUBLIC STREET NAMES
3662,PASADERO,DR,,PASADERO DRIVE,560H5,PUBLIC STREET NAMES
3417,PROVON,LANE,,PROVON LANE,632G7,PUBLIC STREET NAMES
3568,PETITE,CT,,PETITE COURT,594E3,PUBLIC STREET NAMES
10731,PALM,CT,,PALM COURT,481J5,PRIVATE STREET NAMES
10980,PERRY,AVE,,PERRY AVENUE,794J5,PUBLIC STREET NAMES
9707,PONCE,AVE,,PONCE AVENUE,529H6,UNOFFICIAL PRIVATE STREET NAMES
3487,PONTIUS,AVE,,PONTIUS AVENUE,632A4,PUBLIC STREET NAMES
3578,PERSHING,DR,,PERSHING DRIVE,702A3,PUBLIC STREET NAMES
3714,PAPEETE,ST,,PAPEETE STREET,794C5,PUBLIC STREET NAMES
20,PRIVATEER,MALL,,PRIVATEER MALL,701J1,PEDESTRIAN MALL NAMES
3631,PAUL,TER,,PAUL TERRACE,594E6,PUBLIC STREET NAMES
318,PEREZ,LANE,,PEREZ LANE,635C3,PRIVATE STREET NAMES
10375,PARA,WAY,,PARA WAY,702D1,PUBLIC STREET NAMES
3503,POINSETTIA,PL,,POINSETTIA PLACE,593D4,PUBLIC STREET NAMES
10989,PASEO ROSA,,,PASEO ROSA,500D2,PRIVATE ROADWAY NAMES
3736,PALO,DR,,PALO DRIVE,560F3,PUBLIC STREET NAMES
10555,PROVENCE,LANE,,PROVENCE LANE,503J1,PRIVATE STREET NAMES
356,PASADENA AVENUE,TER,,PASADENA AVENUE TERRACE,595B3,PRIVATE STREET NAMES
3538,PINERIDGE,DR,,PINERIDGE DRIVE,481D6,PUBLIC STREET NAMES
3471,PORTOFINO,PL,,PORTOFINO PLACE,591J5,PUBLIC STREET NAMES
3653,PASEO MIRAMAR,,,PASEO MIRAMAR,630G5,PUBLIC STREET NAMES
308,POST,WAY,,POST WAY,702G5,PRIVATE STREET NAMES
3446,PRESTON,WAY,,PRESTON WAY,672B3,PUBLIC STREET NAMES
3590,PEONIA,ROAD,,PEONIA ROAD,559J4,PUBLIC STREET NAMES
3498,POLLARD,ST,,POLLARD STREET,595E1,PUBLIC STREET NAMES
3497,POLO,LANE,,POLO LANE,NA,PUBLIC STREET NAMES
10372,PLAYA VISTA,DR,,PLAYA VISTA DRIVE,702D1,PUBLIC STREET NAMES
350,PASEO DE LA FORTUNA,,,PASEO DE LA FORTUNA,630F2,PRIVATE STREET NAMES
3738,PALMWOOD,DR,,PALMWOOD DRIVE,673D2,PUBLIC STREET NAMES
3729,PALOMAR,PL,,PALOMAR PLACE,560G3,PUBLIC STREET NAMES
3532,PINTO,PL,,PINTO PLACE,592H4,PUBLIC STREET NAMES
3529,PIONEER,AVE,,PIONEER AVENUE,794G5,PUBLIC STREET NAMES
3408,PUTNAM,ST,,PUTNAM STREET,594D3,PUBLIC STREET NAMES
3433,PRINCETON,DR,,PRINCETON DRIVE,672A6,PUBLIC STREET NAMES
10808,PASEO MIRASOL,,,PASEO MIRASOL,500D1,PRIVATE ROADWAY NAMES
3515,PLATT,AVE,,PLATT AVENUE,529F3,PUBLIC STREET NAMES
3611,PEBBLE BEACH,PL,,PEBBLE BEACH PLACE,480G7,PUBLIC STREET NAMES
10652,PEBBLE,DR,,PEBBLE DRIVE,794A5,PRIVATE ROADWAY NAMES
3635,PATRICK,AVE,,PATRICK AVENUE,502B3,PUBLIC STREET NAMES
3404,PYRITES,ST,,PYRITES STREET,595C7,PUBLIC STREET NAMES
313,PINNACLE,PL,,PINNACLE PLACE,592G1,PRIVATE STREET NAMES
9594,PLUMTREE,CT,,PLUMTREE COURT,529D5,PUBLIC STREET NAMES
3456,PRAGER,AVE,,PRAGER AVENUE,482F7,PUBLIC STREET NAMES
3775,PACIFIC,AVE,,PACIFIC AVENUE,672D3,PUBLIC STREET NAMES
305,PRODUCE,ROW,,PRODUCE ROW,634F6,PRIVATE STREET NAMES
3518,PLANADA,AVE,,PLANADA AVENUE,595E1,PUBLIC STREET NAMES
3725,PALOS VERDES,ST,,PALOS VERDES STREET,824C3,PUBLIC STREET NAMES
9708,PORTOLA,,,PORTOLA,501H2,UNOFFICIAL PRIVATE STREET NAMES
3477,PORTER,ST,,PORTER STREET,634H7,PUBLIC STREET NAMES
3473,PORTLAND,ST,,PORTLAND STREET,634B6,PUBLIC STREET NAMES
3633,PATTON,AVE,,PATTON AVENUE,823J4,PUBLIC STREET NAMES
3619,PEACH,AVE,,PEACH AVENUE,501G3,PUBLIC STREET NAMES
3459,POWER,ST,,POWER STREET,634J2,PUBLIC STREET NAMES
3533,PINNEY,ST,,PINNEY STREET,482F7,PUBLIC STREET NAMES
3577,PERTHSHIRE,CIR,,PERTHSHIRE CIRCLE,529E6,PUBLIC STREET NAMES
10991,PASEO EL SOL,,,PASEO EL SOL,500D2,PRIVATE ROADWAY NAMES
3711,PARALTA,AVE,,PARALTA AVENUE,560B3,PUBLIC STREET NAMES
3468,PORTOLA,TR,,PORTOLA TRAIL,592C3,PUBLIC STREET NAMES
3748,PALISADES,DR,,PALISADES DRIVE,630F1,PUBLIC STREET NAMES
3656,PASEO DEL REY,,,PASEO DEL REY,702C3,PUBLIC STREET NAMES
10158,PLYMOUTH,WAY,,PLYMOUTH WAY,501H7,PRIVATE ROADWAY NAMES
3735,PALO ALTO,ST,,PALO ALTO STREET,634D1,PUBLIC STREET NAMES
3478,PORTAGE,LANE,,PORTAGE LANE,NA,PUBLIC STREET NAMES
3659,PASEO,WALK,,PASEO WALK,594H2,PUBLIC STREET NAMES
3520,PLACIDIA,AVE,,PLACIDIA AVENUE,563B4,PUBLIC STREET NAMES
10269,PENFIELD,AVE,,PENFIELD AVENUE,530E7,PRIVATE STREET NAMES
21,PASEO DE LA PLAZA,,,PASEO DE LA PLAZA,NA,PUBLIC STREET NAMES
3449,PRESSON,PL,,PRESSON PLACE,593A4,PUBLIC STREET NAMES
311,PONCE,AVE,,PONCE AVENUE,NA,PRIVATE STREET NAMES
303,PROMONTORY,ROAD,,PROMONTORY ROAD,591E4,PRIVATE STREET NAMES
317,PERLITA,AVE,,PERLITA AVENUE,594F3,PRIVATE STREET NAMES
3688,PARK OAK,CT,,PARK OAK COURT,593H2,PUBLIC STREET NAMES
3415,PSOMAS,WAY,,PSOMAS WAY,672A3,PUBLIC STREET NAMES
3464,POSTMASTER,AVE,,POSTMASTER AVENUE,793J3,PUBLIC STREET NAMES
3551,PICTURESQUE,DR,,PICTURESQUE DRIVE,562H6,PUBLIC STREET NAMES
347,PASEO DE LAS CASADAS,,,PASEO DE LAS CASADAS,630F1,PRIVATE STREET NAMES
334,PASEO DE MONCLOVA,,,PASEO DE MONCLOVA,630F1,PRIVATE STREET NAMES
3759,PAISLEY,CT,,PAISLEY COURT,480H7,PUBLIC STREET NAMES
3470,PORTOLA,AVE,,PORTOLA AVENUE,595F5,PUBLIC STREET NAMES
3778,PACHECO,DR,,PACHECO DRIVE,561H6,PUBLIC STREET NAMES
3706,PARK,AVE,,PARK AVENUE,594D7,PUBLIC STREET NAMES
3658,PASEO DE LA PLAZA,,,PASEO DE LA PLAZA,634G3,PEDESTRIAN MALL NAMES
3669,PARTHENIA,PL,,PARTHENIA PLACE,530J1,PUBLIC STREET NAMES
358,PARR,AVE,,PARR AVENUE,503G2,PRIVATE STREET NAMES
362,PALO,DR,,PALO DRIVE,560F3,PRIVATE STREET NAMES
3592,PENROSE,ST,,PENROSE STREET,503B7,PUBLIC STREET NAMES
3461,POTTER,AVE,,POTTER AVENUE,532E2,PUBLIC STREET NAMES
3541,PINEKNOLL,AVE,,PINEKNOLL AVENUE,793J6,PUBLIC STREET NAMES
3555,PICKFORD,PL,,PICKFORD PLACE,633A4,PUBLIC STREET NAMES
3571,PETALUMA,PL,,PETALUMA PLACE,533C1,PUBLIC STREET NAMES
3705,PARK,AVE,,PARK AVENUE,530B7,PUBLIC STREET NAMES
3501,POINT VIEW,ST,,POINT VIEW STREET,633A3,PUBLIC STREET NAMES
3661,PASADERO,PL,,PASADERO PLACE,560H5,PUBLIC STREET NAMES
10881,PIER POINTE,DR,,PIER POINTE DRIVE,671J7,PRIVATE ROADWAY NAMES
3651,PASHA,PL,,PASHA PLACE,482D3,PUBLIC STREET NAMES
3524,PISANI,PL,,PISANI PLACE,671J5,PUBLIC STREET NAMES
3460,POWAY,ST,,POWAY STREET,704C7,PUBLIC STREET NAMES
3414,PUEBLO,AVE,,PUEBLO AVENUE,595E5,PUBLIC STREET NAMES
3581,PERLITA,AVE,,PERLITA AVENUE,564D7,PUBLIC STREET NAMES
3585,PERCH,ST,,PERCH STREET,823H7,PUBLIC STREET NAMES
3489,PONDEROSA,DR,,PONDEROSA DRIVE,631D1,PUBLIC STREET NAMES
3565,PHEASANT,DR,,PHEASANT DRIVE,36A3,PUBLIC STREET NAMES
3680,PARK WESTERN,PL,,PARK WESTERN PLACE,824J3,PUBLIC STREET NAMES
3431,PRIVATEER,CT,,PRIVATEER COURT,701J1,PUBLIC STREET NAMES
10814,PASEO MERIANA,,,PASEO MERIANA,500D1,PRIVATE ROADWAY NAMES
3481,POPPY PEAK,DR,,POPPY PEAK DRIVE,565D7,PUBLIC STREET NAMES
3733,PALOMA,AVE,,PALOMA AVENUE,671G5,PUBLIC STREET NAMES
357,PARSONS,TR,,PARSONS TRAIL,504A3,PRIVATE STREET NAMES
3583,PERCY,ST,,PERCY STREET,635C7,PUBLIC STREET NAMES
3406,PYRAMID,DR,,PYRAMID DRIVE,593C1,PUBLIC STREET NAMES
3737,PALMYRA,ROAD,,PALMYRA ROAD,673D2,PUBLIC STREET NAMES
10936,PERMITS,ROAD,,PERMITS ROAD,NA,PRIVATE STREET NAMES
3543,PINE GROVE,AVE,,PINE GROVE AVENUE,565D6,PUBLIC STREET NAMES
3517,PLATA,ST,,PLATA STREET,594B7,PUBLIC STREET NAMES
3634,PATTILAR,AVE,,PATTILAR AVENUE,559E2,PUBLIC STREET NAMES
3617,PEACHTREE,AVE,,PEACHTREE AVENUE,532B2,PUBLIC STREET NAMES
3610,PECAN,ST,,PECAN STREET,634J4,PUBLIC STREET NAMES
10834,PIAZZA,WAY,,PIAZZA WAY,480E6,PRIVATE STREET NAMES
3777,PACIFIC,AVE,,PACIFIC AVENUE,671H6,PUBLIC STREET NAMES
3526,PIRTLE,ST,,PIRTLE STREET,594F4,PUBLIC STREET NAMES
10811,PASEO SONESTA,,,PASEO SONESTA,500D1,PRIVATE ROADWAY NAMES
3434,PRINCETON,AVE,,PRINCETON AVENUE,594F5,PUBLIC STREET NAMES
3443,PREWETT,ST,,PREWETT STREET,595B7,PUBLIC STREET NAMES
3549,PIER A,ST,,PIER A STREET,824E1,PUBLIC STREET NAMES
3721,PANAMA,ST,,PANAMA STREET,672C6,PUBLIC STREET NAMES
3744,PALMERO,DR,,PALMERO DRIVE,595A2,PUBLIC STREET NAMES
3720,PANAMINT,DR,,PANAMINT DRIVE,594H3,PUBLIC STREET NAMES
3594,PENNSYLVANIA,AVE,,PENNSYLVANIA AVENUE,634J4,PUBLIC STREET NAMES
10079,POMEGRANATE,LANE,,POMEGRANATE LANE,559J1,PRIVATE ROADWAY NAMES
3438,PRIMERA,PL,,PRIMERA PLACE,563D7,PUBLIC STREET NAMES
3495,POMEROY,AVE,,POMEROY AVENUE,635A3,PUBLIC STREET NAMES
10247,PORTSMOUTH,LANE,,PORTSMOUTH LANE,823J7,PRIVATE ROADWAY NAMES
3700,PARK,ROW,,PARK ROW,671H6,PUBLIC STREET NAMES
3588,PEPPER,AVE,,PEPPER AVENUE,594J5,PUBLIC STREET NAMES
3770,PACKARD,ST,,PACKARD STREET,633D4,PUBLIC STREET NAMES
307,POSTAL,ROAD,,POSTAL ROAD,702J5,PRIVATE STREET NAMES
3527,PIPER,PL,,PIPER PLACE,702J1,PUBLIC STREET NAMES
3542,PINEHURST,ROAD,,PINEHURST ROAD,593D3,PUBLIC STREET NAMES
9946,PATTERSON,PL,,PATTERSON PLACE,631A5,PUBLIC STREET NAMES
10549,PIER A,PZ,,PIER A PLAZA,794H7,PRIVATE ROADWAY NAMES
3462,POTOSI,AVE,,POTOSI AVENUE,562E6,PUBLIC STREET NAMES
3749,PALISADES,CT,,PALISADES COURT,630F1,PUBLIC STREET NAMES
3752,PALENCIA,AVE,,PALENCIA AVENUE,560B4,PUBLIC STREET NAMES
3755,PALACIOS,DR,,PALACIOS DRIVE,823H6,PUBLIC STREET NAMES
3732,PALOMA,CT,,PALOMA COURT,671G5,PUBLIC STREET NAMES
3692,PARK LANE,DR,,PARK LANE DRIVE,561E7,PUBLIC STREET NAMES
10807,PASEO SOLERA,,,PASEO SOLERA,500D1,PRIVATE ROADWAY NAMES
3693,PARK LANE,CIR,,PARK LANE CIRCLE,561E7,PUBLIC STREET NAMES
3605,PELHAM,AVE,,PELHAM AVENUE,632C4,PUBLIC STREET NAMES
10152,PORTOFINO,LANE,,PORTOFINO LANE,501H7,PRIVATE ROADWAY NAMES
10342,PORTSIDE,LANE,,PORTSIDE LANE,794B4,PRIVATE STREET NAMES
9761,PICKADILLY,PL,,PICKADILLY PLACE,482E1,PUBLIC STREET NAMES
3572,PETALUMA,DR,,PETALUMA DRIVE,533C1,PUBLIC STREET NAMES
3645,PASTEL,PL,,PASTEL PLACE,562H6,PUBLIC STREET NAMES
3734,PALOMA,AVE,,PALOMA AVENUE,674E5,PUBLIC STREET NAMES
10504,PREMIERE HILLS,DR,,PREMIERE HILLS DRIVE,NA,PUBLIC STREET NAMES
330,PASEO LA VALLE,,,PASEO LA VALLE,630F1,PRIVATE STREET NAMES
3504,POE,AVE,,POE AVENUE,NA,PUBLIC STREET NAMES
3668,PARTHENIA,ST,,PARTHENIA STREET,532B1,PUBLIC STREET NAMES
9976,PEMBRIDGE,CT,,PEMBRIDGE COURT,591G3,PRIVATE STREET NAMES
3561,PHILLIPPI,AVE,,PHILLIPPI AVENUE,9B1,PUBLIC STREET NAMES
3595,PENNINGTON,AVE,,PENNINGTON AVENUE,794H6,PUBLIC STREET NAMES
3618,PEACH GROVE,ST,,PEACH GROVE STREET,563A3,PUBLIC STREET NAMES
3648,PASO ROBLES,AVE,,PASO ROBLES AVENUE,481C7,PUBLIC STREET NAMES
364,PAGODA,PL,,PAGODA PLACE,595B6,PRIVATE STREET NAMES
3665,PASADENA,AVE,,PASADENA AVENUE,595A5,PUBLIC STREET NAMES
3523,PITCHER,ROAD,,PITCHER ROAD,593F2,PUBLIC STREET NAMES
341,PASEO DE LA VIDA,,,PASEO DE LA VIDA,630F1,PRIVATE STREET NAMES
9710,PRUDENT,ST,,PRUDENT STREET,634H2,UNOFFICIAL PRIVATE STREET NAMES
9606,PARK ARROYO,,,PARK ARROYO,559G5,PRIVATE ROADWAY NAMES
3445,PRESTWICK,DR,,PRESTWICK DRIVE,594B2,PUBLIC STREET NAMES
3563,PHILBERT,DR,,PHILBERT DRIVE,32E3,PUBLIC STREET NAMES
3548,PIERCE,ST,,PIERCE STREET,482G7,PUBLIC STREET NAMES
3715,PAPAGO,TR,,PAPAGO TRAIL,529D1,PUBLIC STREET NAMES
9809,PLUMTREE,LANE,,PLUMTREE LANE,500H3,PRIVATE STREET NAMES
3647,PASS,ROAD,,PASS ROAD,NA,PUBLIC STREET NAMES
3773,PACIFIC GATEWAY,DR,,PACIFIC GATEWAY DRIVE,764A3,PUBLIC STREET NAMES
320,PATTY,LANE,,PATTY LANE,NA,PRIVATE STREET NAMES
325,PASEO MARIPOSA,,,PASEO MARIPOSA,630F1,PRIVATE STREET NAMES
336,PASEO DEL PAJARO,,,PASEO DEL PAJARO,630F1,PRIVATE STREET NAMES
3534,PINEWOOD,AVE,,PINEWOOD AVENUE,504A3,PUBLIC STREET NAMES
3683,PARKSIDE,AVE,,PARKSIDE AVENUE,635C1,PUBLIC STREET NAMES
10776,PIER S,AVE,,PIER S AVENUE,824G2,PUBLIC STREET NAMES
3641,PATIO,PL,,PATIO PLACE,595F6,PUBLIC STREET NAMES
3699,PARK CENTER,DR,,PARK CENTER DRIVE,593D1,PUBLIC STREET NAMES
3776,PACIFIC,AVE,,PACIFIC AVENUE,824B3,PUBLIC STREET NAMES
3657,PASEO DEL MAR,,,PASEO DEL MAR,823F7,PUBLIC STREET NAMES
3650,PASHA,ST,,PASHA STREET,482D3,PUBLIC STREET NAMES
3606,PEG,PL,,PEG PLACE,632F4,PUBLIC STREET NAMES
324,PASEO PALOMA,,,PASEO PALOMA,630F2,PRIVATE STREET NAMES
3509,PLEASANT VIEW,AVE,,PLEASANT VIEW AVENUE,671H5,PUBLIC STREET NAMES
9704,PARK,AVE,,PARK AVENUE,671G5,UNOFFICIAL PRIVATE STREET NAMES
3545,PINAFORE,ST,,PINAFORE STREET,673C2,PUBLIC STREET NAMES
3553,PICKWICK,ST,,PICKWICK STREET,595E1,PUBLIC STREET NAMES
344,PASEO DE LOMAS ALTAS,,,PASEO DE LAS LOMAS ALTAS,630F1,PRIVATE STREET NAMES
3674,PARNELL,AVE,,PARNELL AVENUE,632C4,PUBLIC STREET NAMES
3556,PICASSO,PL,,PICASSO PLACE,560A6,PUBLIC STREET NAMES
3750,PALISADES,CIR,,PALISADES CIRCLE,630F1,PUBLIC STREET NAMES
351,PASEO DE LA ESTRELLA,,,PASEO DE LA ESTRELLA,630F2,PRIVATE STREET NAMES
3762,PAGEANT,PL,,PAGEANT PLACE,561D6,PUBLIC STREET NAMES
3615,PEARL,ST,,PEARL STREET,632C6,PUBLIC STREET NAMES
321,PASEO VISTA HERMOSA,,,PASEO VISTA HERMOSA,630F1,PRIVATE STREET NAMES
3676,PARMELEE,AVE,,PARMELEE AVENUE,704F6,PUBLIC STREET NAMES
338,PASEO DE LOS MONTEROS,,,PASEO DE LOS MONTEROS,630F1,PRIVATE STREET NAMES
310,PORTER VALLEY,DR,,PORTER VALLEY DRIVE,500G2,PRIVATE STREET NAMES
3708,PARDEE,ST,,PARDEE STREET,703A4,PUBLIC STREET NAMES
3601,PEMBROKE,LANE,,PEMBROKE LANE,634E5,PUBLIC STREET NAMES
3638,PATRICE,PL,,PATRICE PLACE,764B1,PUBLIC STREET NAMES
3727,PALORA,ST,,PALORA STREET,561C3,PUBLIC STREET NAMES
3649,PASKENTA,ROAD,,PASKENTA ROAD,631B4,PUBLIC STREET NAMES
10693,PARK PASEO,,,PARK PASEO,634J4,PRIVATE STREET NAMES
10455,PESARO,WAY,,PESARO WAY,500D1,PRIVATE STREET NAMES
3574,PESCADORES,AVE,,PESCADORES AVENUE,823H6,PUBLIC STREET NAMES
3760,PAIGE,ST,,PAIGE STREET,595C5,PUBLIC STREET NAMES
3458,POWERS,PL,,POWERS PLACE,634B5,PUBLIC STREET NAMES
3741,PALM GROVE,AVE,,PALM GROVE AVENUE,633D6,PUBLIC STREET NAMES
3685,PARK ORA,,,PARK ORA,559G5,PUBLIC STREET NAMES
10813,PASEO CELESTE,,,PASEO CELESTE,500D1,PRIVATE ROADWAY NAMES
340,PASEO DE LOS ARBOLES,,,PASEO DE LOS ARBOLES,630F2,PRIVATE STREET NAMES
9607,PARK DULCE,,,PARK DULCE,559G5,PRIVATE ROADWAY NAMES
3670,PARSONS,TR,,PARSONS TRAIL,504A3,PUBLIC STREET NAMES
10840,PHOENIX,PL,,PHOENIX PLACE,502E6,PRIVATE ROADWAY NAMES
10625,PINE HILL,DR,,PINE HILL DRIVE,503A3,PRIVATE ROADWAY NAMES
3707,PARION,CT,,PARION COURT,559E3,PUBLIC STREET NAMES
3746,PALMER,DR,,PALMER DRIVE,564G6,PUBLIC STREET NAMES
10377,PAT MOORE,WAY,,PAT MOORE WAY,593E2,PRIVATE STREET NAMES
3410,PUNTA ALTA,DR,,PUNTA ALTA DRIVE,673B3,PUBLIC STREET NAMES
3613,PEARWOOD,AVE,,PEARWOOD AVENUE,481J7,PUBLIC STREET NAMES
3412,PUERTO DEL MAR,,,PUERTO DEL MAR,630J6,PUBLIC STREET NAMES
343,PASEO DE LA RISA,,,PASEO DE LA RISA,630F1,PRIVATE STREET NAMES
3655,PASEO DEL SERRA,,,PASEO DEL SERRA,593D3,PUBLIC STREET NAMES
304,PRODUCE,ST,,PRODUCE STREET,634G6,PRIVATE STREET NAMES
3678,PARKYNS,ST,,PARKYNS STREET,631E3,PUBLIC STREET NAMES
3522,PIZARRO,ST,,PIZARRO STREET,634D2,PUBLIC STREET NAMES
3547,PILAR,ROAD,,PILAR ROAD,560C5,PUBLIC STREET NAMES
9706,PINTO,,,PINTO,481G1,UNOFFICIAL PRIVATE STREET NAMES
3598,PENFIELD,AVE,,PENFIELD AVENUE,500E3,PUBLIC STREET NAMES
10428,PIER A,WAY,,PIER A WAY,794H7,PRIVATE ROADWAY NAMES
361,PARK,DR,,PARK DRIVE,594G6,PRIVATE STREET NAMES
10640,PARK VISTA,TER,,PARK VISTA TERRACE,595D5,PUBLIC STREET NAMES
3604,PELHAM,PL,,PELHAM PLACE,593G2,PUBLIC STREET NAMES
3508,PLUMAS,ST,,PLUMAS STREET,564G6,PUBLIC STREET NAMES
3740,PALMS,BLVD,,PALMS BOULEVARD,632F7,PUBLIC STREET NAMES
314,PILCHARD,ST,,PILCHARD STREET,824E4,PRIVATE STREET NAMES
3739,PALM VIEW,DR,,PALM VIEW DRIVE,595E1,PUBLIC STREET NAMES
3440,PRIMAVERA,WALK,,PRIMAVERA WALK,594J3,PUBLIC STREET NAMES
3774,PACIFIC COAST,HWY,,PACIFIC COAST HIGHWAY,794J5,PUBLIC STREET NAMES
3409,PURDUE,AVE,,PURDUE AVENUE,632A5,PUBLIC STREET NAMES
3602,PELICAN,AVE,,PELICAN AVENUE,823H6,PUBLIC STREET NAMES
3531,PINTORESCA,DR,,PINTORESCA DRIVE,630H5,PUBLIC STREET NAMES
3664,PASADENA AVENUE,TER,,PASADENA AVENUE TERRACE,NA,PUBLIC STREET NAMES
10156,PROVIDENCE,LANE,,PROVIDENCE LANE,501H7,PRIVATE ROADWAY NAMES
10035,POSITANO,LANE,,POSITANO LANE,NA,PRIVATE ROADWAY NAMES
11093,PATRIOT,WAY,,PATRIOT WAY,531H3,LIMITED ACCESS AREA NAMES
11164,PICCADILLY,LANE,,PICCADILLY LANE,480D7,PRIVATE STREET NAMES
11060,PINE,LANE,,PINE LANE,532B4,LIMITED ACCESS AREA NAMES
11125,PARKCREST,PL,,PARKCREST PLACE,633A4,LIMITED ACCESS AREA NAMES
11113,PORTOLA,WAY,,PORTOLA WAY,482E3,UNOFFICIAL PRIVATE STREET NAMES
11181,PROMENADE,PZ,,PROMENADE PLAZA,672H7,PRIVATE ROADWAY NAMES
11249,PARQUE VANOWEN,WAY,,PARQUE VANOWEN WAY,531C6,LIMITED ACCESS AREA NAMES
11260,PATAGONIA,CT,,PATAGONIA COURT,593G7,LIMITED ACCESS AREA NAMES
11262,PRIMROSE,CT,,PRIMROSE COURT,500C1,PRIVATE STREET NAMES
