Street ID,Street Name,Street Suffix,Street Suffix Direction,Official Street Name,Thomas Brothers Map,Street Type
3372,QUINTON,LANE,,QUINTON LANE,504B5,PUBLIC STREET NAMES
3374,QUINTA,ROAD,,QUINTA ROAD,559J4,PUBLIC STREET NAMES
3384,QUEENS,ROAD,,QUEENS ROAD,592J4,PUBLIC STREET NAMES
3399,QUAIL,DR,,QUAIL DRIVE,595A3,PUBLIC STREET NAMES
3398,QUAKERTOWN,AVE,,QUAKERTOWN AVENUE,500E5,PUBLIC STREET NAMES
3391,QUEBEC,DR,,QUEBEC DRIVE,593F2,PUBLIC STREET NAMES
3376,QUILL,AVE,,QUILL AVENUE,503G2,PUBLIC STREET NAMES
3390,QUEDO,DR,,QUEDO DRIVE,560C4,PUBLIC STREET NAMES
10982,QUIET HILLS,CT,,QUIET HILLS  COURT,529E2,PUBLIC STREET NAMES
10568,QUINCY,WAY,,QUINCY WAY,480G5,PRIVATE STREET NAMES
10469,QUAKERTOWN,CT,,QUAKERTOWN COURT,530E2,PRIVATE STREET NAMES
3401,QUAIL CREEK,PL,,QUAIL CREEK PLACE,500F1,PUBLIC STREET NAMES
3400,QUAIL CREEK,ROAD,,QUAIL CREEK ROAD,500F1,PUBLIC STREET NAMES
3395,QUARTERDECK,ST,,QUARTERDECK STREET,NA,PEDESTRIAN MALL NAMES
3393,QUARTZ,AVE,,QUARTZ AVENUE,500E5,PUBLIC STREET NAMES
3381,QUEENSFERRY,ROAD,,QUEENSFERRY ROAD,631C1,PUBLIC STREET NAMES
3378,QUEMADA,ROAD,,QUEMADA ROAD,561E5,PUBLIC STREET NAMES
3382,QUEENSBURY,DR,,QUEENSBURY DRIVE,632F6,PUBLIC STREET NAMES
3380,QUEENSLAND,ST,,QUEENSLAND STREET,632E7,PUBLIC STREET NAMES
3389,QUEDO,PL,,QUEDO PLACE,560C4,PUBLIC STREET NAMES
3386,QUEEN FLORENCE,LANE,,QUEEN FLORENCE LANE,560E3,PUBLIC STREET NAMES
3392,QUAY,AVE,,QUAY AVENUE,794F7,PUBLIC STREET NAMES
3377,QUESAN,PL,,QUESAN PLACE,561C5,PUBLIC STREET NAMES
3371,QUITO,LANE,,QUITO LANE,592A4,PUBLIC STREET NAMES
3383,QUEENS,WAY,,QUEENS WAY,592J5,PUBLIC STREET NAMES
3394,QUARTERDECK,ST,,QUARTERDECK STREET,701J1,PUBLIC STREET NAMES
3387,QUEEN ANNE,PL,,QUEEN ANNE PLACE,633E4,PUBLIC STREET NAMES
3396,QUARTERDECK,CT,,QUARTERDECK COURT,701J1,PUBLIC STREET NAMES
3388,QUEEN,ST,,QUEEN STREET,594F4,PUBLIC STREET NAMES
3385,QUEENS,CT,,QUEENS COURT,592J4,PUBLIC STREET NAMES
19,QUARTERDECK,MALL,,QUARTERDECK MALL,701J1,PEDESTRIAN MALL NAMES
9919,QUEENSBOROUGH,LANE,,QUEENSBOROUGH LANE,591G3,PRIVATE STREET NAMES
3379,QUEEN VICTORIA,ROAD,,QUEEN VICTORIA ROAD,560E4,PUBLIC STREET NAMES
3375,QUIMBY,AVE,,QUIMBY AVENUE,529G4,PUBLIC STREET NAMES
3397,QUAN YIN,ROAD,,QUAN YIN ROAD,NA,PUBLIC STREET NAMES
3402,QUADRO VECCHIO,DR,,QUADRO VECCHIO DRIVE,630F5,PUBLIC STREET NAMES
3373,QUINTERO,ST,,QUINTERO STREET,594F7,PUBLIC STREET NAMES
3403,Q,ST,,Q STREET,794G4,PUBLIC STREET NAMES
