Street ID,Street Name,Street Suffix,Street Suffix Direction,Official Street Name,Thomas Brothers Map,Street Type
2523,SPRING,ST,,SPRING STREET,634H2,PUBLIC STREET NAMES
9621,SHADOW MOUNTAIN,DR,,SHADOW MOUNTAIN DRIVE,630H3,PRIVATE STREET NAMES
2630,SIDLEE,PL,,SIDLEE PLACE,794A2,PUBLIC STREET NAMES
224,SOLANO CANYON,DR,,SOLANO CANYON DRIVE,594G6,PRIVATE STREET NAMES
2587,SISTER ELSIE,DR,,SISTER ELSIE DRIVE,504C4,PUBLIC STREET NAMES
2472,STEPHEN,LANE,,STEPHEN LANE,529F2,PUBLIC STREET NAMES
2391,SUNBROOK,DR,,SUNBROOK DRIVE,592C5,PUBLIC STREET NAMES
2681,SHELLY VISTA,DR,,SHELLY VISTA DRIVE,503J1,PUBLIC STREET NAMES
2936,SAINT SUSAN,PL,,SAINT SUSAN PLACE,672C2,PUBLIC STREET NAMES
2318,SWALLOW,DR,,SWALLOW DRIVE,592H3,PUBLIC STREET NAMES
2636,SHOUP,AVE,,SHOUP AVENUE,529J7,PUBLIC STREET NAMES
2419,STROHM,AVE,,STROHM AVENUE,563B3,PUBLIC STREET NAMES
2638,SHORT,WAY,,SHORT WAY,595E3,PUBLIC STREET NAMES
2499,STANMOOR,DR,,STANMOOR DRIVE,702D3,PUBLIC STREET NAMES
2860,SAN RAFAEL,AVE,,SAN RAFAEL AVENUE,564D3,PUBLIC STREET NAMES
2714,SHADY,DR,,SHADY DRIVE,631F4,PUBLIC STREET NAMES
10062,SYCAMORE,TER,,SYCAMORE TERRACE,595B3,PUBLIC STREET NAMES
2431,STRADELLA,CT,,STRADELLA COURT,591J5,PUBLIC STREET NAMES
10770,SHADY PALMS,LANE,,SHADY PALMS LANE,482C4,PRIVATE ROADWAY NAMES
2953,ST CLAIR,AVE,,ST CLAIR AVENUE,532F7,PUBLIC STREET NAMES
2937,SAINT PIERRE,ROAD,,SAINT PIERRE ROAD,592B6,PUBLIC STREET NAMES
10749,SAGEBROOK,ROAD,,SAGEBROOK ROAD,499J3,PRIVATE STREET NAMES
2609,SILVER LAKE,BLVD,,SILVER LAKE BOULEVARD,594E3,PUBLIC STREET NAMES
2703,SHAMROCK,PL,,SHAMROCK PLACE,500D3,PUBLIC STREET NAMES
2757,SELKIRK,LANE,,SELKIRK LANE,592A3,PUBLIC STREET NAMES
10064,SUNRISE HILL,DR,,SUNRISE HILL DRIVE,591F4,PRIVATE ROADWAY NAMES
2527,SPOKANE,ST,,SPOKANE STREET,633A7,PUBLIC STREET NAMES
2601,SILVERWOOD,DR,,SILVERWOOD DRIVE,565B7,PUBLIC STREET NAMES
2347,SUNSET PLAZA,PL,,SUNSET PLAZA PLACE,592J4,PUBLIC STREET NAMES
2921,SALTAIR,TER,,SALTAIR TERRACE,631G4,PUBLIC STREET NAMES
2839,SANTA SUSANNA,PL,,SANTA SUSANNA PLACE,500A7,PUBLIC STREET NAMES
208,STRADA VECCHIA,ROAD,,STRADA VECCHIA ROAD,592A6,PRIVATE STREET NAMES
9596,SEDGEWICK,CT,,SEDGEWICK COURT,529D4,PUBLIC STREET NAMES
2813,SAUSALITO,AVE,,SAUSALITO AVENUE,529J2,PUBLIC STREET NAMES
2817,SATICOY,ST,SOUTH,SATICOY STREET SOUTH,532E4,PUBLIC STREET NAMES
2743,SEPTO,ST,,SEPTO STREET,501D5,PUBLIC STREET NAMES
9972,SUNGLOW,WAY,,SUNGLOW WAY,503C7,PUBLIC STREET NAMES
9978,SHERINGHAM,LANE,,SHERINGHAM LANE,591G3,PRIVATE STREET NAMES
2717,SHADOW ISLAND,DR,,SHADOW ISLAND DRIVE,503C5,PUBLIC STREET NAMES
2834,SAN VICENTE,BLVD,,SAN VICENTE BOULEVARD,633E4,PUBLIC STREET NAMES
2378,SUNLAND,WAY,,SUNLAND WAY,503D4,PUBLIC STREET NAMES
9844,STORM,PKWY,,STORM PARKWAY,794A1,PUBLIC STREET NAMES
2926,SALISBURY,ROAD,,SALISBURY ROAD,529D5,PUBLIC STREET NAMES
9864,SIERRA PASS,PL,,SIERRA PASS PLACE,499J2,PRIVATE STREET NAMES
2553,SONOMA,WAY,,SONOMA WAY,480F6,PUBLIC STREET NAMES
2862,SAN PEDRO,ST,,SAN PEDRO STREET,NA,PUBLIC STREET NAMES
2876,SANLO,PL,,SANLO PLACE,560D3,PUBLIC STREET NAMES
10296,SILVER OAKS,DR,,SILVER OAKS DRIVE,481E2,PUBLIC STREET NAMES
2394,SUMTER,DR,,SUMTER DRIVE,595D2,PUBLIC STREET NAMES
2904,SANDAL,LANE,,SANDAL LANE,592A4,PUBLIC STREET NAMES
2590,SINGING HILLS,DR,,SINGING HILLS DRIVE,500F1,PUBLIC STREET NAMES
2674,SHERBOURNE,DR,,SHERBOURNE DRIVE,632J7,PUBLIC STREET NAMES
2537,SPAULDING,AVE,,SPAULDING AVENUE,593B5,PUBLIC STREET NAMES
2735,SEQUOIA,ST,,SEQUOIA STREET,564C6,PUBLIC STREET NAMES
2359,SUNRISE,ST,,SUNRISE STREET,635B7,PUBLIC STREET NAMES
10027,SILVER HAWK,LANE,,SILVER HAWK LANE,560J6,PRIVATE STREET NAMES
2468,STERRY,ST,,STERRY STREET,NA,PUBLIC STREET NAMES
2437,STONEY HILL,ROAD,,STONEY HILL ROAD,NA,PUBLIC STREET NAMES
213,STAUNTON,AVE,,STAUNTON AVENUE,674G4,PRIVATE STREET NAMES
9903,SCHOLL CANYON,ROAD,,SCHOLL CANYON ROAD,565D5,PUBLIC STREET NAMES
2752,SEMRAD,ROAD,,SEMRAD ROAD,529E5,PUBLIC STREET NAMES
2782,SCOVILLE,AVE,,SCOVILLE AVENUE,503G2,PUBLIC STREET NAMES
10771,SILVER PALMS,LANE,,SILVER PALMS LANE,482C4,PRIVATE ROADWAY NAMES
2632,SHURTLEFF,CT,,SHURTLEFF COURT,595A5,PUBLIC STREET NAMES
2502,STANLEY,AVE,,STANLEY AVENUE,564G4,PUBLIC STREET NAMES
2918,SALT LAKE,PL,,SALT LAKE PLACE,500G2,PUBLIC STREET NAMES
2570,SMILEY,DR,,SMILEY DRIVE,633B7,PUBLIC STREET NAMES
2809,SAVOY,ST,,SAVOY STREET,634H1,PUBLIC STREET NAMES
2867,SAN ONOFRE,DR,,SAN ONOFRE DRIVE,631D3,PUBLIC STREET NAMES
258,SARDINE,ST,,SARDINE STREET,824E5,PRIVATE STREET NAMES
241,SHADY OAK,ROAD,,SHADY OAK ROAD,562F6,PRIVATE STREET NAMES
2687,SHELBY,DR,,SHELBY DRIVE,632G7,PUBLIC STREET NAMES
2759,SELDNER,ST,,SELDNER STREET,635E2,PUBLIC STREET NAMES
2789,SCOTLAND,ST,,SCOTLAND STREET,594C4,PUBLIC STREET NAMES
10948,STONE OAK,PARK,,STONE OAK PARK,561D7,PRIVATE STREET NAMES
10751,SUMMER,CT,,SUMMER COURT,499J3,PRIVATE STREET NAMES
2357,SUNSET,BLVD,,SUNSET BOULEVARD,594B5,PUBLIC STREET NAMES
2445,STONER,AVE,,STONER AVENUE,632B7,PUBLIC STREET NAMES
2816,SATSUMA,AVE,,SATSUMA AVENUE,563A5,PUBLIC STREET NAMES
10270,STONEHENGE,CT,,STONEHENGE COURT,560E7,PRIVATE STREET NAMES
2506,STAN,PL,,STAN PLACE,592D3,PUBLIC STREET NAMES
2446,STONEHURST,PL,,STONEHURST PLACE,503A4,PUBLIC STREET NAMES
10542,ST REGIS,DR,,ST REGIS DRIVE,NA,PRIVATE ROADWAY NAMES
11029,STUDIO,CT,,STUDIO COURT,593G5,LIMITED ACCESS AREA NAMES
2697,SHASTA,CIR,NORTH,SHASTA CIRCLE NORTH,564H7,PUBLIC STREET NAMES
2666,SHERMAN,CIR,,SHERMAN CIRCLE,532A5,PUBLIC STREET NAMES
2496,STANTON,DR,,STANTON DRIVE,564H6,PUBLIC STREET NAMES
2750,SENATOR,AVE,,SENATOR AVENUE,794A3,PUBLIC STREET NAMES
2456,STOCKER,ST,,STOCKER STREET,673C3,PUBLIC STREET NAMES
2410,SUFFOLK,DR,,SUFFOLK DRIVE,562C7,PUBLIC STREET NAMES
2842,SANTA RITA,ST,,SANTA RITA STREET,561A3,PUBLIC STREET NAMES
2583,SKYEWIAY,ROAD,,SKYEWIAY ROAD,631F2,PUBLIC STREET NAMES
2538,SPARTON,AVE,,SPARTON AVENUE,502B7,PUBLIC STREET NAMES
9872,SHAWNEE,ST,,SHAWNEE STREET,499J1,PRIVATE STREET NAMES
2871,SAN MARINO,ST,,SAN MARINO STREET,634A3,PUBLIC STREET NAMES
2425,STRATTON,AVE,,STRATTON AVENUE,482C1,PUBLIC STREET NAMES
10474,SARBONNE,LANE,,SARBONNE LANE,591H4,PRIVATE ROADWAY NAMES
2618,SIERRA VILLA,DR,,SIERRA VILLA DRIVE,564J6,PUBLIC STREET NAMES
2791,SCHUMACHER,DR,,SCHUMACHER DRIVE,633A3,PUBLIC STREET NAMES
2531,SPINNAKER,CT,,SPINNAKER COURT,701J1,PUBLIC STREET NAMES
2775,SEABURY,LANE,,SEABURY LANE,592A3,PUBLIC STREET NAMES
2322,SUTTON,PL,,SUTTON PLACE,561J5,PUBLIC STREET NAMES
11007,SEAHORSE,CT,,SEAHORSE COURT,702E1,PRIVATE ROADWAY NAMES
2748,SENECA,AVE,,SENECA AVENUE,564D7,PUBLIC STREET NAMES
2367,SUNNY OAK,ROAD,,SUNNY OAK ROAD,561J6,PUBLIC STREET NAMES
10795,SENDA DE ANIKA,,,SENDA DE ANIKA,482A3,PRIVATE ROADWAY NAMES
9855,SOMBRERO,,,SOMBRERO,481G1,UNOFFICIAL PRIVATE STREET NAMES
2693,SHAW,PL,,SHAW PLACE,635F1,PUBLIC STREET NAMES
2363,SUNNYSLOPE,AVE,,SUNNYSLOPE AVENUE,532C2,PUBLIC STREET NAMES
221,SOUTH COLISEUM,DR,,SOUTH COLISEUM DRIVE,674B2,PRIVATE STREET NAMES
2593,SINALOA,WALK,,SINALOA WALK,702B3,PUBLIC STREET NAMES
2594,SINALOA,ROAD,,SINALOA ROAD,702B2,PUBLIC STREET NAMES
2524,SPREADING OAK,DR,,SPREADING OAK DRIVE,593G2,PUBLIC STREET NAMES
2746,SENTAR,ROAD,,SENTAR ROAD,559J4,PUBLIC STREET NAMES
2911,SAN BERNARDINO,FRWY,,SAN BERNARDINO FREEWAY,635C3,PUBLIC STREET NAMES
2368,SUNNYNOOK,DR,,SUNNYNOOK DRIVE,594D1,PUBLIC STREET NAMES
2963,SADDLE RIDGE,ROAD,,SADDLE RIDGE ROAD,481F1,PUBLIC STREET NAMES
2469,STERN,AVE,,STERN AVENUE,562B3,PUBLIC STREET NAMES
2785,SCOTT,ROAD,,SCOTT ROAD,533D3,PUBLIC STREET NAMES
2935,ST VINCENT,CT,,ST VINCENT COURT,634F4,PUBLIC STREET NAMES
2333,SUPERIOR,CT,,SUPERIOR COURT,595C7,PUBLIC STREET NAMES
2461,STILLWATER,DR,,STILLWATER DRIVE,673B2,PUBLIC STREET NAMES
201,SUNNYCREST,TR,,SUNNYCREST TRAIL,504A4,PRIVATE STREET NAMES
2404,SUMIYA,DR,,SUMIYA DRIVE,561B5,PUBLIC STREET NAMES
2969,SABANA,LANE,,SABANA LANE,561F7,PUBLIC STREET NAMES
2954,ST CHARLES,PL,,ST CHARLES PLACE,633D5,PUBLIC STREET NAMES
2781,SCROLL,ST,,SCROLL STREET,530F5,PUBLIC STREET NAMES
2855,SANTA ANA,FRWY,,SANTA ANA FREEWAY,634G3,PUBLIC STREET NAMES
2715,SHADOW RIDGE,CT,,SHADOW RIDGE COURT,529D5,PUBLIC STREET NAMES
2704,SHAMHART,DR,,SHAMHART DRIVE,481D7,PUBLIC STREET NAMES
9722,SCHLITZ,ST,,SCHLITZ STREET,532B4,UNOFFICIAL PRIVATE STREET NAMES
2709,SHADY OAK,ROAD,,SHADY OAK ROAD,562F6,PUBLIC STREET NAMES
2713,SHADYBROOK,DR,,SHADYBROOK DRIVE,592C5,PUBLIC STREET NAMES
9838,SWEETBRIAR,LANE,,SWEETBRIAR LANE,502F1,PRIVATE ROADWAY NAMES
2589,SINOVA,ST,,SINOVA STREET,595C5,PUBLIC STREET NAMES
2514,SPROULE,AVE,,SPROULE AVENUE,482A3,PUBLIC STREET NAMES
215,STATE,DR,,STATE DRIVE,674A2,PRIVATE STREET NAMES
11025,SELIG,DR,,SELIG DRIVE,594E6,LIMITED ACCESS AREA NAMES
2481,STATE,ST,,STATE STREET,635A2,PUBLIC STREET NAMES
2316,SWARTHMORE,AVE,,SWARTHMORE AVENUE,631A5,PUBLIC STREET NAMES
2525,SPRAGUE,ST,,SPRAGUE STREET,560G3,PUBLIC STREET NAMES
2562,SOMBRA,TER,,SOMBRA TERRACE,503D4,PUBLIC STREET NAMES
2700,SHANNON,ROAD,,SHANNON ROAD,594B1,PUBLIC STREET NAMES
2599,SILVERWOOD,TER,,SILVERWOOD TERRACE,594D5,PUBLIC STREET NAMES
2930,SALE,AVE,,SALE AVENUE,529H2,PUBLIC STREET NAMES
2652,SHETLAND,LANE,,SHETLAND LANE,631G4,PUBLIC STREET NAMES
2892,SAN FELICIANO,DR,,SAN FELICIANO DRIVE,560A3,PUBLIC STREET NAMES
2739,SEPULVEDA,PL,,SEPULVEDA PLACE,531H2,PUBLIC STREET NAMES
2407,SUMAC,DR,,SUMAC DRIVE,562A6,PUBLIC STREET NAMES
2956,ST ANDREWS,WALK,,ST ANDREWS WALK,593H3,PUBLIC STREET NAMES
17,SPINNAKER,MALL,,SPINNAKER MALL,701J1,PEDESTRIAN MALL NAMES
219,SOUTH SEASIDE,AVE,,SOUTH SEASIDE AVENUE,824D5,PRIVATE STREET NAMES
2774,SEAGROVE,AVE,,SEAGROVE AVENUE,794E3,PUBLIC STREET NAMES
225,SNELLING,ST,,SNELLING STREET,NA,PRIVATE STREET NAMES
2919,SALT LAKE,AVE,,SALT LAKE AVENUE,500H2,PUBLIC STREET NAMES
2650,SHILENO,PL,,SHILENO PLACE,561D5,PUBLIC STREET NAMES
242,SHADY HOLLOW,CT,,SHADY HOLLOW COURT,480F6,PRIVATE STREET NAMES
2552,SOPER,DR,,SOPER DRIVE,593B1,PUBLIC STREET NAMES
265,SALE,AVE,,SALE AVENUE,NA,PRIVATE STREET NAMES
228,SKYLARK,LANE,,SKYLARK LANE,592H4,PRIVATE STREET NAMES
266,ST TROPEZ,DR,,ST TROPEZ DRIVE,NA,PRIVATE STREET NAMES
2390,SUNBURST,ST,,SUNBURST STREET,502H1,PUBLIC STREET NAMES
9783,STONE GATE,WAY,,STONE GATE WAY,480E6,PRIVATE STREET NAMES
2634,SHRINE,PL,,SHRINE PLACE,634B7,PUBLIC STREET NAMES
2579,SKYVIEW,TER,,SKYVIEW TERRACE,504B6,PUBLIC STREET NAMES
2383,SUNDOWN,DR,,SUNDOWN DRIVE,594H2,PUBLIC STREET NAMES
9917,STRATFORD,CIR,,STRATFORD CIRCLE,591G3,PRIVATE STREET NAMES
2555,SONATA,LANE,,SONATA LANE,595A3,PUBLIC STREET NAMES
2699,SHARON,AVE,,SHARON AVENUE,503D3,PUBLIC STREET NAMES
2828,SARATOGA,ST,,SARATOGA STREET,635B5,PUBLIC STREET NAMES
2966,SABLE,AVE,,SABLE AVENUE,503F3,PUBLIC STREET NAMES
9770,SHADOW SPRINGS,WAY,,SHADOW SPRINGS WAY,480F6,PRIVATE STREET NAMES
2513,SPRUCE,ST,,SPRUCE STREET,594G7,PUBLIC STREET NAMES
2556,SOMMA,WAY,,SOMMA WAY,592A6,PUBLIC STREET NAMES
2530,SPINNAKER,ST,,SPINNAKER STREET,NA,PEDESTRIAN MALL NAMES
2337,SUNVUE,PL,,SUNVUE PLACE,634F2,PUBLIC STREET NAMES
2372,SUNNYDELL,TR,,SUNNYDELL TRAIL,593D1,PUBLIC STREET NAMES
2784,SCOTT,TR,,SCOTT TRAIL,593A4,PUBLIC STREET NAMES
2797,SCENIC,AVE,,SCENIC AVENUE,593F3,PUBLIC STREET NAMES
2497,STANSBURY,WAY,,STANSBURY WAY,574F2,PUBLIC STREET NAMES
9618,SHADOW GLEN,LANE,,SHADOW GLEN LANE,480F6,PRIVATE STREET NAMES
2675,SHEPLEY,PL,,SHEPLEY PLACE,500J3,PUBLIC STREET NAMES
2458,STOCKER,PL,,STOCKER PLACE,673F3,PUBLIC STREET NAMES
2702,SHANGRI-LA,DR,,SHANGRI-LA DRIVE,592C4,PUBLIC STREET NAMES
261,SAN FERNANDO MISSION,BLVD,,SAN FERNANDO MISSION BOULEVARD,500F2,PRIVATE STREET NAMES
2384,SUNDIAL,LANE,,SUNDIAL LANE,592C6,PUBLIC STREET NAMES
2619,SIERRA MORENA,CT,,SIERRA MORENA COURT,480H7,PUBLIC STREET NAMES
2786,SCOTT,PL,,SCOTT PLACE,594C6,PUBLIC STREET NAMES
2825,SARDIS,AVE,,SARDIS AVENUE,632C7,PUBLIC STREET NAMES
2377,SUNLIGHT,PL,,SUNLIGHT PLACE,673A1,PUBLIC STREET NAMES
2754,SEMINOLE,CIR,,SEMINOLE CIRCLE,480F7,PUBLIC STREET NAMES
2922,SALTAIR,PL,,SALTAIR PLACE,631G3,PUBLIC STREET NAMES
2889,SAN FERNANDO,ROAD,WEST,SAN FERNANDO ROAD WEST,564C4,PUBLIC STREET NAMES
198,SUSSEX,LANE,,SUSSEX LANE,675A1,PRIVATE STREET NAMES
2859,SAN RAMON,DR,,SAN RAMON DRIVE,595F1,PUBLIC STREET NAMES
2569,SMITH,ST,,SMITH STREET,595A6,PUBLIC STREET NAMES
2661,SHERMAN OAKS,AVE,,SHERMAN OAKS AVENUE,561G5,PUBLIC STREET NAMES
9725,SHORE,DR,,SHORE DRIVE,630J6,UNOFFICIAL PRIVATE STREET NAMES
2770,SEATTLE,DR,,SEATTLE DRIVE,593B1,PUBLIC STREET NAMES
2512,SPRUCEWOOD,LANE,,SPRUCEWOOD LANE,592A4,PUBLIC STREET NAMES
10730,SUNNY,DR,,SUNNY DRIVE,481J5,PRIVATE STREET NAMES
2504,STANFORD,AVE,,STANFORD AVENUE,635G4,PUBLIC STREET NAMES
2635,SHREWSBURY,CIR,,SHREWSBURY CIRCLE,529D5,PUBLIC STREET NAMES
2330,SURF,ST,,SURF STREET,702A3,PUBLIC STREET NAMES
2933,SALA,PL,,SALA PLACE,533B1,PUBLIC STREET NAMES
10060,SPLIT ROCK,ROAD,,SPLIT ROCK ROAD,562E7,PRIVATE STREET NAMES
203,SUMMITRIDGE,DR,,SUMMITRIDGE DRIVE,592D1,PRIVATE STREET NAMES
2903,SANDALWOOD,ST,,SANDALWOOD STREET,529E4,PUBLIC STREET NAMES
2885,SANFORD,ST,,SANFORD STREET,672E6,PUBLIC STREET NAMES
10241,SOUTHWIND VILLAGE,LANE,,SOUTHWIND VILLAGE LANE,823J6,PRIVATE ROADWAY NAMES
2818,SATICOY,ST,,SATICOY STREET,533C3,PUBLIC STREET NAMES
9916,STONEHENGE,LANE,,STONEHENGE LANE,591G3,PRIVATE STREET NAMES
2913,SAN ANDREAS,AVE,,SAN ANDREAS AVENUE,595A3,PUBLIC STREET NAMES
2442,STONEVIEW,DR,,STONEVIEW DRIVE,562C6,PUBLIC STREET NAMES
2474,STEPHANIE,DR,,STEPHANIE DRIVE,530C6,PUBLIC STREET NAMES
2896,SANDUSKY,AVE,,SANDUSKY AVENUE,502B5,PUBLIC STREET NAMES
2542,SOUTH PARK,AVE,,SOUTH PARK AVENUE,672D4,PUBLIC STREET NAMES
10764,SINCLAIR,CT,,SINCLAIR COURT,672E7,PUBLIC STREET NAMES
234,SHOSHONE,AVE,,SHOSHONE AVENUE,NA,PRIVATE STREET NAMES
2644,SHOREDALE,AVE,,SHOREDALE AVENUE,594H6,PUBLIC STREET NAMES
2925,SALOMA,AVE,,SALOMA AVENUE,531J2,PUBLIC STREET NAMES
2655,SHERWOOD,DR,,SHERWOOD DRIVE,592J6,PUBLIC STREET NAMES
2310,SYCAMORE,ROAD,,SYCAMORE ROAD,631B7,PUBLIC STREET NAMES
2841,SANTA ROSALIA,DR,,SANTA ROSALIA DRIVE,673D2,PUBLIC STREET NAMES
10647,SLATE,AVE,,SLATE AVENUE,794A5,PRIVATE ROADWAY NAMES
2411,SUENO,ROAD,,SUENO ROAD,559J4,PUBLIC STREET NAMES
2866,SAN PABLO,ST,,SAN PABLO STREET,635B3,PUBLIC STREET NAMES
230,SKY,WAY,,SKY WAY,702G5,PRIVATE STREET NAMES
2940,ST NICOLAS,AVE,,ST NICOLAS AVENUE,672G4,PUBLIC STREET NAMES
2731,SESNON,BLVD,,SESNON BOULEVARD,481C4,PUBLIC STREET NAMES
9728,STEPHEN S WISE,DR,,STEPHEN S WISE DRIVE,561H7,UNOFFICIAL PRIVATE STREET NAMES
9957,SYLMAR AVENUE,MALL,,SYLMAR AVENUE MALL,532A7,PEDESTRIAN MALL NAMES
2460,STILLWELL,AVE,,STILLWELL AVENUE,595G5,PUBLIC STREET NAMES
2658,SHERRY,LANE,,SHERRY LANE,591C1,PUBLIC STREET NAMES
2882,SANGAMON,AVE,,SANGAMON AVENUE,533C2,PUBLIC STREET NAMES
2436,STOWE,TER,,STOWE TERRACE,595D2,PUBLIC STREET NAMES
2364,SUNNYSIDE,TER,,SUNNYSIDE TERRACE,823J6,PUBLIC STREET NAMES
2449,STONEHILL,LANE,,STONEHILL LANE,631F1,PUBLIC STREET NAMES
237,SHERVIEW,PL,,SHERVIEW PLACE,561H6,PRIVATE STREET NAMES
2900,SANDISON,ST,,SANDISON STREET,794E4,PUBLIC STREET NAMES
2327,SUSAN,DR,,SUSAN DRIVE,481D7,PUBLIC STREET NAMES
2493,STANWOOD,DR,,STANWOOD DRIVE,672C1,PUBLIC STREET NAMES
2858,SAN REMO,DR,,SAN REMO DRIVE,631D3,PUBLIC STREET NAMES
2657,SHERVIEW,DR,,SHERVIEW DRIVE,561H6,PUBLIC STREET NAMES
2612,SILVER,ST,,SILVER STREET,594H4,PUBLIC STREET NAMES
2586,SKOURAS,DR,,SKOURAS DRIVE,530C6,PUBLIC STREET NAMES
2792,SCHOONER,AVE,,SCHOONER AVENUE,671H7,PUBLIC STREET NAMES
2473,STEPHANIE,PL,,STEPHANIE PLACE,530C6,PUBLIC STREET NAMES
10033,SAN REMO,WAY,,SAN REMO WAY,560J5,PRIVATE STREET NAMES
10672,SAGE,LANE,,SAGE LANE,560J3,PRIVATE STREET NAMES
10836,SIENNA,LANE,,SIENNA LANE,480E6,PRIVATE STREET NAMES
2317,SWAN,PL,,SWAN PLACE,594C5,PUBLIC STREET NAMES
2560,SOMERA,ROAD,,SOMERA ROAD,591J5,PUBLIC STREET NAMES
222,SOMMA,WAY,,SOMMA WAY,592A6,PRIVATE STREET NAMES
2948,ST GEORGE,ST,,ST GEORGE STREET,594C3,PUBLIC STREET NAMES
10457,SALERNO,WAY,,SALERNO WAY,500C2,PRIVATE STREET NAMES
2580,SKY VALLEY,ROAD,,SKY VALLEY ROAD,591C1,PUBLIC STREET NAMES
2847,SAN TAELA,CT,,SAN TAELA COURT,560B5,PUBLIC STREET NAMES
251,SEASIDE,AVE,,SEASIDE AVENUE,NA,PRIVATE STREET NAMES
2718,SHADOW,WAY,,SHADOW WAY,503D5,PUBLIC STREET NAMES
2459,STOCKBRIDGE,AVE,,STOCKBRIDGE AVENUE,595G5,PUBLIC STREET NAMES
2508,STAFFORD,LANE,,STAFFORD LANE,500D4,PUBLIC STREET NAMES
2800,SCARBOROUGH PEAK,DR,,SCARBOROUGH PEAK DRIVE,529D5,PUBLIC STREET NAMES
2765,SEAVIEW,TR,,SEAVIEW TRAIL,593B4,PUBLIC STREET NAMES
2574,SLOAN,DR,,SLOAN DRIVE,561E7,PUBLIC STREET NAMES
2719,SHADE TREE,LANE,,SHADE TREE LANE,529D5,PUBLIC STREET NAMES
2942,ST LOUIS,PL,,ST LOUIS PLACE,765G1,PUBLIC STREET NAMES
2945,ST JAMES,PARK,,ST JAMES PARK,634C7,PUBLIC STREET NAMES
2805,SAYLIN,LANE,,SAYLIN LANE,595D1,PUBLIC STREET NAMES
2554,SONOMA,PL,,SONOMA PLACE,499J6,PUBLIC STREET NAMES
2941,ST LOUIS,ST,,ST LOUIS STREET,635A5,PUBLIC STREET NAMES
2898,SANDRA,ST,,SANDRA STREET,501H2,PUBLIC STREET NAMES
2616,SIESTA,DR,,SIESTA DRIVE,503B5,PUBLIC STREET NAMES
2778,SEABREEZE,DR,,SEABREEZE DRIVE,630E5,PUBLIC STREET NAMES
2342,SUNSHINE,CT,,SUNSHINE COURT,562H6,PUBLIC STREET NAMES
2648,SHIPLEY GLEN,DR,,SHIPLEY GLEN DRIVE,595B3,PUBLIC STREET NAMES
2663,SHERMAN,WAY,,SHERMAN WAY,533A4,PUBLIC STREET NAMES
2906,SAN,CIR,,SAN CIRCLE,592D3,PUBLIC STREET NAMES
2438,STONEYBROOK,DR,,STONEYBROOK DRIVE,561J5,PUBLIC STREET NAMES
2751,SENALDA,ROAD,,SENALDA ROAD,593D2,PUBLIC STREET NAMES
2920,SALTILLO,ST,,SALTILLO STREET,560B4,PUBLIC STREET NAMES
10384,SANDLEWOOD,LANE,,SANDLEWOOD LANE,500H4,PRIVATE STREET NAMES
2503,STANFORD,AVE,,STANFORD AVENUE,672A6,PUBLIC STREET NAMES
10150,SHEILA,DR,,SHEILA DRIVE,531E5,PRIVATE ROADWAY NAMES
10308,SKYLAND,ROAD,,SKYLAND ROAD,503G1,UNOFFICIAL PRIVATE STREET NAMES
2964,SACRAMENTO,ST,,SACRAMENTO STREET,634H7,PUBLIC STREET NAMES
2626,SIERRA,HWY,,SIERRA HIGHWAY,481C1,PUBLIC STREET NAMES
195,SYCAMORE,AVE,,SYCAMORE AVENUE,481J1,PRIVATE STREET NAMES
2678,SHENANGO,DR,,SHENANGO DRIVE,560F6,PUBLIC STREET NAMES
2823,SARGENT,CT,,SARGENT COURT,594F7,PUBLIC STREET NAMES
2706,SHAFTER,WAY,,SHAFTER WAY,595E3,PUBLIC STREET NAMES
2875,SAN LORENZO,ST,,SAN LORENZO STREET,631C6,PUBLIC STREET NAMES
2576,SLAUSON,AVE,,SLAUSON AVENUE,674B5,PUBLIC STREET NAMES
2691,SHEFFIELD,AVE,,SHEFFIELD AVENUE,595G6,PUBLIC STREET NAMES
10921,SERENITY,DR,,SERENITY DRIVE,503A6,PRIVATE ROADWAY NAMES
247,SEVY,LANE,,SEVY LANE,562C7,PRIVATE STREET NAMES
2901,SAN DIEGO,WAY,,SAN DIEGO WAY,633B3,PUBLIC STREET NAMES
2868,SANO,ST,,SANO STREET,594J3,PUBLIC STREET NAMES
2787,SCOTT,AVE,,SCOTT AVENUE,594D6,PUBLIC STREET NAMES
2480,STATE UNIVERSITY,DR,,STATE UNIVERSITY DRIVE,635F2,PUBLIC STREET NAMES
2520,SPRINGLET,TR,,SPRINGLET TRAIL,593C1,PUBLIC STREET NAMES
10108,STONEGATE,DR,,STONEGATE DRIVE,529D4,PUBLIC STREET NAMES
2381,SUNLAND,BLVD,,SUNLAND BOULEVARD,503C5,PUBLIC STREET NAMES
235,SHORE,ROAD,,SHORE ROAD,824G1,PRIVATE STREET NAMES
2890,SAN FERNANDO,ROAD,,SAN FERNANDO ROAD,481C1,PUBLIC STREET NAMES
248,SERRANIA,AVE,,SERRANIA AVENUE,560C4,PRIVATE STREET NAMES
2326,SUTHERLAND,ST,,SUTHERLAND STREET,594E7,PUBLIC STREET NAMES
2414,STYLES,ST,,STYLES STREET,529F7,PUBLIC STREET NAMES
2886,SANFORD,DR,,SANFORD DRIVE,672E5,PUBLIC STREET NAMES
2696,SHASTA,CIR,SOUTH,SHASTA CIRCLE SOUTH,564H7,PUBLIC STREET NAMES
2864,SAN PEDRO,PL,,SAN PEDRO PLACE,674C3,PUBLIC STREET NAMES
2720,SHABLOW,AVE,,SHABLOW AVENUE,482D2,PUBLIC STREET NAMES
2881,SAN JACINTO,ST,,SAN JACINTO STREET,594C5,PUBLIC STREET NAMES
2660,SHERMAN OAKS,CIR,,SHERMAN OAKS CIRCLE,561G4,PUBLIC STREET NAMES
2737,SEPULVEDA,WAY,,SEPULVEDA WAY,793G1,PUBLIC STREET NAMES
2596,SIMPSON,AVE,,SIMPSON AVENUE,532H4,PUBLIC STREET NAMES
2629,SIDNEY,DR,,SIDNEY DRIVE,NA,PUBLIC STREET NAMES
2371,SUNNYDIP,TR,,SUNNYDIP TRAIL,593C1,PUBLIC STREET NAMES
259,SARANAC,AVE,,SARANAC AVENUE,482A1,PRIVATE STREET NAMES
2366,SUNNYSEA,DR,,SUNNYSEA DRIVE,702B2,PUBLIC STREET NAMES
2418,STRONG'S,DR,,STRONG'S DRIVE,671H6,PUBLIC STREET NAMES
2611,SILVERADO,DR,,SILVERADO DRIVE,594C4,PUBLIC STREET NAMES
9599,SUNSET RIDGE,CIR,,SUNSET RIDGE CIRCLE,481B7,PUBLIC STREET NAMES
240,SHADY SPRINGS,CT,,SHADY SPRINGS COURT,480F6,PRIVATE STREET NAMES
2603,SILVER RIDGE,WAY,,SILVER RIDGE WAY,594E4,PUBLIC STREET NAMES
10085,SUMMIT VUE,DR,EAST,SUMMIT VUE DRIVE EAST,529J7,PRIVATE STREET NAMES
2551,SOPHIA,AVE,,SOPHIA AVENUE,481E7,PUBLIC STREET NAMES
2464,STEVEN,PL,,STEVEN PLACE,500E4,PUBLIC STREET NAMES
2931,SALAMEA,AVE,,SALAMEA AVENUE,559D1,PUBLIC STREET NAMES
2694,SHATTO,ST,,SHATTO STREET,634C3,PUBLIC STREET NAMES
9763,SPRING,CT,,SPRING COURT,529F5,PRIVATE ROADWAY NAMES
10681,SHETLAND,PL,,SHETLAND PLACE,480H6,PUBLIC STREET NAMES
2415,STUART,LANE,,STUART LANE,592F2,PUBLIC STREET NAMES
10529,SUNRISE RIDGE,ROAD,,SUNRISE RIDGE ROAD,481H5,PUBLIC STREET NAMES
10939,SOLAR,WAY,,SOLAR  WAY,632E3,PRIVATE ROADWAY NAMES
2865,SAN PASCUAL,AVE,,SAN PASCUAL AVENUE,595E2,PUBLIC STREET NAMES
2354,SUNSET,PL,,SUNSET PLACE,634B3,PUBLIC STREET NAMES
2417,STRONG'S,PL,,STRONG'S PLACE,671H7,PUBLIC STREET NAMES
10649,STONEHAVEN,DR,,STONEHAVEN DRIVE,794A5,PRIVATE ROADWAY NAMES
2315,SWEET ELM,DR,,SWEET ELM DRIVE,561A6,PUBLIC STREET NAMES
2667,SHERMAN CANAL,CT,,SHERMAN CANAL COURT,NA,PUBLIC STREET NAMES
10129,SUMMIT POINT,DR,,SUMMIT POINT DRIVE,591E4,PRIVATE ROADWAY NAMES
2320,SWAIN,ST,,SWAIN STREET,481F2,PUBLIC STREET NAMES
2441,STONEWOOD,CT,,STONEWOOD COURT,824A2,PUBLIC STREET NAMES
2443,STONESBORO,PL,,STONESBORO PLACE,561J6,PUBLIC STREET NAMES
10503,SEVILLE,LANE,,SEVILLE LANE,561F4,PRIVATE STREET NAMES
2745,SENTINEL,AVE,,SENTINEL AVENUE,635C4,PUBLIC STREET NAMES
2642,SHORELAND,DR,,SHORELAND DRIVE,594F7,PUBLIC STREET NAMES
2521,SPRINGFORD,DR,,SPRINGFORD DRIVE,533C1,PUBLIC STREET NAMES
2939,ST PAUL,AVE,,ST PAUL AVENUE,634E4,PUBLIC STREET NAMES
2908,SANBORN,AVE,,SANBORN AVENUE,671H7,PUBLIC STREET NAMES
2851,SANTA CLARA,CT,,SANTA CLARA COURT,671H5,PUBLIC STREET NAMES
11026,SILENT ERA,DR,,SILENT ERA DRIVE,594E5,LIMITED ACCESS AREA NAMES
2830,SARAH,ST,,SARAH STREET,563C4,PUBLIC STREET NAMES
10424,SCOBEE,CIR,,SCOBEE CIRCLE,823H7,PRIVATE ROADWAY NAMES
2518,SPRING OAK,TER,,SPRING OAK TERRACE,593G2,PUBLIC STREET NAMES
2356,SUNSET,CT,,SUNSET COURT,671G5,PUBLIC STREET NAMES
2622,SIERRA BONITA,AVE,,SIERRA BONITA AVENUE,593C4,PUBLIC STREET NAMES
2961,SAGAMORE,WAY,,SAGAMORE WAY,564G7,PUBLIC STREET NAMES
2535,SPEEDWAY,,,SPEEDWAY,671G5,PUBLIC STREET NAMES
2733,SERRANO,AVE,,SERRANO AVENUE,593H7,PUBLIC STREET NAMES
2498,STANSBURY,AVE,,STANSBURY AVENUE,502A7,PUBLIC STREET NAMES
2838,SANTA YNEZ,ST,,SANTA YNEZ STREET,594D7,PUBLIC STREET NAMES
2351,SUNSET HEIGHTS,DR,,SUNSET HEIGHTS DRIVE,592H3,PUBLIC STREET NAMES
2724,SEWANEE,CT,,SEWANEE COURT,533B1,PUBLIC STREET NAMES
10662,SARDINIA,WAY,,SARDINIA WAY,500C1,PRIVATE STREET NAMES
2767,SEA VIEW,DR,,SEA VIEW DRIVE,595A3,PUBLIC STREET NAMES
2680,SHELTONDALE,AVE,,SHELTONDALE AVENUE,529D6,PUBLIC STREET NAMES
2668,SHERMAN,CL,,SHERMAN CANAL,671H7,PUBLIC STREET NAMES
217,SPAULDING,AVE,,SPAULDING AVENUE,633C2,PRIVATE STREET NAMES
10010,SERATT,PL,,SERATT PLACE,562G4,PRIVATE STREET NAMES
2651,SHIELDS,DR,,SHIELDS DRIVE,824B3,PUBLIC STREET NAMES
2540,SOUTHWEST,BLVD,,SOUTHWEST BOULEVARD,704A6,PUBLIC STREET NAMES
204,SUMMIT,PL,,SUMMIT PLACE,592F1,PRIVATE STREET NAMES
2559,SOMERS,AVE,,SOMERS AVENUE,591H1,PUBLIC STREET NAMES
2869,SAN MIGUEL,ST,,SAN MIGUEL STREET,560B3,PUBLIC STREET NAMES
2376,SUNLIGHT,WALK,,SUNLIGHT WALK,673C1,PUBLIC STREET NAMES
2761,SEIGNEUR,AVE,,SEIGNEUR AVENUE,635E2,PUBLIC STREET NAMES
10055,SOUTHAMPTON,CT,,SOUTHAMPTON COURT,591G3,PRIVATE STREET NAMES
10981,STALEY,LANE,,STALEY LANE,595E1,PRIVATE STREET NAMES
2679,SHENANDOAH,ST,,SHENANDOAH STREET,632J3,PUBLIC STREET NAMES
253,SEAFARER,CIR,,SEAFARER CIRCLE,NA,PRIVATE STREET NAMES
2628,SIDWELL,ST,,SIDWELL STREET,481A5,PUBLIC STREET NAMES
2484,STARLING,WAY,,STARLING WAY,595A4,PUBLIC STREET NAMES
2878,SAN JUAN,CT,,SAN JUAN COURT,671H5,PUBLIC STREET NAMES
2595,SIMSHAW,AVE,,SIMSHAW AVENUE,482D1,PUBLIC STREET NAMES
11015,SANDHILL,LANE,,SANDHILL LANE,672E7,PRIVATE ROADWAY NAMES
2362,SUNNYWOOD,LANE,,SUNNYWOOD LANE,593B1,PUBLIC STREET NAMES
10772,SUNNY PALMS,LANE,,SUNNY PALMS LANE,482C4,PRIVATE ROADWAY NAMES
2335,SUPERBA,CT,,SUPERBA COURT,671J5,PUBLIC STREET NAMES
2844,SANTA MONICA,BLVD,,SANTA MONICA BOULEVARD,594A5,PUBLIC STREET NAMES
2606,SILVER LEA,TER,,SILVER LEA TERRACE,594C4,PUBLIC STREET NAMES
2549,SORRENTO,DR,,SORRENTO DRIVE,631D3,PUBLIC STREET NAMES
2573,SLOAT,ST,,SLOAT STREET,635C5,PUBLIC STREET NAMES
2808,SAWTELLE,BLVD,,SAWTELLE BOULEVARD,632B5,PUBLIC STREET NAMES
2399,SUMMIT,AVE,,SUMMIT AVENUE,634J4,PUBLIC STREET NAMES
10017,SANDRA,LANE,,SANDRA LANE,481G4,PUBLIC STREET NAMES
2738,SEPULVEDA,ST,,SEPULVEDA STREET,824A4,PUBLIC STREET NAMES
2726,SEVERO,PL,,SEVERO PLACE,561D7,PUBLIC STREET NAMES
2329,SURFVIEW,DR,,SURFVIEW DRIVE,630E5,PUBLIC STREET NAMES
2645,SHIRLEY,LANE,,SHIRLEY LANE,595F2,PUBLIC STREET NAMES
2515,SPROUL,AVE,,SPROUL AVENUE,632D7,PUBLIC STREET NAMES
2654,SHERWOOD FOREST,LANE,,SHERWOOD FOREST LANE,592F2,PUBLIC STREET NAMES
2763,SEDAN,AVE,,SEDAN AVENUE,529G2,PUBLIC STREET NAMES
2422,STRELNA,PL,,STRELNA PLACE,560D4,PUBLIC STREET NAMES
254,SCOTT,WAY,,SCOTT WAY,533D3,PRIVATE STREET NAMES
2457,STOCKER,PZ,,STOCKER PLAZA,673F3,PUBLIC STREET NAMES
2716,SHADOWLAWN,AVE,,SHADOWLAWN AVENUE,594D3,PUBLIC STREET NAMES
2465,STEVEN,DR,,STEVEN DRIVE,561F7,PUBLIC STREET NAMES
199,SUNSET PLAZA,DR,,SUNSET PLAZA DRIVE,592H4,PRIVATE STREET NAMES
2929,SALEM,DR,,SALEM DRIVE,481C6,PUBLIC STREET NAMES
267,ST FRANCIS,TER,,ST FRANCIS TERRACE,593E4,PRIVATE STREET NAMES
2374,SUNNY BRAE,AVE,,SUNNY BRAE AVENUE,530D3,PUBLIC STREET NAMES
2397,SUMMITRIDGE,PL,,SUMMITRIDGE PLACE,592D5,PUBLIC STREET NAMES
2479,STATLER,ST,,STATLER STREET,824A1,PUBLIC STREET NAMES
2665,SHERMAN,PL,,SHERMAN PLACE,533A4,PUBLIC STREET NAMES
2613,SIGSBEE,AVE,,SIGSBEE AVENUE,794H6,PUBLIC STREET NAMES
2850,SANTA CLARA,ST,,SANTA CLARA STREET,674H1,PUBLIC STREET NAMES
2485,STARLIGHT,DR,,STARLIGHT DRIVE,560G3,PUBLIC STREET NAMES
2558,SOMERSET,DR,,SOMERSET DRIVE,633E7,PUBLIC STREET NAMES
2801,SCARBORO,ST,,SCARBORO STREET,594H4,PUBLIC STREET NAMES
2423,STRAWBERRY,PL,,STRAWBERRY PLACE,561C6,PUBLIC STREET NAMES
246,SHADOW CANYON,ROAD,,SHADOW CANYON ROAD,591D7,PRIVATE STREET NAMES
2604,SILVER RIDGE,AVE,,SILVER RIDGE AVENUE,594E3,PUBLIC STREET NAMES
2827,SARAZEN,PL,,SARAZEN PLACE,481D6,PUBLIC STREET NAMES
2755,SELMA,DR,,SELMA DRIVE,593A4,PUBLIC STREET NAMES
2927,SALIENT,DR,,SALIENT DRIVE,595B2,PUBLIC STREET NAMES
10099,SOPHIA,LANE,,SOPHIA LANE,560J2,PUBLIC STREET NAMES
2938,ST PAUL,PL,,ST PAUL PLACE,634E3,PUBLIC STREET NAMES
2764,SECURITY,AVE,,SECURITY AVENUE,533C3,PUBLIC STREET NAMES
2732,SERRANO,PL,,SERRANO PLACE,593H6,PUBLIC STREET NAMES
2728,SEVENHILLS,PL,,SEVENHILLS PLACE,504A2,PUBLIC STREET NAMES
2671,SHERIDGE,DR,,SHERIDGE DRIVE,561H6,PUBLIC STREET NAMES
2730,SESPE,AVE,,SESPE AVENUE,561J5,PUBLIC STREET NAMES
2874,SAN MARCO,CIR,,SAN MARCO CIRCLE,593E2,PUBLIC STREET NAMES
2893,SANDY,LANE,,SANDY LANE,561F7,PUBLIC STREET NAMES
2516,SPRINGVALE,DR,,SPRINGVALE DRIVE,595C1,PUBLIC STREET NAMES
2600,SILVERWOOD,LANE,,SILVERWOOD LANE,565C7,PUBLIC STREET NAMES
227,SKYLINE,DR,,SKYLINE DRIVE,592H2,PRIVATE STREET NAMES
2711,SHADYGLADE,AVE,,SHADYGLADE AVENUE,562F5,PUBLIC STREET NAMES
2561,SOMBRA VALLEY,DR,,SOMBRA VALLEY DRIVE,503D4,PUBLIC STREET NAMES
2758,SELIG,PL,,SELIG PLACE,635C1,PUBLIC STREET NAMES
2669,SHERMAN,AVE,,SHERMAN AVENUE,671J6,PUBLIC STREET NAMES
2915,SAMOA,PL,,SAMOA PLACE,504A2,PUBLIC STREET NAMES
2677,SHENLEY,ST,,SHENLEY STREET,482E1,PUBLIC STREET NAMES
9720,SAN JULIAN,ST,,SAN JULIAN STREET,634E6,UNOFFICIAL PRIVATE STREET NAMES
2637,SHOSHONE,AVE,,SHOSHONE AVENUE,481B6,PUBLIC STREET NAMES
2932,SALAMANCA,AVE,,SALAMANCA AVENUE,560B4,PUBLIC STREET NAMES
2934,ST VINCENT,PL,,ST VINCENT PLACE,634F4,PUBLIC STREET NAMES
10432,SAVANNA,CIR,,SAVANNA CIRCLE,482A6,PRIVATE ROADWAY NAMES
2790,SCHUYLER,ROAD,,SCHUYLER ROAD,592F5,PUBLIC STREET NAMES
2433,STRADA CORTA,ROAD,,STRADA CORTA ROAD,592B7,PUBLIC STREET NAMES
10476,STREAMVIEW,LANE,,STREAMVIEW LANE,562J7,PRIVATE ROADWAY NAMES
262,SAN CLEMENTE,AVE,,SAN CLEMENTE AVENUE,824E2,PRIVATE STREET NAMES
2336,SUPERBA,AVE,,SUPERBA AVENUE,671J5,PUBLIC STREET NAMES
2615,SIGNAL,ST,,SIGNAL STREET,NA,PUBLIC STREET NAMES
2756,SELMA,AVE,,SELMA AVENUE,593B4,PUBLIC STREET NAMES
9724,SERRA,WAY,,SERRA WAY,501H2,UNOFFICIAL PRIVATE STREET NAMES
2532,SPEZIA,PL,,SPEZIA PLACE,631C5,PUBLIC STREET NAMES
2486,STARKLAND,AVE,,STARKLAND AVENUE,529E2,PUBLIC STREET NAMES
9762,SILVER,LANE,,SILVER LANE,561C2,PRIVATE STREET NAMES
2958,ST ALBANS,ST,,ST ALBANS STREET,565D7,PUBLIC STREET NAMES
2949,ST ESTABAN,ST,,ST ESTABAN STREET,504A5,PUBLIC STREET NAMES
2509,STADIUM,WAY,,STADIUM WAY,594F5,PUBLIC STREET NAMES
2331,SUPREME,CT,,SUPREME COURT,595C7,PUBLIC STREET NAMES
2548,SOTELLO,ST,,SOTELLO STREET,634H1,PUBLIC STREET NAMES
10216,SCHRADER,BLVD,,SCHRADER BOULEVARD,593E4,PUBLIC STREET NAMES
2607,SILVER LAKE,TER,,SILVER LAKE TERRACE,594D4,PUBLIC STREET NAMES
2323,SUTTER,AVE,,SUTTER AVENUE,502H6,PUBLIC STREET NAMES
2352,SUNSET CREST,PL,,SUNSET CREST PLACE,592H3,PUBLIC STREET NAMES
2413,SUANA,DR,,SUANA DRIVE,823H5,PUBLIC STREET NAMES
2705,SHALOMERE,AVE,,SHALOMERE AVENUE,562C7,PUBLIC STREET NAMES
2571,SMILAX,ST,,SMILAX STREET,594B7,PUBLIC STREET NAMES
2324,SUTRO,WALK,,SUTRO WALK,673F3,PUBLIC STREET NAMES
2804,SAYRE,ST,,SAYRE STREET,482B4,PUBLIC STREET NAMES
9597,SOUTHBY,DR,,SOUTHBY DRIVE,529D4,PUBLIC STREET NAMES
2429,STRANWOOD,AVE,,STRANWOOD AVENUE,501G1,PUBLIC STREET NAMES
2369,SUNNYHILL,DR,,SUNNYHILL DRIVE,595A3,PUBLIC STREET NAMES
2543,SOUTH HERBERT,AVE,,SOUTH HERBERT AVENUE,824A3,PUBLIC STREET NAMES
10507,SCHOENBORN,ST,,SCHOENBORN STREET,529J2,PRIVATE ROADWAY NAMES
2924,SALONICA,ST,,SALONICA STREET,595E2,PUBLIC STREET NAMES
2707,SHADYSPRING,PL,,SHADYSPRING PLACE,533C3,PUBLIC STREET NAMES
2477,STEARNS,DR,,STEARNS DRIVE,633A3,PUBLIC STREET NAMES
2692,SHEARIN,AVE,,SHEARIN AVENUE,656A5,PUBLIC STREET NAMES
2907,SANCHEZ,DR,,SANCHEZ DRIVE,673B2,PUBLIC STREET NAMES
2701,SHANLEY,AVE,,SHANLEY AVENUE,595B3,PUBLIC STREET NAMES
9865,SIOUX,DR,,SIOUX DRIVE,500A1,PRIVATE STREET NAMES
2412,SUCCESS,AVE,,SUCCESS AVENUE,704F5,PUBLIC STREET NAMES
2602,SILVERTON,AVE,,SILVERTON AVENUE,503A3,PUBLIC STREET NAMES
2389,SUNBURY,ST,,SUNBURY STREET,634D4,PUBLIC STREET NAMES
2826,SARBONNE,ROAD,,SARBONNE ROAD,592A7,PUBLIC STREET NAMES
2688,SHELBURN,CT,,SHELBURN COURT,595A4,PUBLIC STREET NAMES
2373,SUNNYCREST,DR,,SUNNYCREST DRIVE,564G6,PUBLIC STREET NAMES
226,SMITH,ST,,SMITH STREET,595A6,PRIVATE STREET NAMES
2780,SCUDDER,ROAD,,SCUDDER ROAD,635F1,PUBLIC STREET NAMES
2494,STANWIN,AVE,,STANWIN AVENUE,502A3,PUBLIC STREET NAMES
2769,SEATTLE,PL,,SEATTLE PLACE,593B1,PUBLIC STREET NAMES
2822,SARGENT,PL,,SARGENT PLACE,594E7,PUBLIC STREET NAMES
10086,SUMMIT VUE,DR,WEST,SUMMIT VUE DRIVE WEST,559J1,PRIVATE STREET NAMES
2536,SPEARING,AVE,,SPEARING AVENUE,823G7,PUBLIC STREET NAMES
2821,SARI,AVE,,SARI AVENUE,501D7,PUBLIC STREET NAMES
2500,STANLEY HILLS,PL,,STANLEY HILLS PLACE,592J3,PUBLIC STREET NAMES
10488,STONE VIEW,CT,,STONE VIEW COURT,593D2,PRIVATE ROADWAY NAMES
2796,SCENIC,PL,,SCENIC PLACE,630H4,PUBLIC STREET NAMES
2489,STARE,ST,,STARE STREET,504E4,PUBLIC STREET NAMES
2741,SEPULVEDA,CT,,SEPULVEDA COURT,632F6,PUBLIC STREET NAMES
2439,STONEWOOD,TER,,STONEWOOD TERRACE,561H7,PUBLIC STREET NAMES
210,STONE OAK,DR,,STONE OAK DRIVE,561D7,PRIVATE STREET NAMES
2350,SUNSET HILLS,ROAD,,SUNSET HILLS ROAD,592G6,PUBLIC STREET NAMES
10149,SANDRA,CIR,,SANDRA CIRCLE,531E4,PRIVATE ROADWAY NAMES
2620,SIERRA MAR,PL,,SIERRA MAR PLACE,592G5,PUBLIC STREET NAMES
2870,SAN MIGUEL,AVE,,SAN MIGUEL AVENUE,671H5,PUBLIC STREET NAMES
10077,SUMMIT VUE,LANE,,SUMMIT VUE LANE,559J1,PRIVATE ROADWAY NAMES
10463,SORRENTO,LANE,,SORRENTO LANE,500C1,PRIVATE STREET NAMES
200,SUNNYVIEW,LANE,,SUNNYVIEW LANE,562C1,PRIVATE STREET NAMES
10753,SIERRA RANCH VIEW,ROAD,,SIERRA RANCH VIEW ROAD,503J1,PRIVATE STREET NAMES
10602,SANTINI,LANE,,SANTINI LANE,500C1,PRIVATE STREET NAMES
2959,SAGINAW,ST,,SAGINAW STREET,565C6,PUBLIC STREET NAMES
9769,SHADY HOLLOW,LANE,,SHADY HOLLOW LANE,480F6,PRIVATE STREET NAMES
2403,SUMMERFIELD,DR,,SUMMERFIELD DRIVE,562A7,PUBLIC STREET NAMES
2375,SUNNY,COVE,,SUNNY COVE,593D1,PUBLIC STREET NAMES
2824,SARDONYX,ST,,SARDONYX STREET,595C6,PUBLIC STREET NAMES
2879,SAN JUAN,AVE,,SAN JUAN AVENUE,671H5,PUBLIC STREET NAMES
196,SWINFORD,ST,,SWINFORD STREET,824D3,PRIVATE STREET NAMES
260,SANTA BARBARA,PZ,,SANTA BARBARA PLAZA,NA,PRIVATE STREET NAMES
2788,SCOTMONT,DR,,SCOTMONT DRIVE,504B6,PUBLIC STREET NAMES
9723,SEAVIEW,DR,,SEAVIEW DRIVE,595A3,UNOFFICIAL PRIVATE STREET NAMES
10275,SIERRA CANYON,WAY,,SIERRA CANYON WAY,500B2,PRIVATE ROADWAY NAMES
2772,SEASIDE,AVE,,SEASIDE AVENUE,824G3,PUBLIC STREET NAMES
2365,SUNNYSIDE,AVE,,SUNNYSIDE AVENUE,672B5,PUBLIC STREET NAMES
10336,SYCAMORE,WAY,,SYCAMORE WAY,794C3,PRIVATE ROADWAY NAMES
2684,SHELL,AVE,,SHELL AVENUE,671J5,PUBLIC STREET NAMES
2968,SABBIADORO,WAY,,SABBIADORO WAY,630F5,PUBLIC STREET NAMES
2432,STRADA VECCHIA,ROAD,,STRADA VECCHIA ROAD,592A6,PUBLIC STREET NAMES
2345,SUNSET RIDGE,CT,,SUNSET RIDGE COURT,529D6,PUBLIC STREET NAMES
2795,SCHLEY,AVE,,SCHLEY AVENUE,794J6,PUBLIC STREET NAMES
2923,SALTAIR,AVE,,SALTAIR AVENUE,431G2,PUBLIC STREET NAMES
2358,SUNSET,AVE,,SUNSET AVENUE,671H4,PUBLIC STREET NAMES
2393,SUN,AL,,SUN ALLEY,593E3,PUBLIC STREET NAMES
2840,SANTA SUSANA PASS,ROAD,,SANTA SUSANA PASS ROAD,500A2,PUBLIC STREET NAMES
2624,SIERRA,ST,,SIERRA STREET,595B7,PUBLIC STREET NAMES
2723,SEWARD,ST,,SEWARD STREET,593E5,PUBLIC STREET NAMES
220,SOUTH PARK,DR,,SOUTH PARK DRIVE,674B2,PRIVATE STREET NAMES
2740,SEPULVEDA EASTWAY,,,SEPULVEDA EASTWAY,702G4,PUBLIC STREET NAMES
10012,SHIRA,DR,,SHIRA DRIVE,562E2,PRIVATE STREET NAMES
2802,SCANDIA,WAY,,SCANDIA WAY,594H2,PUBLIC STREET NAMES
10778,SAGEBRUSH,AVE,,SAGEBRUSH AVENUE,499H6,PUBLIC STREET NAMES
2803,SCADLOCK,LANE,,SCADLOCK LANE,561G6,PUBLIC STREET NAMES
2305,SYLVESTER,ST,,SYLVESTER STREET,672D4,PUBLIC STREET NAMES
2430,STRADELLA,ROAD,,STRADELLA ROAD,592A6,PUBLIC STREET NAMES
11006,SPARROW,CT,,SPARROW COURT,702E1,PRIVATE ROADWAY NAMES
2455,STOLL,DR,,STOLL DRIVE,595C2,PUBLIC STREET NAMES
197,SWANSEA,PL,,SWANSEA PLACE,593H6,PRIVATE STREET NAMES
2382,SUNFLOWER,AVE,,SUNFLOWER AVENUE,594F4,PUBLIC STREET NAMES
9616,SUNNY,LANE,,SUNNY LANE,560J2,PRIVATE STREET NAMES
2584,SKY,LANE,,SKY LANE,591F7,PUBLIC STREET NAMES
9837,STONEGATE,ROAD,,STONEGATE ROAD,482F7,PRIVATE ROADWAY NAMES
2435,STOWELL,LANE,,STOWELL LANE,592B3,PUBLIC STREET NAMES
2672,SHERIDAN,ST,,SHERIDAN STREET,635A3,PUBLIC STREET NAMES
2708,SHADYSPRING,DR,,SHADYSPRING DRIVE,533C3,PUBLIC STREET NAMES
10582,SANTA ROSA,DR,,SANTA ROSA DRIVE,500E1,PRIVATE ROADWAY NAMES
2416,STROUD,ST,,STROUD STREET,532B3,PUBLIC STREET NAMES
2727,SEVERANCE,ST,,SEVERANCE STREET,634B7,PUBLIC STREET NAMES
231,SIGNAL,ST,,SIGNAL STREET,824D7,PRIVATE STREET NAMES
2585,SKYHILL,DR,,SKYHILL DRIVE,563A7,PUBLIC STREET NAMES
2659,SHERNOLL,PL,,SHERNOLL PLACE,561H4,PUBLIC STREET NAMES
2857,SAN SEBASTIAN,DR,,SAN SEBASTIAN DRIVE,559H4,PUBLIC STREET NAMES
2332,SUPERIOR,ST,,SUPERIOR STREET,501D5,PUBLIC STREET NAMES
2328,SURRY,ST,,SURRY STREET,594C3,PUBLIC STREET NAMES
2884,SAN GABRIEL,WAY,,SAN GABRIEL WAY,633A3,PUBLIC STREET NAMES
2341,SUNSHINE,TER,,SUNSHINE TERRACE,563A6,PUBLIC STREET NAMES
2546,SOUTH,WALK,,SOUTH WALK,594B6,PUBLIC STREET NAMES
2777,SEABRIGHT,DR,,SEABRIGHT DRIVE,592D5,PUBLIC STREET NAMES
2434,STRACEY,AVE,,STRACEY AVENUE,671J5,PUBLIC STREET NAMES
2627,SIENA,WAY,,SIENA WAY,592A7,PUBLIC STREET NAMES
2960,SAGE,LANE,,SAGE LANE,631C7,PUBLIC STREET NAMES
10589,SELENE,CT,,SELENE COURT,500E1,PRIVATE ROADWAY NAMES
2779,SEABEC,CIR,,SEABEC CIRCLE,630J6,PUBLIC STREET NAMES
2526,SPOLETO,DR,,SPOLETO DRIVE,631C6,PUBLIC STREET NAMES
2832,SAN YSIDRO,DR,,SAN YSIDRO DRIVE,592D3,PUBLIC STREET NAMES
290,SKIRBALL CENTER,DR,,SKIRBALL CENTER DRIVE,591G1,PUBLIC STREET NAMES
244,SHADOW OAK,DR,,SHADOW OAK DRIVE,499J4,PRIVATE STREET NAMES
2849,SANTA CRUZ,PL,,SANTA CRUZ PLACE,824A4,PUBLIC STREET NAMES
2807,SAWYER,ST,,SAWYER STREET,633A5,PUBLIC STREET NAMES
2831,SAPPHIRE,DR,,SAPPHIRE DRIVE,561F5,PUBLIC STREET NAMES
10371,SEAWALK,DR,,SEAWALK DRIVE,702D1,PUBLIC STREET NAMES
2401,SUMMERLAND,PL,,SUMMERLAND PLACE,824B4,PUBLIC STREET NAMES
2567,SNELLING,ST,,SNELLING STREET,502G7,PUBLIC STREET NAMES
9598,STARLIGHT,LANE,,STARLIGHT LANE,529D4,PUBLIC STREET NAMES
2643,SHOREHAM,DR,,SHOREHAM DRIVE,592H6,PUBLIC STREET NAMES
10351,SUNSHINE CANYON,ROAD,,SUNSHINE CANYON ROAD,481C2,PRIVATE ROADWAY NAMES
2610,SILVER LAKE,AVE,,SILVER LAKE AVENUE,594E4,PUBLIC STREET NAMES
2487,STARK,AVE,,STARK AVENUE,559H4,PUBLIC STREET NAMES
10200,SANTA ANA,BLVD,NORTH,SANTA ANA BOULEVARD NORTH,704H6,PUBLIC STREET NAMES
2768,SEA VIEW,AVE,,SEA VIEW AVENUE,594J3,PUBLIC STREET NAMES
2490,STARDUST,PL,,STARDUST PLACE,481C6,PUBLIC STREET NAMES
2656,SHERVIEW,PL,,SHERVIEW PLACE,561H6,PUBLIC STREET NAMES
10698,SANDSTONE,LANE,,SANDSTONE LANE,794A5,PRIVATE ROADWAY NAMES
2568,SMITHWOOD,DR,,SMITHWOOD DRIVE,632G3,PUBLIC STREET NAMES
2379,SUNLAND,PL,,SUNLAND PLACE,503B5,PUBLIC STREET NAMES
2319,SWALL,DR,,SWALL DRIVE,632H1,PUBLIC STREET NAMES
2722,SEYMOUR,ST,,SEYMOUR STREET,594J5,PUBLIC STREET NAMES
2578,SKYWIN,WAY,,SKYWIN WAY,592G1,PUBLIC STREET NAMES
2736,SEPULVEDA WESTWAY,,,SEPULVEDA WESTWAY,702G3,PUBLIC STREET NAMES
10369,SEABLUFF,DR,,SEABLUFF DRIVE,702D1,PUBLIC STREET NAMES
211,STONE CANYON,ROAD,,STONE CANYON ROAD,591J4,PRIVATE STREET NAMES
9868,SHOSHONE,AVE,,SHOSHONE AVENUE,499J1,PRIVATE STREET NAMES
2340,SUNSIDE,ST,,SUNSIDE STREET,824A5,PUBLIC STREET NAMES
2914,SAMPSON,AVE,,SAMPSON AVENUE,794H6,PUBLIC STREET NAMES
2321,SUTTON,ST,,SUTTON STREET,561G5,PUBLIC STREET NAMES
2943,ST JOSEPH'S,PL,,ST JOSEPH'S PLACE,634E6,PUBLIC STREET NAMES
2349,SUNSETPARK,WAY,,SUNSETPARK WAY,672A1,PUBLIC STREET NAMES
10570,SHADOW HILLS,AVE,,SHADOW HILLS AVENUE,503A3,PRIVATE STREET NAMES
10340,STALLION MEADOW,,,STALLION MEADOW,480J6,PRIVATE STREET NAMES
205,SUMMIT,CT,,SUMMIT COURT,592F1,PRIVATE STREET NAMES
2343,SUNSET VIEW,DR,,SUNSET VIEW DRIVE,593A4,PUBLIC STREET NAMES
2899,SANDPIPER,ST,,SANDPIPER STREET,702B4,PUBLIC STREET NAMES
2312,SYCAMORE,AVE,,SYCAMORE AVENUE,593D3,PUBLIC STREET NAMES
2814,SAUGUS,AVE,,SAUGUS AVENUE,561H5,PUBLIC STREET NAMES
2396,SUMMITROSE,ST,,SUMMITROSE STREET,503J3,PUBLIC STREET NAMES
2400,SUMMERLAND,ST,,SUMMERLAND STREET,823H4,PUBLIC STREET NAMES
2902,SAN DIEGO,FRWY,,SAN DIEGO FREEWAY,501G7,PUBLIC STREET NAMES
2710,SHADYGROVE,ST,,SHADYGROVE STREET,504A5,PUBLIC STREET NAMES
2845,SANTA LUCIA,DR,,SANTA LUCIA DRIVE,560A4,PUBLIC STREET NAMES
9727,SOUTH COYOTE CANYON,ROAD,,SOUTH COYOTE CANYON ROAD,563D6,UNOFFICIAL PRIVATE STREET NAMES
2646,SHIRLEY,CT,,SHIRLEY COURT,560F3,PUBLIC STREET NAMES
2380,SUNLAND PARK,DR,,SUNLAND PARK DRIVE,503A6,PUBLIC STREET NAMES
2641,SHORT,AVE,,SHORT AVENUE,672C6,PUBLIC STREET NAMES
10201,SANTA ANA,BLVD,SOUTH,SANTA ANA BOULEVARD SOUTH,704H6,PUBLIC STREET NAMES
2462,STEWARTON,DR,,STEWARTON DRIVE,480H6,PUBLIC STREET NAMES
2766,SEA VIEW,LANE,,SEA VIEW LANE,595A3,PUBLIC STREET NAMES
2448,STONEHILL,PL,,STONEHILL PLACE,562C7,PUBLIC STREET NAMES
2762,SEGURO,DR,,SEGURO DRIVE,500F2,PUBLIC STREET NAMES
2304,SYLVIA,AVE,,SYLVIA AVENUE,500G3,PUBLIC STREET NAMES
2420,STRICKLAND,AVE,,STRICKLAND AVENUE,565D7,PUBLIC STREET NAMES
238,SHELLYS,WAY,,SHELLYS WAY,NA,PRIVATE STREET NAMES
10536,SIMION,LANE,,SIMION LANE,530A4,PUBLIC STREET NAMES
2798,SCENARIO,LANE,,SCENARIO LANE,592A3,PUBLIC STREET NAMES
2631,SICHEL,ST,,SICHEL STREET,595A7,PUBLIC STREET NAMES
255,SCOTT,AVE,,SCOTT AVENUE,594F7,PRIVATE STREET NAMES
2760,SELBY,AVE,,SELBY AVENUE,632E7,PUBLIC STREET NAMES
2402,SUMMERLAND,AVE,,SUMMERLAND AVENUE,824A4,PUBLIC STREET NAMES
2510,SPY GLASS,DR,,SPY GLASS DRIVE,480F7,PUBLIC STREET NAMES
2519,SPRING OAK,DR,,SPRING OAK DRIVE,593G2,PUBLIC STREET NAMES
2339,SUNSTONE,PL,,SUNSTONE PLACE,561H6,PUBLIC STREET NAMES
10798,STALLION RANCH,ROAD,,STALLION RANCH ROAD,503A4,PRIVATE STREET NAMES
2640,SHORT,ST,,SHORT STREET,634J7,PUBLIC STREET NAMES
2492,STANWOOD,PL,,STANWOOD PLACE,672B2,PUBLIC STREET NAMES
2820,SARI,PL,,SARI PLACE,501D5,PUBLIC STREET NAMES
2836,SANTEE,ST,,SANTEE STREET,634E6,PUBLIC STREET NAMES
10332,STUDIO CITY,PL,,STUDIO CITY PLACE,562J6,PRIVATE ROADWAY NAMES
9719,SAMPSON,WAY,,SAMPSON WAY,824C5,UNOFFICIAL PRIVATE STREET NAMES
2547,SOTO,ST,,SOTO STREET,595C7,PUBLIC STREET NAMES
2406,SUMAC,LANE,,SUMAC LANE,631C7,PUBLIC STREET NAMES
2426,STRATHMORE,DR,,STRATHMORE DRIVE,632B1,PUBLIC STREET NAMES
2308,SYCAMORE PARK,DR,,SYCAMORE PARK DRIVE,595B4,PUBLIC STREET NAMES
2633,SHULTS,ST,,SHULTS STREET,595D3,PUBLIC STREET NAMES
2545,SOUTHERLAND,AVE,,SOUTHERLAND AVENUE,794H6,PUBLIC STREET NAMES
2673,SHERIDAN,PL,,SHERIDAN PLACE,635A4,PUBLIC STREET NAMES
2409,SUGARMAN,ST,,SUGARMAN STREET,561A3,PUBLIC STREET NAMES
2577,SLATER,ST,,SLATER STREET,704F7,PUBLIC STREET NAMES
2575,SLEEPY HOLLOW,LANE,,SLEEPY HOLLOW LANE,560E5,PUBLIC STREET NAMES
2721,SHAD,PL,,SHAD PLACE,823G7,PUBLIC STREET NAMES
10666,SASSARI,LANE,,SASSARI LANE,500C1,PRIVATE STREET NAMES
250,SEDAN,AVE,,SEDAN AVENUE,529G2,PRIVATE STREET NAMES
2386,SUNDAY,TR,,SUNDAY TRAIL,593C1,PUBLIC STREET NAMES
2346,SUNSET PLAZA,TER,,SUNSET PLAZA TERRACE,592J4,PUBLIC STREET NAMES
2598,SILVIUS,AVE,,SILVIUS AVENUE,853J1,PUBLIC STREET NAMES
233,SHOSHONEAN,ROAD,,SHOSHONEAN ROAD,854C1,PRIVATE STREET NAMES
2753,SEMINOLE,PL,,SEMINOLE PLACE,480F7,PUBLIC STREET NAMES
2452,STONE CANYON,ROAD,,STONE CANYON ROAD,591J4,PUBLIC STREET NAMES
2957,ST ANDREWS,PL,,ST ANDREWS PLACE,593H4,PUBLIC STREET NAMES
2395,SUMNER,AVE,,SUMNER AVENUE,564J5,PUBLIC STREET NAMES
10125,SEA SCAPES,CT,,SEA SCAPES COURT,NA,PRIVATE ROADWAY NAMES
9615,SHADOW GLEN,CIR,,SHADOW GLEN CIRCLE,480E6,PRIVATE STREET NAMES
268,SACRAMENTO,ST,,SACRAMENTO STREET,NA,PRIVATE STREET NAMES
2649,SHIPLEY GLEN,CT,,SHIPLEY GLEN COURT,595B2,PUBLIC STREET NAMES
2348,SUNSET PLAZA,DR,,SUNSET PLAZA DRIVE,592H4,PUBLIC STREET NAMES
2952,SAINT CLOUD,ROAD,,SAINT CLOUD ROAD,592B6,PUBLIC STREET NAMES
2947,ST IVES,DR,,ST IVES DRIVE,592H5,PUBLIC STREET NAMES
2747,SENECA,CT,,SENECA COURT,709F7,PUBLIC STREET NAMES
256,SAYRE,LANE,,SAYRE LANE,594C6,PRIVATE STREET NAMES
2909,SANBORN,AVE,,SANBORN AVENUE,594B3,PUBLIC STREET NAMES
10922,SONOMA,DR,,SONOMA DRIVE,502F1,PRIVATE ROADWAY NAMES
2466,STEVELY,AVE,,STEVELY AVENUE,673C2,PUBLIC STREET NAMES
2863,SAN PEDRO,ST,,SAN PEDRO STREET,634G3,PUBLIC STREET NAMES
2916,SAMOA,AVE,,SAMOA AVENUE,504A3,PUBLIC STREET NAMES
2783,SCOUT,WAY,,SCOUT WAY,634C1,PUBLIC STREET NAMES
2873,SAN MARCO,DR,,SAN MARCO DRIVE,593E2,PUBLIC STREET NAMES
2725,SEVILLE,CT,,SEVILLE COURT,671H6,PUBLIC STREET NAMES
2355,SUNSET,DR,,SUNSET DRIVE,594B4,PUBLIC STREET NAMES
2501,STANLEY HILLS,DR,,STANLEY HILLS DRIVE,592J3,PUBLIC STREET NAMES
9880,SHADOW VALLEY,CIR,,SHADOW VALLEY CIRCLE,499J1,PRIVATE STREET NAMES
2385,SUNDERLAND,DR,,SUNDERLAND DRIVE,481B6,PUBLIC STREET NAMES
9875,SUN RANCH,CT,,SUN RANCH COURT,499J2,PRIVATE STREET NAMES
229,SKYLAND,ROAD,,SKYLAND ROAD,NA,PRIVATE STREET NAMES
10864,SASSAFRAS,CT,,SASSAFRAS COURT,501H6,PRIVATE ROADWAY NAMES
2861,SAN PEDRO & TERMINAL ISLAND,BRDG,,SAN PEDRO & TERMINAL ISLAND BRIDGE,NA,PUBLIC STREET NAMES
9866,SENECA,AVE,,SENECA AVENUE,500A1,PRIVATE STREET NAMES
2557,SOMERSET,ST,,SOMERSET STREET,595F6,PUBLIC STREET NAMES
10069,SUMMIT VUE,DR,,SUMMIT VUE DRIVE,529J7,PRIVATE STREET NAMES
2888,SAN FERNANDO MISSION,BLVD,,SAN FERNANDO MISSION BOULEVARD,501J1,PUBLIC STREET NAMES
264,SAMRA,DR,,SAMRA DRIVE,529G2,PRIVATE STREET NAMES
2533,SPERRY,ST,,SPERRY STREET,564B4,PUBLIC STREET NAMES
2689,SHEFFIELD,WAY,,SHEFFIELD WAY,480J7,PUBLIC STREET NAMES
10082,SWEET JASMINE,LANE,,SWEET JASMINE LANE,559J1,PRIVATE ROADWAY NAMES
2891,SAN FERNANDO,ROAD,,SAN FERNANDO ROAD,481G4,PUBLIC STREET NAMES
9778,SOUTH SUMMIT RIDGE,CIR,,SOUTH SUMMIT RIDGE CIRCLE,499H6,PRIVATE STREET NAMES
2408,SULLY,DR,,SULLY DRIVE,533C2,PUBLIC STREET NAMES
239,SHASTA,CIR,SOUTH,SHASTA CIRCLE SOUTH,564H7,PRIVATE STREET NAMES
2852,SANTA CLARA,AVE,,SANTA CLARA AVENUE,671H5,PUBLIC STREET NAMES
2928,SALERNO,DR,,SALERNO DRIVE,630H5,PUBLIC STREET NAMES
245,SHADOW HILLS,DR,,SHADOW HILLS DRIVE,503C3,PRIVATE STREET NAMES
2447,STONEHURST,AVE,,STONEHURST AVENUE,503J4,PUBLIC STREET NAMES
2965,SACK,AL,,SACK ALLEY,NA,PUBLIC STREET NAMES
236,SHIP,ST,,SHIP STREET,NA,PRIVATE STREET NAMES
2475,STELLBAR,PL,,STELLBAR PLACE,632G6,PUBLIC STREET NAMES
2843,SANTA MONICA,FRWY,,SANTA MONICA FREEWAY,634A6,PUBLIC STREET NAMES
2478,STAUNTON,AVE,,STAUNTON AVENUE,674G1,PUBLIC STREET NAMES
2799,SCARFF,ST,,SCARFF STREET,634B7,PUBLIC STREET NAMES
10024,ST MORITZ,DR,,ST MORITZ DRIVE,560J5,PRIVATE STREET NAMES
2471,STEPHEN M WHITE,DR,,STEPHEN M WHITE DRIVE,854C2,PUBLIC STREET NAMES
2511,SPUR RIDGE,ROAD,,SPUR RIDGE ROAD,481F2,PUBLIC STREET NAMES
2734,SERRANIA,AVE,,SERRANIA AVENUE,560C1,PUBLIC STREET NAMES
2685,SHELDON,ST,,SHELDON STREET,502J4,PUBLIC STREET NAMES
10916,SUNDANCE,ST,,SUNDANCE STREET,502E6,PRIVATE ROADWAY NAMES
2507,STAGG,ST,,STAGG STREET,533A3,PUBLIC STREET NAMES
212,STEVENS,WAY,,STEVENS WAY,499E7,PRIVATE STREET NAMES
10359,SADDLETREE,CT,,SADDLETREE COURT,481E2,PUBLIC STREET NAMES
10092,SUMMIT VUE,DR,NORTH,SUMMIT VUE DRIVE NORTH,529J7,PRIVATE STREET NAMES
2690,SHEFFIELD,LANE,,SHEFFIELD LANE,480J7,PUBLIC STREET NAMES
2605,SILVER OAK,TER,,SILVER OAK TERRACE,565B7,PUBLIC STREET NAMES
2793,SCHOOLCRAFT,ST,,SCHOOLCRAFT STREET,531D2,PUBLIC STREET NAMES
2405,SUMATRA,DR,,SUMATRA DRIVE,562D7,PUBLIC STREET NAMES
2962,SADRING,AVE,,SADRING AVENUE,529F3,PUBLIC STREET NAMES
2387,SUNDALE,DR,,SUNDALE DRIVE,504A5,PUBLIC STREET NAMES
2653,SHERWOOD,PL,,SHERWOOD PLACE,562B6,PUBLIC STREET NAMES
2848,SANTA CRUZ,ST,,SANTA CRUZ STREET,824A4,PUBLIC STREET NAMES
2905,SANCOLA,AVE,,SANCOLA AVENUE,533C3,PUBLIC STREET NAMES
2440,STONEWOOD,DR,,STONEWOOD DRIVE,592F6,PUBLIC STREET NAMES
10893,SOUTH ICON,CIR,,SOUTH ICON CIRCLE,702D1,PRIVATE ROADWAY NAMES
249,SEPULVEDA,BLVD,,SEPULVEDA BOULEVARD,702G1,PRIVATE STREET NAMES
206,SUMMIT,CIR,,SUMMIT CIRCLE,592F1,PRIVATE STREET NAMES
2894,SANDY CAPE,DR,,SANDY CAPE DRIVE,630E5,PUBLIC STREET NAMES
2897,SANDRINGHAM,CT,,SANDRINGHAM COURT,500J1,PUBLIC STREET NAMES
2592,SINCLAIR,AVE,,SINCLAIR AVENUE,500H1,PUBLIC STREET NAMES
10956,SHERMAN,CT,,SHERMAN COURT,671J6,PUBLIC STREET NAMES
2806,SAXON,DR,,SAXON DRIVE,564H7,PUBLIC STREET NAMES
10946,SYLMAR,CT,,SYLMAR COURT,532A6,LIMITED ACCESS AREA NAMES
2621,SIERRA MAR,DR,,SIERRA MAR DRIVE,592G5,PUBLIC STREET NAMES
263,SAMUEL DUPONT,AVE,,SAMUEL DUPONT AVENUE,823J1,PRIVATE STREET NAMES
2591,SINCLAIR,PL,,SINCLAIR PLACE,500H1,PUBLIC STREET NAMES
2912,SAN BENITO,ST,,SAN BENITO STREET,635A4,PUBLIC STREET NAMES
2588,SISKIYOU,ST,,SISKIYOU STREET,635C7,PUBLIC STREET NAMES
2608,SILVER LAKE,CT,,SILVER LAKE COURT,594E3,PUBLIC STREET NAMES
2811,SAVILLE,AVE,,SAVILLE AVENUE,561D2,PUBLIC STREET NAMES
243,SHADOW RIDGE,WAY,,SHADOW RIDGE WAY,480F6,PRIVATE STREET NAMES
2427,STRATHERN,ST,,STRATHERN STREET,533A2,PUBLIC STREET NAMES
202,SUN MUN,WAY,,SUN MUN WAY,634G2,PRIVATE STREET NAMES
2695,SHATTO,PL,,SHATTO PLACE,634A3,PUBLIC STREET NAMES
10823,SONGBIRD,WAY,,SONGBIRD WAY,794A1,LIMITED ACCESS AREA NAMES
2887,SANFORD,AVE,,SANFORD AVENUE,794F5,PUBLIC STREET NAMES
2951,ST EDENS,CIR,,ST EDENS CIRCLE,529D5,PUBLIC STREET NAMES
9729,STRATMORE,PL,,STRATMORE PLACE,632A2,UNOFFICIAL PRIVATE STREET NAMES
9826,SUNSWEPT,DR,,SUNSWEPT DRIVE,562E5,PUBLIC STREET NAMES
2360,SUNRIDGE,WALK,,SUNRIDGE WALK,702B3,PUBLIC STREET NAMES
10196,SUNNY LANE,CT,,SUNNY LANE COURT,560J2,PRIVATE STREET NAMES
2776,SEABRIGHT,PL,,SEABRIGHT PLACE,592D5,PUBLIC STREET NAMES
2313,SWINTON,AVE,,SWINTON AVENUE,481E7,PUBLIC STREET NAMES
2812,SAVANNAH,ST,,SAVANNAH STREET,635B5,PUBLIC STREET NAMES
2454,STONE,ST,,STONE STREET,635C3,PUBLIC STREET NAMES
9726,SIR HENRY,,,SIR HENRY,481G2,UNOFFICIAL PRIVATE STREET NAMES
2880,SAN JOSE,ST,,SAN JOSE STREET,502B2,PUBLIC STREET NAMES
2467,STETSON,AVE,,STETSON AVENUE,702G1,PUBLIC STREET NAMES
2344,SUNSET VALE,AVE,,SUNSET VALE AVENUE,592D6,PUBLIC STREET NAMES
2428,STRATFORD,ROAD,,STRATFORD ROAD,595A1,PUBLIC STREET NAMES
2614,SIGNATURE,DR,,SIGNATURE DRIVE,481B7,PUBLIC STREET NAMES
2683,SHELL,CT,,SHELL COURT,671J5,PUBLIC STREET NAMES
2623,SIERRA ALTA,WAY,,SIERRA ALTA WAY,592A5,PUBLIC STREET NAMES
2572,SLUSHER,AVE,,SLUSHER AVENUE,504C4,PUBLIC STREET NAMES
2488,STARGAZER,AVE,,STARGAZER AVENUE,823G7,PUBLIC STREET NAMES
257,SATICOY,ST,,SATICOY STREET,NA,PRIVATE STREET NAMES
2662,SHERMAN GROVE,AVE,,SHERMAN GROVE AVENUE,503F3,PUBLIC STREET NAMES
2491,STAR,LANE,,STAR LANE,559D2,PUBLIC STREET NAMES
2495,STANWELL,ST,,STANWELL STREET,500A3,PUBLIC STREET NAMES
2361,SUNRIDGE,ST,,SUNRIDGE STREET,702A3,PUBLIC STREET NAMES
2482,STASSI,LANE,,STASSI LANE,631C7,PUBLIC STREET NAMES
2664,SHERMAN,ROAD,,SHERMAN ROAD,532G4,PUBLIC STREET NAMES
2517,SPRINGSIDE,TR,,SPRINGSIDE TRAIL,NA,PUBLIC STREET NAMES
2353,SUNSET CREST,DR,,SUNSET CREST DRIVE,592H3,PUBLIC STREET NAMES
2967,SABINA,ST,,SABINA STREET,635C7,PUBLIC STREET NAMES
2895,SANDWOOD,PL,,SANDWOOD PLACE,824A1,PUBLIC STREET NAMES
2476,STEBBINS,TER,,STEBBINS TERRACE,592J5,PUBLIC STREET NAMES
10493,SERENA,CIR,,SERENA CIRCLE,560J3,PRIVATE STREET NAMES
2698,SHARP,AVE,,SHARP AVENUE,502A3,PUBLIC STREET NAMES
2534,SPENCE,ST,,SPENCE STREET,635C7,PUBLIC STREET NAMES
2877,SAN JULIAN,ST,,SAN JULIAN STREET,634F5,PUBLIC STREET NAMES
2686,SHELBY,PL,,SHELBY PLACE,565D6,PUBLIC STREET NAMES
2450,STONEHAVEN,WAY,,STONEHAVEN WAY,631G3,PUBLIC STREET NAMES
2483,STASSEN,ST,,STASSEN STREET,501J5,PUBLIC STREET NAMES
11004,SOUTH SEAGLASS,CIR,,SOUTH SEAGLASS CIRCLE,702E1,PRIVATE ROADWAY NAMES
10796,SENDA DE MAYA,,,SENDA DE MAYA,482A3,PRIVATE ROADWAY NAMES
2566,SNOWDEN,AVE,,SNOWDEN AVENUE,532C1,PUBLIC STREET NAMES
2872,SAN MARCOS,PL,,SAN MARCOS PLACE,595A3,PUBLIC STREET NAMES
2398,SUMMITRIDGE,DR,,SUMMITRIDGE DRIVE,592D2,PUBLIC STREET NAMES
2424,STRAWBERRY,DR,,STRAWBERRY DRIVE,561C5,PUBLIC STREET NAMES
2334,SUPERIOR,AVE,,SUPERIOR AVENUE,672A5,PUBLIC STREET NAMES
2846,SANTA FE,AVE,,SANTA FE AVENUE,634H4,PUBLIC STREET NAMES
2833,SAN VICENTE,BLVD,,SAN VICENTE BOULEVARD,631J4,PUBLIC STREET NAMES
2946,ST IVES,PL,,ST IVES PLACE,592G5,PUBLIC STREET NAMES
2837,SANTA YNEZ,WAY,,SANTA YNEZ WAY,633A3,PUBLIC STREET NAMES
10797,SENDA DE HANNAH,,,SENDA DE HANNAH,482A3,PRIVATE ROADWAY NAMES
10173,SIERRA MEADOWS,LANE,,SIERRA MEADOWS LANE,480E7,PRIVATE STREET NAMES
10239,SHADOWBROOK,TER,,SHADOWBROOK TERRACE,794A3,PRIVATE ROADWAY NAMES
2773,SEA REEF,DR,,SEA REEF DRIVE,630E5,PUBLIC STREET NAMES
9718,ST JOHN,ST,,ST JOHN STREET,634H2,UNOFFICIAL PRIVATE STREET NAMES
2453,STONE CANYON,AVE,,STONE CANYON AVENUE,561J6,PUBLIC STREET NAMES
2597,SIMONDS,ST,,SIMONDS STREET,501H1,PUBLIC STREET NAMES
209,STONEY,LANE,,STONEY LANE,591E4,PRIVATE STREET NAMES
9856,STETSON,,,STETSON,481G1,UNOFFICIAL PRIVATE STREET NAMES
2742,SEPULVEDA,BLVD,,SEPULVEDA BOULEVARD,481E4,PUBLIC STREET NAMES
2625,SIERRA,LANE,,SIERRA LANE,480G7,PUBLIC STREET NAMES
10820,SERENADE,LANE,,SERENADE LANE,794A1,LIMITED ACCESS AREA NAMES
2712,SHADYCOVE,AVE,,SHADYCOVE AVENUE,533D3,PUBLIC STREET NAMES
2325,SUTRO,AVE,,SUTRO AVENUE,673G2,PUBLIC STREET NAMES
2539,SOUTHWEST,DR,,SOUTHWEST DRIVE,673F7,PUBLIC STREET NAMES
2541,SOUTH VENICE,BLVD,,SOUTH VENICE BOULEVARD,672A5,PUBLIC STREET NAMES
216,STASSI,LANE,,STASSI LANE,631C7,PRIVATE STREET NAMES
2749,SENDERO,PL,,SENDERO PLACE,560H4,PUBLIC STREET NAMES
2306,SYLVAN,ST,,SYLVAN STREET,532A7,PUBLIC STREET NAMES
2950,ST ELMO,DR,,ST ELMO DRIVE,633D5,PUBLIC STREET NAMES
2307,SYLMAR,AVE,,SYLMAR AVENUE,502A6,PUBLIC STREET NAMES
2670,SHERMAN,AVE,,SHERMAN AVENUE,734B7,PUBLIC STREET NAMES
2682,SHELLEY,ST,,SHELLEY STREET,595G5,PUBLIC STREET NAMES
9721,SANTA MARIA,ROAD,,SANTA MARIA ROAD,560D6,UNOFFICIAL PRIVATE STREET NAMES
2470,STERLING,WALK,,STERLING WALK,595E4,PUBLIC STREET NAMES
2647,SHIRLEY,AVE,,SHIRLEY AVENUE,500F2,PUBLIC STREET NAMES
10328,SHORT,LANE,,SHORT LANE,824E4,PRIVATE ROADWAY NAMES
2529,SPINNAKER,ST,,SPINNAKER STREET,701J2,PUBLIC STREET NAMES
2392,SUNBEAM,DR,,SUNBEAM DRIVE,594H2,PUBLIC STREET NAMES
9984,SYLVIA,AVE,,SYLVIA AVENUE,560G1,PRIVATE STREET NAMES
10630,SHORE CLIFF,DR,,SHORE CLIFF DRIVE,702C2,PUBLIC STREET NAMES
2819,SARITA,PL,,SARITA PLACE,560G5,PUBLIC STREET NAMES
207,SUMMER HOLLY,CIR,,SUMMER HOLLY CIRCLE,592A1,PRIVATE STREET NAMES
2528,SPIRES,ST,,SPIRES STREET,529F3,PUBLIC STREET NAMES
10642,SOLANA,CT,,SOLANA COURT,634J4,PRIVATE ROADWAY NAMES
2550,SORBONNE,ST,,SORBONNE STREET,481G2,PUBLIC STREET NAMES
10975,SAMMY,LANE,,SAMMY LANE,501B5,LIMITED ACCESS AREA NAMES
223,SOLOMONTE,ROAD,,SOLOMONTE ROAD,592D4,PRIVATE STREET NAMES
2729,SEVENHILLS,DR,,SEVENHILLS DRIVE,504A2,PUBLIC STREET NAMES
2309,SYCAMORE,TR,,SYCAMORE TRAIL,593C1,PUBLIC STREET NAMES
10425,SWIGERT,CIR,,SWIGERT CIRCLE,823H7,PRIVATE ROADWAY NAMES
2444,STONERIDGE,PL,,STONERIDGE PLACE,562D6,PUBLIC STREET NAMES
2544,SOUTHERN PACIFIC,DR,,SOUTHERN PACIFIC DRIVE,794J5,PUBLIC STREET NAMES
2581,SKYTOP,ROAD,,SKYTOP ROAD,561F6,PUBLIC STREET NAMES
2311,SYCAMORE,DR,,SYCAMORE DRIVE,672F4,PUBLIC STREET NAMES
2314,SWEETZER,AVE,,SWEETZER AVENUE,593A5,PUBLIC STREET NAMES
2451,STONEHAVEN,CT,,STONEHAVEN COURT,480H7,PUBLIC STREET NAMES
2505,STANDISH,DR,,STANDISH DRIVE,561C7,PUBLIC STREET NAMES
2617,SIERRA VISTA,AVE,,SIERRA VISTA AVENUE,593H6,PUBLIC STREET NAMES
2910,SAN BLAS,AVE,,SAN BLAS AVENUE,560B5,PUBLIC STREET NAMES
2563,SOLVANG,ST,,SOLVANG STREET,532E3,PUBLIC STREET NAMES
2565,SOLANO,AVE,,SOLANO AVENUE,594H7,PUBLIC STREET NAMES
2944,ST JAMES,PL,,ST JAMES PLACE,634B7,PUBLIC STREET NAMES
2771,SEATON,ST,,SEATON STREET,634G5,PUBLIC STREET NAMES
9857,SYCAMORE,,,SYCAMORE,481G1,UNOFFICIAL PRIVATE STREET NAMES
2370,SUNNY HEIGHTS,DR,,SUNNY HEIGHTS DRIVE,594J3,PUBLIC STREET NAMES
2829,SARAN,DR,,SARAN DRIVE,702C3,PUBLIC STREET NAMES
214,STATE,ST,,STATE STREET,634J5,PRIVATE STREET NAMES
2794,SCHOENBORN,ST,,SCHOENBORN STREET,532D1,PUBLIC STREET NAMES
2463,STEWART,AVE,,STEWART AVENUE,672A2,PUBLIC STREET NAMES
2564,SOLAR,DR,,SOLAR DRIVE,593C2,PUBLIC STREET NAMES
10389,SIDWELL,ST,,SIDWELL STREET,481A5,PRIVATE STREET NAMES
2676,SHEPARD,ST,,SHEPARD STREET,854B2,PUBLIC STREET NAMES
252,SEARLY LINE,DR,,SEARLY LINE DRIVE,NA,PRIVATE STREET NAMES
2917,SALUDA,AVE,,SALUDA AVENUE,504C5,PUBLIC STREET NAMES
2522,SPRINGFIELD,AVE,,SPRINGFIELD AVENUE,500G3,PUBLIC STREET NAMES
2421,STRETTO,WAY,,STRETTO WAY,630G6,PUBLIC STREET NAMES
2582,SKYLINE,DR,,SKYLINE DRIVE,592H2,PUBLIC STREET NAMES
10263,SKIRBALL CENTER,DR,,SKIRBALL CENTER DRIVE,591G1,PRIVATE ROADWAY NAMES
10889,SEGUN,DR,,SEGUN DRIVE,633C4,LIMITED ACCESS AREA NAMES
2835,SANTO TOMAS,DR,,SANTO TOMAS DRIVE,673C2,PUBLIC STREET NAMES
2810,SAVONA,ROAD,,SAVONA ROAD,591H5,PUBLIC STREET NAMES
232,SIERRA BONITA,AVE,,SIERRA BONITA AVENUE,633C2,PRIVATE STREET NAMES
2854,SANTA CATALINA,VIEW,,SANTA CATALINA VIEW,631F4,PUBLIC STREET NAMES
2639,SHORT,ST,,SHORT STREET,631B7,PUBLIC STREET NAMES
2955,ST BERNARD,ST,,ST BERNARD STREET,702C3,PUBLIC STREET NAMES
2815,SATURN,ST,,SATURN STREET,633G4,PUBLIC STREET NAMES
11195,SUPER KING,WAY,,SUPER KING WAY,531J4,PRIVATE ROADWAY NAMES
11199,SWEETWATER,CT,,SWEETWATER COURT,500E2,PRIVATE STREET NAMES
11083,STONER,PL,,STONER PLACE,632A6,LIMITED ACCESS AREA NAMES
11132,SEACOAST,PL,,SEACOAST PLACE,672E7,PRIVATE ROADWAY NAMES
11121,SERRANO,WAY,,SERRANO WAY,482F3,UNOFFICIAL PRIVATE STREET NAMES
10320,SPIELBERG,DR,,SPIELBERG DRIVE,559F4,PRIVATE ROADWAY NAMES
11091,STRATA,LANE,,STRATA LANE,565A6,LIMITED ACCESS AREA NAMES
11049,SURFVIEW,LANE,,SURFVIEW LANE,630F5,PUBLIC STREET NAMES
11135,STATLEY,CT,,STATLEY COURT,529E2,PUBLIC STREET NAMES
11129,SUNRISE,PL,,SUNRISE PLACE,672E7,PRIVATE ROADWAY NAMES
11185,SUNCATCHER,PL,,SUNCATCHER PLACE,702E1,PRIVATE ROADWAY NAMES
11186,SEA SPRAY,PL,,SEA SPRAY PLACE,702E1,PRIVATE ROADWAY NAMES
11055,SPRUCE,LANE,,SPRUCE  LANE,532B4,LIMITED ACCESS AREA NAMES
11200,SPLIT OAK,ROAD,,SPLIT OAK ROAD,500E2,PRIVATE STREET NAMES
11184,SHELL,PL,,SHELL PLACE,702E1,PRIVATE ROADWAY NAMES
11087,SPELTHORNE,LANE,,SPELTHORNE LANE,633A6,PRIVATE STREET NAMES
11138,STAGG,LANE,,STAGG LANE,530F3,PRIVATE STREET NAMES
11187,SEABEACH,PL,,SEABEACH PLACE,702E1,PRIVATE ROADWAY NAMES
11180,SHELLEY,LANE,,SHELLEY LANE,500C1,PRIVATE STREET NAMES
11045,STATEN,DR,,STATEN DRIVE,530J3,LIMITED ACCESS AREA NAMES
11209,STONE BEND,LANE,,STONE BEND LANE,529D2,PUBLIC STREET NAMES
11206,STONERIDGE,LANE,,STONERIDGE LANE,561J7,PRIVATE STREET NAMES
11247,SILVA,LANE,,SILVA LANE,482C7,PRIVATE STREET NAMES
11234,SHAW,LANE,,SHAW LANE,482C5,PRIVATE ROADWAY NAMES
