Street ID,Street Name,Street Suffix,Street Suffix Direction,Official Street Name,Thomas Brothers Map,Street Type
2221,TEXAS,AVE,,TEXAS AVENUE,631J5,PUBLIC STREET NAMES
10725,TORI,CT,,TORI COURT,502A2,PRIVATE STREET NAMES
2167,TIVERTON,AVE,,TIVERTON AVENUE,632B2,PUBLIC STREET NAMES
2279,TARO,WAY,,TARO WAY,592A6,PUBLIC STREET NAMES
2111,TRACTION,AVE,,TRACTION AVENUE,634H5,PUBLIC STREET NAMES
10545,TUNDRA,DR,,TUNDRA DRIVE,481J6,PRIVATE ROADWAY NAMES
2141,TOPHAM,ST,,TOPHAM STREET,531A7,PUBLIC STREET NAMES
2296,TAHOE,PL,,TAHOE PLACE,563E7,PUBLIC STREET NAMES
2153,TOLUCA,ROAD,,TOLUCA ROAD,563B5,PUBLIC STREET NAMES
190,TEMESCAL CANYON,ROAD,,TEMESCAL CANYON ROAD,631A4,PRIVATE STREET NAMES
2045,TUPELO,LANE,,TUPELO LANE,592A3,PUBLIC STREET NAMES
2103,TRASK,AVE,,TRASK AVENUE,702B3,PUBLIC STREET NAMES
10517,TERRAFINA,ST,,TERRAFINA STREET,480J6,PRIVATE STREET NAMES
2142,TOPEKA,DR,,TOPEKA DRIVE,500G2,PUBLIC STREET NAMES
180,TROY,DR,,TROY DRIVE,24A5,PRIVATE STREET NAMES
9733,TERRACE,PL,,TERRACE PLACE,630J6,UNOFFICIAL PRIVATE STREET NAMES
2297,TAHOE,DR,,TAHOE DRIVE,563F7,PUBLIC STREET NAMES
2146,TOOMEY,PL,,TOOMEY PLACE,794A2,PUBLIC STREET NAMES
185,TOLUCA ESTATES,DR,,TOLUCA ESTATES DRIVE,563B5,PRIVATE STREET NAMES
2197,THRASHER,AVE,,THRASHER AVENUE,592H4,PUBLIC STREET NAMES
2208,THERMO,ST,,THERMO STREET,672B2,PUBLIC STREET NAMES
10773,TWIN PALMS,LANE,,TWIN PALMS LANE,482C4,PRIVATE ROADWAY NAMES
2209,THERESA,ST,,THERESA STREET,595A5,PUBLIC STREET NAMES
2025,TWO TREE,AVE,,TWO TREE AVENUE,595B7,PUBLIC STREET NAMES
10619,TERRA VISTA,WAY,,TERRA VISTA WAY,482G7,PUBLIC STREET NAMES
2076,TROPICAL,DR,,TROPICAL DRIVE,562J6,PUBLIC STREET NAMES
186,THIMBLE,LANE,,THIMBLE LANE,NA,PRIVATE STREET NAMES
2102,TRAVIS,ST,,TRAVIS STREET,631F1,PUBLIC STREET NAMES
2244,TERECITA,PL,,TERECITA PLACE,504A2,PUBLIC STREET NAMES
2148,TONOPAH,ST,,TONOPAH STREET,502E7,PUBLIC STREET NAMES
2062,TUALLITAN,ROAD,,TUALLITAN ROAD,631F2,PUBLIC STREET NAMES
2184,TIGERTAIL,ROAD,,TIGERTAIL ROAD,591E7,PUBLIC STREET NAMES
2029,TWIN HILLS,PL,,TWIN HILLS PLACE,500G1,PUBLIC STREET NAMES
2160,TOLAND,AVE,,TOLAND AVENUE,702J2,PUBLIC STREET NAMES
2178,TIMBER RIDGE,DR,,TIMBER RIDGE DRIVE,481C3,PUBLIC STREET NAMES
2061,TUBA,ST,,TUBA STREET,501J4,PUBLIC STREET NAMES
2300,TACUBA,ST,,TACUBA STREET,594J3,PUBLIC STREET NAMES
2190,TIANNA,ROAD,,TIANNA ROAD,592J2,PUBLIC STREET NAMES
9730,TAHITI,AVE,,TAHITI AVENUE,630J6,UNOFFICIAL PRIVATE STREET NAMES
2243,TERECITA,ROAD,,TERECITA ROAD,504B2,PUBLIC STREET NAMES
2110,TRACY,ST,,TRACY STREET,594C4,PUBLIC STREET NAMES
2215,THE GRAND,CL,,THE GRAND CANAL,671H6,PUBLIC STREET NAMES
2194,THURMAN,AVE,,THURMAN AVENUE,633B5,PUBLIC STREET NAMES
2107,TRANCAS,PL,,TRANCAS PLACE,560H5,PUBLIC STREET NAMES
2136,TOPPINGTON,DR,,TOPPINGTON DRIVE,592C1,PUBLIC STREET NAMES
2225,TESLA,TER,,TESLA TERRACE,594D3,PUBLIC STREET NAMES
2291,TAMARACK,AVE,,TAMARACK AVENUE,502B1,PUBLIC STREET NAMES
2081,TRISTE,PL,,TRISTE PLACE,560H4,PUBLIC STREET NAMES
2179,TILLIE,ST,,TILLIE STREET,594H4,PUBLIC STREET NAMES
2199,THORPE,AVE,,THORPE AVENUE,594H5,PUBLIC STREET NAMES
2115,TOWER GROVE,PL,,TOWER GROVE PLACE,592D6,PUBLIC STREET NAMES
2089,TRIBUNE,ST,,TRIBUNE STREET,501E3,PUBLIC STREET NAMES
2265,TEESDALE,AVE,,TEESDALE AVENUE,532E2,PUBLIC STREET NAMES
10669,TRENTINO,LANE,,TRENTINO LANE,500C1,PRIVATE STREET NAMES
2080,TROLLEY,PL,,TROLLEY PLACE,702A3,PUBLIC STREET NAMES
2152,TOLUCA,ST,,TOLUCA STREET,634E2,PUBLIC STREET NAMES
2298,TAHITI,WAY,,TAHITI WAY,701J1,PUBLIC STREET NAMES
2273,TATUM,ST,,TATUM STREET,594H4,PUBLIC STREET NAMES
2289,TAMOSHANTER,LANE,,TAMOSHANTER LANE,560F5,PUBLIC STREET NAMES
2283,TARANTO,WAY,,TARANTO WAY,592A5,PUBLIC STREET NAMES
2229,TERRYHILL,PL,,TERRYHILL PLACE,631H3,PUBLIC STREET NAMES
2207,THOMAS,ST,,THOMAS STREET,595B6,PUBLIC STREET NAMES
2163,TOBIN,WAY,,TOBIN WAY,561G7,PUBLIC STREET NAMES
2168,TITUS,ST,,TITUS STREET,532A2,PUBLIC STREET NAMES
2301,TACOMA,AVE,,TACOMA AVENUE,594J4,PUBLIC STREET NAMES
10597,TRAMMELL,LANE,,TRAMMELL LANE,500E2,PRIVATE STREET NAMES
2272,TAU,PL,,TAU PLACE,500D3,PUBLIC STREET NAMES
2137,TOPOCK,ST,,TOPOCK STREET,594E1,PUBLIC STREET NAMES
191,TAPER,AVE,,TAPER AVENUE,823J1,PRIVATE STREET NAMES
2139,TOPLEY,LANE,,TOPLEY LANE,503J4,PUBLIC STREET NAMES
2143,TOPAZ,ST,,TOPAZ STREET,595D6,PUBLIC STREET NAMES
2039,TURQUOISE,ST,,TURQUOISE STREET,595D7,PUBLIC STREET NAMES
2242,TERHUNE,AVE,,TERHUNE AVENUE,503A4,PUBLIC STREET NAMES
2037,TUSCANY,AVE,,TUSCANY AVENUE,702B3,PUBLIC STREET NAMES
2299,TAFT,AVE,,TAFT AVENUE,593G3,PUBLIC STREET NAMES
2169,TITIAN,AVE,,TITIAN AVENUE,481C4,PUBLIC STREET NAMES
9734,THORNE,ROAD,,THORNE ROAD,565A7,UNOFFICIAL PRIVATE STREET NAMES
2193,THURSTON,AVE,,THURSTON AVENUE,631H1,PUBLIC STREET NAMES
2249,TENNESSEE,AVE,,TENNESSEE AVENUE,632E4,PUBLIC STREET NAMES
2125,TORREYSON,PL,,TORREYSON PLACE,563A7,PUBLIC STREET NAMES
2036,TUSTIN,ST,,TUSTIN STREET,561J5,PUBLIC STREET NAMES
2276,TARZANA,DR,,TARZANA DRIVE,560J3,PUBLIC STREET NAMES
10654,TOWER GROVE,DR,,TOWER GROVE DRIVE,592D4,PRIVATE STREET NAMES
2198,THOUSAND OAKS,DR,,THOUSAND OAKS DRIVE,503J4,PUBLIC STREET NAMES
2048,TULSA,PL,,TULSA PLACE,501A2,PUBLIC STREET NAMES
2228,TERRYVIEW,DR,,TERRYVIEW DRIVE,563A6,PUBLIC STREET NAMES
2240,TERMINO,AVE,,TERMINO AVENUE,824B4,PUBLIC STREET NAMES
2026,TWISTED OAK,DR,,TWISTED OAK DRIVE,529C7,PUBLIC STREET NAMES
2281,TARECO,DR,,TARECO DRIVE,593D1,PUBLIC STREET NAMES
2021,TYRONE,AVE,,TYRONE AVENUE,502A7,PUBLIC STREET NAMES
2096,TREMAINE,AVE,,TREMAINE AVENUE,633E2,PUBLIC STREET NAMES
2286,TANAGER,WAY,,TANAGER WAY,592H5,PUBLIC STREET NAMES
176,TURTLE RIDGE,PL,,TURTLE RIDGE PLACE,480F6,PRIVATE STREET NAMES
2053,TULIP,LANE,,TULIP LANE,NA,PUBLIC STREET NAMES
2085,TRINITY,ST,,TRINITY STREET,634E7,PUBLIC STREET NAMES
187,THE,MALL,,THE MALL,635A7,PRIVATE STREET NAMES
2066,TRULL BROOK,DR,,TRULL BROOK DRIVE,560F7,PUBLIC STREET NAMES
2113,TOWNSEND,AVE,,TOWNSEND AVENUE,565B5,PUBLIC STREET NAMES
2216,THAYER,AVE,,THAYER AVENUE,632B2,PUBLIC STREET NAMES
2211,THE OLD,ROAD,,THE OLD ROAD,481C1,PUBLIC STREET NAMES
2234,TERRACE,LANE,,TERRACE LANE,595B2,PUBLIC STREET NAMES
2174,TIOGA,PL,,TIOGA PLACE,529J1,PUBLIC STREET NAMES
2219,THAMES,PL,,THAMES PLACE,593A2,PUBLIC STREET NAMES
2261,TELLEM,DR,,TELLEM DRIVE,630H4,PUBLIC STREET NAMES
2054,TULAROSA,DR,,TULAROSA DRIVE,594C6,PUBLIC STREET NAMES
178,TUNA,ST,,TUNA STREET,824D5,PRIVATE STREET NAMES
2030,TWIN HILLS,AVE,,TWIN HILLS AVENUE,500G1,PUBLIC STREET NAMES
177,TURTLE RIDGE,LANE,,TURTLE RIDGE LANE,480F6,PRIVATE STREET NAMES
2120,TOULON,DR,,TOULON DRIVE,631C5,PUBLIC STREET NAMES
11028,TOM MIX,ROAD,,TOM MIX ROAD,594E6,LIMITED ACCESS AREA NAMES
10546,TWILIGHT,AVE,,TWILIGHT AVENUE,481J5,PRIVATE ROADWAY NAMES
2269,TAVISTOCK,AVE,,TAVISTOCK AVENUE,631J1,PUBLIC STREET NAMES
2247,TENNYSON,PL,,TENNYSON PLACE,481C4,PUBLIC STREET NAMES
2239,TERRA BELLA,ST,,TERRA BELLA STREET,482H7,PUBLIC STREET NAMES
10032,TORREY PINES,LANE,,TORREY PINES LANE,560J5,PRIVATE STREET NAMES
2106,TRANQUIL,DR,,TRANQUIL DRIVE,504A6,PUBLIC STREET NAMES
9962,TODD VIEW,CT,,TODD VIEW COURT,529E1,PUBLIC STREET NAMES
2022,TYROLEAN,DR,,TYROLEAN DRIVE,563F7,PUBLIC STREET NAMES
2278,TARQUIN,ST,,TARQUIN STREET,482D3,PUBLIC STREET NAMES
2082,TRIPOLI,AVE,,TRIPOLI AVENUE,482D3,PUBLIC STREET NAMES
10700,TRAMAT,LANE,,TRAMAT LANE,560F4,PUBLIC STREET NAMES
2073,TROTWOOD,AVE,,TROTWOOD AVENUE,823H4,PUBLIC STREET NAMES
16,TOPSAIL,MALL,,TOPSAIL MALL,701J1,PEDESTRIAN MALL NAMES
10423,TALL PINE,CT,,TALL PINE COURT,533A2,PRIVATE STREET NAMES
2218,THAMES,ST,,THAMES STREET,593A2,PUBLIC STREET NAMES
2177,TIMMONS,TR,,TIMMONS TRAIL,593F2,PUBLIC STREET NAMES
2180,TILFORD,CT,,TILFORD COURT,481B6,PUBLIC STREET NAMES
2150,TOMAHAWK,TR,,TOMAHAWK TRAIL,529D1,PUBLIC STREET NAMES
2254,TEMPLETON,ST,,TEMPLETON STREET,595G6,PUBLIC STREET NAMES
2077,TROOST,AVE,,TROOST AVENUE,532H2,PUBLIC STREET NAMES
2075,TROPICO,WAY,,TROPICO WAY,594J3,PUBLIC STREET NAMES
2035,TUXEDO,TER,,TUXEDO TERRACE,593G2,PUBLIC STREET NAMES
2117,TOWER,ROAD,,TOWER ROAD,592D5,PUBLIC STREET NAMES
2114,TOWNE,AVE,,TOWNE AVENUE,634G5,PUBLIC STREET NAMES
2109,TRACY,TER,,TRACY TERRACE,594C4,PUBLIC STREET NAMES
2227,TERZILLA,PL,,TERZILLA PLACE,564G7,PUBLIC STREET NAMES
2046,TUNNEY,AVE,,TUNNEY AVENUE,500F4,PUBLIC STREET NAMES
10281,TROUSDALE,PKWY,,TROUSDALE PARKWAY,674B1,PRIVATE ROADWAY NAMES
2094,TRENT,CT,,TRENT COURT,564H7,PUBLIC STREET NAMES
2233,TERRACE HEIGHTS,AVE,,TERRACE HEIGHTS AVENUE,635A6,PUBLIC STREET NAMES
2049,TULSA,LANE,,TULSA LANE,500D2,PUBLIC STREET NAMES
193,TANNERS,ROAD,,TANNERS ROAD,631D1,PRIVATE STREET NAMES
2051,TULLER,ROAD,,TULLER ROAD,635F1,PUBLIC STREET NAMES
2083,TRINO,WAY,,TRINO WAY,630H6,PUBLIC STREET NAMES
2064,TRUXTON,AVE,,TRUXTON AVENUE,702H1,PUBLIC STREET NAMES
2161,TOKAY,ROAD,,TOKAY ROAD,504C4,PUBLIC STREET NAMES
2069,TRUDY,DR,,TRUDY DRIVE,592C1,PUBLIC STREET NAMES
2134,TOPSAIL,ST,,TOPSAIL STREET,NA,PEDESTRIAN MALL NAMES
2256,TEMPLE,ST,,TEMPLE STREET,634H4,PUBLIC STREET NAMES
2067,TRUESDALE,ST,,TRUESDALE STREET,502H5,PUBLIC STREET NAMES
2196,THRUSH,WAY,,THRUSH WAY,592H4,PUBLIC STREET NAMES
10558,TAMBERLY,LANE,,TAMBERLY LANE,503J2,PRIVATE STREET NAMES
2253,TENANGO,DR,,TENANGO DRIVE,560E4,PUBLIC STREET NAMES
2140,TOPHAM,ST,,TOPHAM STREET,560G1,PUBLIC STREET NAMES
2058,TUJUNGA,AVE,,TUJUNGA AVENUE,502H6,PUBLIC STREET NAMES
2131,TOQUET,DR,,TOQUET DRIVE,561C4,PUBLIC STREET NAMES
2176,TINA,PL,,TINA PLACE,560G4,PUBLIC STREET NAMES
2280,TARLETON,ST,,TARLETON STREET,674G1,PUBLIC STREET NAMES
2217,THATCHER,AVE,,THATCHER AVENUE,672A6,PUBLIC STREET NAMES
2295,TAHQUITZ,PL,,TAHQUITZ PLACE,630J5,PUBLIC STREET NAMES
2159,TOLAND,PL,,TOLAND PLACE,594J1,PUBLIC STREET NAMES
10189,TANAMACHI,LANE,,TANAMACHI LANE,734B5,PRIVATE STREET NAMES
2192,THURSTON,CIR,,THURSTON CIRCLE,631H1,PUBLIC STREET NAMES
2284,TARA,DR,,TARA DRIVE,561D4,PUBLIC STREET NAMES
10862,TAMARACK,CT,,TAMARACK COURT,501H6,PRIVATE ROADWAY NAMES
184,TOPAZ,ST,,TOPAZ STREET,595D6,PRIVATE STREET NAMES
2147,TONY,AVE,,TONY AVENUE,529E6,PUBLIC STREET NAMES
9736,TULSA,ST,,TULSA STREET,501G2,UNOFFICIAL PRIVATE STREET NAMES
2056,TUJUNGA CANYON,PL,,TUJUNGA CANYON PLACE,504C5,PUBLIC STREET NAMES
2097,TREGO,ST,,TREGO STREET,482C1,PUBLIC STREET NAMES
2213,THELMA,AVE,,THELMA AVENUE,595E6,PUBLIC STREET NAMES
2034,TUXFORD,PL,,TUXFORD PLACE,503A7,PUBLIC STREET NAMES
2204,THORNE,ST,,THORNE STREET,595E2,PUBLIC STREET NAMES
2057,TUJUNGA CANYON,BLVD,,TUJUNGA CANYON BOULEVARD,503J2,PUBLIC STREET NAMES
2040,TURQUESA,LANE,,TURQUESA LANE,630H4,PUBLIC STREET NAMES
2255,TEMPLE HILL,DR,,TEMPLE HILL DRIVE,593F3,PUBLIC STREET NAMES
2088,TRIGGER,PL,,TRIGGER PLACE,499H5,PUBLIC STREET NAMES
2224,TESLA,WALK,,TESLA WALK,594D4,PUBLIC STREET NAMES
2157,TOLEDO,CT,,TOLEDO COURT,671H6,PUBLIC STREET NAMES
2205,THORNBURN,ST,,THORNBURN STREET,703A1,PUBLIC STREET NAMES
2223,TEVIOT,ST,,TEVIOT STREET,594E4,PUBLIC STREET NAMES
2236,TERRACE 49,,,TERRACE 49,595A2,PUBLIC STREET NAMES
10663,TRIESTE,LANE,,TRIESTE LANE,500C1,PRIVATE STREET NAMES
2154,TOLTEC,WAY,,TOLTEC WAY,595D3,PUBLIC STREET NAMES
2252,TENDILLA,AVE,,TENDILLA AVENUE,560A3,PUBLIC STREET NAMES
181,TRIBUNE,ST,,TRIBUNE STREET,6B2,PRIVATE STREET NAMES
9915,TUNBRIDGE,CT,,TUNBRIDGE COURT,591G3,PRIVATE STREET NAMES
2195,THUNDERBIRD,AVE,,THUNDERBIRD AVENUE,480F7,PUBLIC STREET NAMES
2028,TWINING,ST,,TWINING STREET,595E6,PUBLIC STREET NAMES
2186,TIFFANY,AVE,,TIFFANY AVENUE,502B1,PUBLIC STREET NAMES
1647,TARZANA ESTATES,DR,,TARZANA ESTATES DRIVE,560F5,PRIVATE STREET NAMES
2212,THELMA,ST,,THELMA STREET,502J4,PUBLIC STREET NAMES
9620,TURTLE SPRINGS,WAY,,TURTLE SPRINGS WAY,480E6,PRIVATE STREET NAMES
2277,TARRYBRAE,TER,,TARRYBRAE TERRACE,560F5,PUBLIC STREET NAMES
2287,TAMPICO,AVE,,TAMPICO AVENUE,595E5,PUBLIC STREET NAMES
2271,TAVENER,AVE,,TAVENER AVENUE,672F4,PUBLIC STREET NAMES
2050,TULLIS,DR,,TULLIS DRIVE,592F4,PUBLIC STREET NAMES
2033,TUXFORD,ST,,TUXFORD STREET,503B7,PUBLIC STREET NAMES
10467,TERAMO,WAY,,TERAMO WAY,500D1,PRIVATE STREET NAMES
2072,TROUVILLE,AVE,,TROUVILLE AVENUE,NA,PUBLIC STREET NAMES
2187,TICA,DR,,TICA DRIVE,594B2,PUBLIC STREET NAMES
2130,TORRANCE,BLVD,,TORRANCE BOULEVARD,764A4,PUBLIC STREET NAMES
10755,TIM,LANE,,TIM LANE,531D6,PRIVATE ROADWAY NAMES
2027,TWIN OAK,ST,,TWIN OAK STREET,594F5,PUBLIC STREET NAMES
189,TERMINAL,ST,,TERMINAL STREET,634G6,PRIVATE STREET NAMES
2238,TERRACE VIEW,DR,,TERRACE VIEW DRIVE,561D6,PUBLIC STREET NAMES
10648,TIGER EYE,DR,,TIGER EYE DRIVE,794A5,PRIVATE ROADWAY NAMES
2135,TOPSAIL,CT,,TOPSAIL COURT,701J1,PUBLIC STREET NAMES
2210,THE PASEO,,,THE PASEO,594H2,PUBLIC STREET NAMES
2084,TRINO,WALK,,TRINO WALK,630H6,PUBLIC STREET NAMES
2182,TILDEN,AVE,,TILDEN AVENUE,502A7,PUBLIC STREET NAMES
10925,TISDALE,DR,,TISDALE  DRIVE,NA,PUBLIC STREET NAMES
2032,TWEED,LANE,,TWEED LANE,631G4,PUBLIC STREET NAMES
2231,TERRILL,AVE,,TERRILL AVENUE,595D4,PUBLIC STREET NAMES
2206,THOMICIA,PL,,THOMICIA PLACE,559E1,PUBLIC STREET NAMES
2164,TOBIAS,AVE,,TOBIAS AVENUE,501J6,PUBLIC STREET NAMES
2124,TORTUOSO,WAY,,TORTUOSO WAY,592A6,PUBLIC STREET NAMES
2121,TOTTENHAM,CT,,TOTTENHAM COURT,592C1,PUBLIC STREET NAMES
2292,TALOFA,AVE,,TALOFA AVENUE,563C4,PUBLIC STREET NAMES
2158,TOLAND,WAY,,TOLAND WAY,595A2,PUBLIC STREET NAMES
2262,TELFAIR,AVE,,TELFAIR AVENUE,481F4,PUBLIC STREET NAMES
2149,TONAWANDA,AVE,,TONAWANDA AVENUE,564J7,PUBLIC STREET NAMES
2173,TIONE,ROAD,,TIONE ROAD,592A6,PUBLIC STREET NAMES
2266,TEED,ST,,TEED STREET,634G3,PUBLIC STREET NAMES
2260,TELLEZ,ST,,TELLEZ STREET,531A6,PUBLIC STREET NAMES
10452,TALL PINE,CT,,TALL PINE COURT,NA,PRIVATE STREET NAMES
10541,THE GROVE,DR,,THE GROVE DRIVE,633B1,PUBLIC STREET NAMES
2052,TULLER,AVE,,TULLER AVENUE,672D2,PUBLIC STREET NAMES
2118,TOURMALINE,WALK,,TOURMALINE WALK,36C5,PUBLIC STREET NAMES
2156,TOLEDO,ST,,TOLEDO STREET,595D1,PUBLIC STREET NAMES
2031,TWILIGHT,LANE,,TWILIGHT LANE,561B5,PUBLIC STREET NAMES
2042,TURNBOW,DR,,TURNBOW DRIVE,503F3,PUBLIC STREET NAMES
179,TULSA,ST,,TULSA STREET,499J3,PRIVATE STREET NAMES
2138,TOPOCHICO,DR,,TOPOCHICO DRIVE,560B5,PUBLIC STREET NAMES
2038,TUSCAN,DR,,TUSCAN DRIVE,481B4,PUBLIC STREET NAMES
2189,TIARA,ST,,TIARA STREET,533B7,PUBLIC STREET NAMES
2294,TALBERT,ST,,TALBERT STREET,702C3,PUBLIC STREET NAMES
2162,TODD,CT,,TODD COURT,532F3,PUBLIC STREET NAMES
10192,TERRAPIN,WAY,,TERRAPIN WAY,504A3,PRIVATE STREET NAMES
2188,TIBBETTS,ST,,TIBBETTS STREET,482E2,PUBLIC STREET NAMES
2055,TUJUNGA VALLEY,ST,,TUJUNGA VALLEY STREET,503G2,PUBLIC STREET NAMES
2181,TILDEN,AVE,,TILDEN AVENUE,631J1,PUBLIC STREET NAMES
2060,TUCKER,AVE,,TUCKER AVENUE,482E1,PUBLIC STREET NAMES
2068,TRUE KNOLL,DR,,TRUE KNOLL DRIVE,504C6,PUBLIC STREET NAMES
194,TALUS,PL,,TALUS PLACE,592G1,PRIVATE STREET NAMES
2065,TRUMAN,AVE,,TRUMAN AVENUE,481J6,PUBLIC STREET NAMES
10723,THUNDERBIRD,DR,,THUNDERBIRD DRIVE,531G1,PRIVATE ROADWAY NAMES
2101,TREADWELL,ST,,TREADWELL STREET,594F1,PUBLIC STREET NAMES
2290,TAMARIND,AVE,,TAMARIND AVENUE,593G3,PUBLIC STREET NAMES
2105,TRANQUIL,PL,,TRANQUIL PLACE,504A6,PUBLIC STREET NAMES
2090,TRIBUNE,PL,,TRIBUNE PLACE,501A2,PUBLIC STREET NAMES
2267,TEALE,ST,,TEALE STREET,672G6,PUBLIC STREET NAMES
9764,TUSCAN,CT,,TUSCAN COURT,481A5,PUBLIC STREET NAMES
10148,THURZAL,PL,,THURZAL PLACE,531E4,PRIVATE ROADWAY NAMES
2282,TARCUTO,WAY,,TARCUTO WAY,591J7,PUBLIC STREET NAMES
2248,TENNESSEE,PL,,TENNESSEE PLACE,632A7,PUBLIC STREET NAMES
2226,TESLA,AVE,,TESLA AVENUE,594D4,PUBLIC STREET NAMES
2172,TIPICO,ST,,TIPICO STREET,500E4,PUBLIC STREET NAMES
2104,TRANQUILLO,ROAD,,TRANQUILLO ROAD,630F5,PUBLIC STREET NAMES
2274,TARZANA WOODS,DR,,TARZANA WOODS DRIVE,560F3,PUBLIC STREET NAMES
2235,TERRACE 52,,,TERRACE 52,595C3,PUBLIC STREET NAMES
10259,TOSCO,LANE,,TOSCO LANE,794B7,PRIVATE ROADWAY NAMES
2151,TOLUCA LAKE,AVE,,TOLUCA LAKE AVENUE,563C5,PUBLIC STREET NAMES
2250,TENNEB,DR,,TENNEB DRIVE,631G4,PUBLIC STREET NAMES
2100,TREASURE,TR,,TREASURE TRAIL,593D1,PUBLIC STREET NAMES
2293,TALMADGE,ST,,TALMADGE STREET,594B3,PUBLIC STREET NAMES
2170,TIPTON,WAY,,TIPTON WAY,565D7,PUBLIC STREET NAMES
2093,TRENT,WAY,,TRENT WAY,564H7,PUBLIC STREET NAMES
10802,TOPHAM REGENCY,LANE,,TOPHAM REGENCY LANE,530H7,PRIVATE ROADWAY NAMES
10288,TRAIL VIEW,CT,,TRAIL VIEW COURT,481H6,PUBLIC STREET NAMES
2044,TUPPER,ST,,TUPPER STREET,502A6,PUBLIC STREET NAMES
2099,TREBERT,PL,,TREBERT PLACE,504C6,PUBLIC STREET NAMES
2245,TEPOCA,ROAD,,TEPOCA ROAD,560C5,PUBLIC STREET NAMES
2183,TIKITA,PL,,TIKITA PLACE,563C5,PUBLIC STREET NAMES
2185,TIFFANY,CIR,,TIFFANY CIRCLE,562A7,PUBLIC STREET NAMES
2063,TRYON,ROAD,,TRYON ROAD,593H3,PUBLIC STREET NAMES
2230,TERRY,PL,,TERRY PLACE,595A7,PUBLIC STREET NAMES
2070,TRUCKEY,ST,,TRUCKEY STREET,NA,PUBLIC STREET NAMES
2086,TRINIDAD,ROAD,,TRINIDAD ROAD,560C6,PUBLIC STREET NAMES
10006,TURTLE RIDGE,WAY,,TURTLE RIDGE WAY,480F5,PRIVATE STREET NAMES
188,TERMINAL,WAY,,TERMINAL WAY,824G3,PRIVATE STREET NAMES
10362,TOWN,CTR,,TOWN CENTER,500E2,PRIVATE ROADWAY NAMES
2165,TOBERMAN,ST,,TOBERMAN STREET,634C5,PUBLIC STREET NAMES
10668,TRAPANI,LANE,,TRAPANI LANE,500C1,PRIVATE STREET NAMES
10532,TWINING,WAY,,TWINING WAY,530A3,PUBLIC STREET NAMES
2201,THORNTON,PL,,THORNTON PLACE,671G5,PUBLIC STREET NAMES
2123,TOSCA,ROAD,,TOSCA ROAD,560C5,PUBLIC STREET NAMES
2220,TEXHOMA,AVE,,TEXHOMA AVENUE,501B5,PUBLIC STREET NAMES
2214,THE KINNEY,PZ,,THE KINNEY PLAZA,671H6,PUBLIC STREET NAMES
2263,TEHRAN,ST,,TEHRAN STREET,NA,PUBLIC STREET NAMES
2145,TOPANGA CANYON,BLVD,,TOPANGA CANYON BOULEVARD,500A1,PUBLIC STREET NAMES
2202,THORNTON,CT,,THORNTON COURT,671G5,PUBLIC STREET NAMES
2246,TENSHAW,PL,,TENSHAW PLACE,565B6,PUBLIC STREET NAMES
10255,THELMA,ST,,THELMA STREET,502F7,PRIVATE STREET NAMES
2144,TOPANGA CANYON,PL,,TOPANGA CANYON PLACE,500A5,PUBLIC STREET NAMES
2071,TROY,DR,,TROY DRIVE,563D6,PUBLIC STREET NAMES
192,TANNERBRIDGE,ROAD,,TANNERBRIDGE ROAD,591J4,PRIVATE STREET NAMES
2275,TARZANA,ST,,TARZANA STREET,561C3,PUBLIC STREET NAMES
2041,TURNER,ST,,TURNER STREET,634G4,PUBLIC STREET NAMES
10331,TRILLIUM,DRWY,,TRILLIUM DRIVEWAY,530B7,PRIVATE ROADWAY NAMES
2078,TROON,AVE,,TROON AVENUE,632E6,PUBLIC STREET NAMES
2302,TACANA,ST,,TACANA STREET,673C2,PUBLIC STREET NAMES
2108,TRAMONTO,DR,,TRAMONTO DRIVE,630G6,PUBLIC STREET NAMES
2258,TEMECULA,ST,,TEMECULA STREET,630J5,PUBLIC STREET NAMES
2126,TORREYSON,DR,,TORREYSON DRIVE,563A7,PUBLIC STREET NAMES
10941,THAI,CT,,THAI COURT,531J1,LIMITED ACCESS AREA NAMES
10126,TIARA DEL SOL,,,TIARA DEL SOL,NA,PRIVATE ROADWAY NAMES
2268,TEAKWOOD,ROAD,,TEAKWOOD ROAD,631E1,PUBLIC STREET NAMES
2191,THURSTON,PL,,THURSTON PLACE,631H1,PUBLIC STREET NAMES
2047,TULSA,ST,,TULSA STREET,501G2,PUBLIC STREET NAMES
2043,TURNBERRY,DR,,TURNBERRY DRIVE,560E6,PUBLIC STREET NAMES
2232,TERRAZA,DR,,TERRAZA DRIVE,673B2,PUBLIC STREET NAMES
10456,TORINO,WAY,,TORINO WAY,500D1,PRIVATE STREET NAMES
10132,THAMES,PL,,THAMES PLACE,500G7,PRIVATE ROADWAY NAMES
2175,TINKER,AVE,,TINKER AVENUE,503H2,PUBLIC STREET NAMES
2079,TROLLEYWAY,,,TROLLEYWAY,702A3,PUBLIC STREET NAMES
2127,TORREON,PL,,TORREON PLACE,560B5,PUBLIC STREET NAMES
2092,TRENTLY,LANE,,TRENTLY LANE,592F3,PUBLIC STREET NAMES
2074,TROSA,ST,,TROSA STREET,481B4,PUBLIC STREET NAMES
2259,TELLURIDE,ST,,TELLURIDE STREET,595C7,PUBLIC STREET NAMES
2122,TOTANA,DR,,TOTANA DRIVE,560F4,PUBLIC STREET NAMES
2285,TAPER,AVE,,TAPER AVENUE,824A1,PUBLIC STREET NAMES
2251,TENINO,AVE,,TENINO AVENUE,672E4,PUBLIC STREET NAMES
2257,TEMESCAL CANYON,ROAD,,TEMESCAL CANYON ROAD,631A5,PUBLIC STREET NAMES
2303,TABOR,ST,,TABOR STREET,632G7,PUBLIC STREET NAMES
2133,TOPSAIL,ST,,TOPSAIL STREET,701J2,PUBLIC STREET NAMES
2203,THORNTON,AVE,,THORNTON AVENUE,671G5,PUBLIC STREET NAMES
2020,TYSON,PL,,TYSON PLACE,481B5,PUBLIC STREET NAMES
2264,TEHAMA,ST,,TEHAMA STREET,565C7,PUBLIC STREET NAMES
9997,TURTLE SPRINGS,LANE,,TURTLE SPRINGS LANE,480F7,PRIVATE STREET NAMES
2155,TOLENAS,DR,,TOLENAS DRIVE,562F6,PUBLIC STREET NAMES
182,TOWER,LANE,,TOWER LANE,592D6,PRIVATE STREET NAMES
10506,TERI,CT,,TERI COURT,529J2,PRIVATE ROADWAY NAMES
2237,TERRACE,DR,,TERRACE DRIVE,595C2,PUBLIC STREET NAMES
9617,TURTLE SPRINGS,CT,,TURTLE SPRINGS COURT,480F6,PRIVATE STREET NAMES
2222,TEXANIO,TR,,TEXANIO TRAIL,529D2,PUBLIC STREET NAMES
2059,TUDOR,DR,,TUDOR DRIVE,561E6,PUBLIC STREET NAMES
2129,TORRANCE,PL,,TORRANCE PLACE,NA,PUBLIC STREET NAMES
2200,THORNTON,ST,,THORNTON STREET,635C4,PUBLIC STREET NAMES
2132,TORCH,ST,,TORCH STREET,559D1,PUBLIC STREET NAMES
2288,TAMPA,AVE,,TAMPA AVENUE,480G6,PUBLIC STREET NAMES
2128,TORREON,DR,,TORREON DRIVE,560B5,PUBLIC STREET NAMES
2024,TYBURN,ST,,TYBURN STREET,594E1,PUBLIC STREET NAMES
2166,TIVOLI,AVE,,TIVOLI AVENUE,672B5,PUBLIC STREET NAMES
2098,TREGO,PL,,TREGO PLACE,482C1,PUBLIC STREET NAMES
9732,TERRACE,DR,,TERRACE DRIVE,630J6,UNOFFICIAL PRIVATE STREET NAMES
183,TOURMALINE,ST,,TOURMALINE STREET,36C5,PRIVATE STREET NAMES
2112,TOYOPA,DR,,TOYOPA DRIVE,631B5,PUBLIC STREET NAMES
2095,TREMONT,ST,,TREMONT STREET,635C3,PUBLIC STREET NAMES
2023,TYLER,ST,,TYLER STREET,482B1,PUBLIC STREET NAMES
2270,TAVERN,TR,,TAVERN TRAIL,593A3,PUBLIC STREET NAMES
10883,TESSA JANE,DR,,TESSA JANE DRIVE,671J7,PRIVATE ROADWAY NAMES
2116,TOWER GROVE,DR,,TOWER GROVE DRIVE,592D4,PUBLIC STREET NAMES
9731,TERRACE,CIR,,TERRACE CIRCLE,630H6,UNOFFICIAL PRIVATE STREET NAMES
2119,TOURMALINE,ST,,TOURMALINE STREET,595C7,PUBLIC STREET NAMES
2087,TRIGGER,ST,,TRIGGER STREET,499G5,PUBLIC STREET NAMES
2171,TIPTON,TER,,TIPTON TERRACE,565C7,PUBLIC STREET NAMES
2241,TERMINAL ISLAND,FRWY,,TERMINAL ISLAND FREEWAY,794J5,PUBLIC STREET NAMES
9735,TOLL BOOTH,ROAD,,TOLL BOOTH ROAD,563B6,UNOFFICIAL PRIVATE STREET NAMES
11074,TAMARRON,LANE,,TAMARRON LANE,480C6,PRIVATE STREET NAMES
11090,TRAFFORD,LANE,,TRAFFORD LANE,633A6,PRIVATE STREET NAMES
11128,TWEEDY,BLVD,,TWEEDY BLVD,704J4,PUBLIC STREET NAMES
11084,TOLUCA,CT,,TOLUCA COURT,563B4,LIMITED ACCESS AREA NAMES
11088,TUDOR,LANE,,TUDOR LANE,633A6,PRIVATE STREET NAMES
11211,THE TERRACE,,,THE TERRACE,591E3,UNOFFICIAL PRIVATE STREET NAMES
11212,THE VISTA,,,THE VISTA,591E4,UNOFFICIAL PRIVATE STREET NAMES
11255,TEAZLE CANYON,ROAD,,TEAZLE CANYON ROAD,503D4,UNOFFICIAL PRIVATE STREET NAMES
11261,TUDOR,CT,,TUDOR COURT,500C1,PRIVATE STREET NAMES
