Street ID,Street Name,Street Suffix,Street Suffix Direction,Official Street Name,Thomas Brothers Map,Street Type
9840,WILLOW,WAY,,WILLOW WAY,502F1,PRIVATE ROADWAY NAMES
78,WHEATLAND,AVE,,WHEATLAND AVENUE,533B3,PRIVATE STREET NAMES
1403,WOODROW,AVE,,WOODROW AVENUE,565A7,PUBLIC STREET NAMES
1430,WOODCLIFF,ROAD,,WOODCLIFF ROAD,561H5,PUBLIC STREET NAMES
1532,WICKS,ST,,WICKS STREET,503A4,PUBLIC STREET NAMES
1546,WHITESPEAK,DR,,WHITESPEAK DRIVE,561H6,PUBLIC STREET NAMES
9555,WORLD,WAY,,WORLD WAY,702G5,PRIVATE STREET NAMES
10951,WOODBURN,DR,,WOODBURN DRIVE,631G1,PRIVATE STREET NAMES
1434,WOODBINE,ST,,WOODBINE STREET,632F6,PUBLIC STREET NAMES
1548,WHITE OAK,PL,,WHITE OAK PLACE,561B4,PUBLIC STREET NAMES
10354,WYNFREED,LANE,,WYNFREED LANE,480D6,PRIVATE STREET NAMES
1538,WHITNALL,HWY,,WHITNALL HIGHWAY,563B1,PUBLIC STREET NAMES
9929,WATCHORN,WALK,,WATCHORN WALK,824C7,PRIVATE STREET NAMES
1533,WICKLOW,ROAD,,WICKLOW ROAD,632F6,PUBLIC STREET NAMES
1444,WOLLAM,ST,,WOLLAM STREET,594H3,PUBLIC STREET NAMES
1680,WATERVIEW,ST,,WATERVIEW STREET,702B4,PUBLIC STREET NAMES
1663,WEAVER,LANE,,WEAVER LANE,595D1,PUBLIC STREET NAMES
1410,WOODLAWN,CT,,WOODLAWN COURT,674C2,PUBLIC STREET NAMES
1368,WYNNE,AVE,,WYNNE AVENUE,530J2,PUBLIC STREET NAMES
1453,WISNER,AVE,,WISNER AVENUE,501H4,PUBLIC STREET NAMES
1380,WRIGHTVIEW,DR,,WRIGHTVIEW DRIVE,562J7,PUBLIC STREET NAMES
1474,WINFIELD,ST,,WINFIELD STREET,532D1,PUBLIC STREET NAMES
1698,WARMOUTH,ST,,WARMOUTH STREET,853G1,PUBLIC STREET NAMES
1614,WESTCOVE,DR,,WESTCOVE DRIVE,631E3,PUBLIC STREET NAMES
1509,WILLIAMS,PL,,WILLIAMS PLACE,635F1,PUBLIC STREET NAMES
89,WEST,WAY,,WEST WAY,702F5,PRIVATE STREET NAMES
1575,WESTWIND,ST,,WESTWIND STREET,NA,PEDESTRIAN MALL NAMES
1586,WEST POINT,PL,,WEST POINT PLACE,595A5,PUBLIC STREET NAMES
1617,WEST CHANNEL,ROAD,,WEST CHANNEL ROAD,631C7,PUBLIC STREET NAMES
98,WATER,ST,,WATER STREET,824F1,PRIVATE STREET NAMES
1689,WASHINGTON,BLVD,,WASHINGTON BOULEVARD,675B2,PUBLIC STREET NAMES
1653,WEEPAH,WAY,,WEEPAH WAY,593A3,PUBLIC STREET NAMES
1526,WILDE,ST,,WILDE STREET,634G5,PUBLIC STREET NAMES
1678,WATSON,AVE,,WATSON AVENUE,794G4,PUBLIC STREET NAMES
1429,WOODCOCK,AVE,,WOODCOCK AVENUE,481F2,PUBLIC STREET NAMES
10774,WHITE PALMS,LANE,,WHITE PALMS LANE,482C4,PRIVATE ROADWAY NAMES
1581,WESTSHIRE,DR,,WESTSHIRE DRIVE,593G1,PUBLIC STREET NAMES
1657,WEDDINGTON,ST,,WEDDINGTON STREET,563B2,PUBLIC STREET NAMES
1395,WOODSTONE,PL,,WOODSTONE PLACE,529C5,PUBLIC STREET NAMES
1635,WELLINGTON,ROAD,,WELLINGTON ROAD,633F5,PUBLIC STREET NAMES
1522,WILDWOOD,AVE,,WILDWOOD AVENUE,503B7,PUBLIC STREET NAMES
1666,WAYSIDE,DR,,WAYSIDE DRIVE,503D3,PUBLIC STREET NAMES
1411,WOODLAWN,CT,,WOODLAWN COURT,672A5,PUBLIC STREET NAMES
1722,WALL,ST,,WALL STREET,824C5,PUBLIC STREET NAMES
1655,WEEBURN,CT,,WEEBURN COURT,560F6,PUBLIC STREET NAMES
1487,WILSON,ST,,WILSON STREET,634H6,PUBLIC STREET NAMES
1518,WILHARDT,ST,,WILHARDT STREET,634H1,PUBLIC STREET NAMES
1508,WILLIMET,AVE,,WILLIMET AVENUE,564D7,PUBLIC STREET NAMES
9552,WOODS,PL,,WOODS PLACE,NA,PRIVATE STREET NAMES
72,WILSON,ST,,WILSON STREET,NA,PRIVATE STREET NAMES
1650,WEIDNER,ST,,WEIDNER STREET,482E7,PUBLIC STREET NAMES
1713,WALNUT,LANE,,WALNUT LANE,631J6,PUBLIC STREET NAMES
1446,WOLDRICH,ST,,WOLDRICH STREET,503B2,PUBLIC STREET NAMES
1651,WEIDLAKE,DR,,WEIDLAKE DRIVE,593F2,PUBLIC STREET NAMES
1640,WELLAND,AVE,,WELLAND AVENUE,673F2,PUBLIC STREET NAMES
1611,WESTERLY,TER,,WESTERLY TERRACE,594C6,PUBLIC STREET NAMES
1382,WREN,DR,,WREN DRIVE,595A3,PUBLIC STREET NAMES
1377,WRIGHTWOOD,DR,,WRIGHTWOOD DRIVE,563A6,PUBLIC STREET NAMES
1475,WINDWARD,CT,,WINDWARD COURT,671G6,PUBLIC STREET NAMES
1630,WENTWORTH,ST,,WENTWORTH STREET,503J2,PUBLIC STREET NAMES
1659,WEBER,PL,,WEBER PLACE,NA,PUBLIC STREET NAMES
10284,WEST 35TH,ST,,WEST 35TH STREET,674A1,PRIVATE ROADWAY NAMES
1463,WINONA,BLVD,,WINONA BOULEVARD,593J2,PUBLIC STREET NAMES
1440,WONDER VIEW,PL,,WONDER VIEW PLACE,563D7,PUBLIC STREET NAMES
1471,WINIFRED,ST,,WINIFRED STREET,560F3,PUBLIC STREET NAMES
10116,WESTERN HERITAGE,WAY,,WESTERN HERITAGE WAY,564B4,PRIVATE STREET NAMES
1379,WRIGHTVIEW,PL,,WRIGHTVIEW PLACE,562J7,PUBLIC STREET NAMES
10595,WARNER RANCH,ROAD,,WARNER RANCH ROAD,560B1,PRIVATE STREET NAMES
1534,WHITWORTH,DR,,WHITWORTH DRIVE,633B4,PUBLIC STREET NAMES
1414,WOODLAND VIEW,DR,,WOODLAND VIEW DRIVE,559C1,PUBLIC STREET NAMES
1416,WOODLAND,LANE,,WOODLAND LANE,593B4,PUBLIC STREET NAMES
64,WOODS,PL,,WOODS PLACE,593A4,PRIVATE STREET NAMES
79,WHARF,ST,,WHARF STREET,824D5,PRIVATE STREET NAMES
10264,WATT,WAY,,WATT WAY,674B1,PRIVATE ROADWAY NAMES
1367,WYNOLA,ST,,WYNOLA STREET,630J6,PUBLIC STREET NAMES
1695,WARNER,DR,,WARNER DRIVE,633A2,PUBLIC STREET NAMES
1708,WALTHER,WAY,,WALTHER WAY,631F2,PUBLIC STREET NAMES
1702,WARBLER,PL,,WARBLER PLACE,592H5,PUBLIC STREET NAMES
1622,WEST,DR,,WEST DRIVE,593A4,PUBLIC STREET NAMES
1711,WALNUT HILL,AVE,,WALNUT HILL AVENUE,595C5,PUBLIC STREET NAMES
9556,WORLD WAY,CIR,,WORLD WAY CIRCLE,NA,PRIVATE STREET NAMES
1401,WOODRUFF,AVE,,WOODRUFF AVENUE,592B7,PUBLIC STREET NAMES
1738,WADE,ST,,WADE STREET,672A2,PUBLIC STREET NAMES
1378,WRIGHTWOOD,CT,,WRIGHTWOOD COURT,563A7,PUBLIC STREET NAMES
9928,WHALERS,WALK,,WHALERS WALK,854C1,PRIVATE STREET NAMES
1375,WRIGHTWOOD,PL,,WRIGHTWOOD PLACE,563A6,PUBLIC STREET NAMES
10868,WESTFIELD,WAY,,WESTFIELD WAY,530A6,PRIVATE ROADWAY NAMES
10225,WESTCLIFF,DR,,WESTCLIFF DRIVE,481H7,PUBLIC STREET NAMES
1627,WERDIN,PL,,WERDIN PLACE,634F4,PUBLIC STREET NAMES
59,WORLD,WAY,WEST,WORLD WAY WEST,702E5,PRIVATE STREET NAMES
1699,WARING,AVE,,WARING AVENUE,593D6,PUBLIC STREET NAMES
101,WAREHOUSE,ST,,WAREHOUSE STREET,634G6,PRIVATE STREET NAMES
1590,WESTMOUNT,DR,,WESTMOUNT DRIVE,592J7,PUBLIC STREET NAMES
1669,WAYLAND,ST,,WAYLAND STREET,595D2,PUBLIC STREET NAMES
1686,WASHINGTON,WAY,,WASHINGTON WAY,671J6,PUBLIC STREET NAMES
1550,WHITE KNOLL,DR,,WHITE KNOLL DRIVE,634F1,PUBLIC STREET NAMES
1498,WILLOW GLEN,WALK,,WILLOW GLEN WALK,593A2,PUBLIC STREET NAMES
1530,WIGTOWN,ROAD,,WIGTOWN ROAD,632E6,PUBLIC STREET NAMES
1479,WINDSOR,AVE,,WINDSOR AVENUE,594D5,PUBLIC STREET NAMES
1690,WASATCH,AVE,,WASATCH AVENUE,672B3,PUBLIC STREET NAMES
1664,WEATHERFORD,DR,,WEATHERFORD DRIVE,673B2,PUBLIC STREET NAMES
1700,WARD,ST,,WARD STREET,565B6,PUBLIC STREET NAMES
9766,WOODVALE,CT,,WOODVALE COURT,529G4,PRIVATE ROADWAY NAMES
1629,WENTZEL,WAY,,WENTZEL WAY,481B4,PUBLIC STREET NAMES
9858,WALNUT,,,WALNUT,481G1,UNOFFICIAL PRIVATE STREET NAMES
1683,WATERFORD,ST,,WATERFORD STREET,631J3,PUBLIC STREET NAMES
1521,WILDWOOD,DR,,WILDWOOD DRIVE,565C7,PUBLIC STREET NAMES
1568,WEYBURN,AVE,,WEYBURN AVENUE,632B2,PUBLIC STREET NAMES
1705,WANDA,DR,,WANDA DRIVE,594B3,PUBLIC STREET NAMES
1496,WILL ROGERS,ST,,WILL ROGERS STREET,702H3,PUBLIC STREET NAMES
1601,WESTLAKE,AVE,,WESTLAKE AVENUE,634D1,PUBLIC STREET NAMES
1660,WEBER,AVE,,WEBER AVENUE,NA,PUBLIC STREET NAMES
1679,WATSEKA,AVE,,WATSEKA AVENUE,632G7,PUBLIC STREET NAMES
1396,WOODSTOCK,ROAD,,WOODSTOCK ROAD,593A1,PUBLIC STREET NAMES
1451,WITMER,ST,,WITMER STREET,634E2,PUBLIC STREET NAMES
1394,WOODVALE,ROAD,,WOODVALE ROAD,561G5,PUBLIC STREET NAMES
100,WARN,AVE,,WARN AVENUE,503C7,PRIVATE STREET NAMES
10475,WALT DISNEY,DR,,WALT DISNEY DRIVE,561F7,PRIVATE ROADWAY NAMES
1562,WHEELER,AVE,,WHEELER AVENUE,482A2,PUBLIC STREET NAMES
1646,WEIR,ST,,WEIR STREET,672F6,PUBLIC STREET NAMES
1431,WOODBURY,DR,,WOODBURY DRIVE,793J1,PUBLIC STREET NAMES
1676,WATSONIA,TER,,WATSONIA TERRACE,593E3,PUBLIC STREET NAMES
1535,WHITWELL,DR,,WHITWELL DRIVE,562C7,PUBLIC STREET NAMES
1728,WALDO,PL,,WALDO PLACE,565C5,PUBLIC STREET NAMES
1422,WOODGREEN,ST,,WOODGREEN STREET,672B3,PUBLIC STREET NAMES
1598,WESTMINSTER,AVE,,WESTMINSTER AVENUE,633G2,PUBLIC STREET NAMES
1616,WESTCHESTER,PKWY,,WESTCHESTER PARKWAY,702G3,PUBLIC STREET NAMES
1482,WINCHESTER,AVE,,WINCHESTER AVENUE,595G5,PUBLIC STREET NAMES
1610,WESTERN,AVE,,WESTERN AVENUE,593H3,PUBLIC STREET NAMES
1390,WOODY,TR,,WOODY TRAIL,593D1,PUBLIC STREET NAMES
1398,WOODSHIRE,DR,,WOODSHIRE DRIVE,593F1,PUBLIC STREET NAMES
9941,WELLINGTON,LANE,,WELLINGTON LANE,560F2,PRIVATE STREET NAMES
1409,WOODLEY,AVE,,WOODLEY AVENUE,481D5,PUBLIC STREET NAMES
95,WEALTHA,AVE,,WEALTHA AVENUE,502J4,PRIVATE STREET NAMES
1547,WHITE ROSE,WAY,,WHITE ROSE WAY,561E7,PUBLIC STREET NAMES
1723,WALL,ST,,WALL STREET,634G4,PUBLIC STREET NAMES
1469,WINMAR,DR,,WINMAR DRIVE,594H3,PUBLIC STREET NAMES
1491,WILSEY,AVE,,WILSEY AVENUE,503J3,PUBLIC STREET NAMES
1421,WOODHALL,AVE,,WOODHALL AVENUE,529F3,PUBLIC STREET NAMES
1497,WILLOW SPRING,LANE,,WILLOW SPRING LANE,503F4,PUBLIC STREET NAMES
68,WONDER VIEW,DR,,WONDER VIEW DRIVE,563D7,PRIVATE STREET NAMES
9544,WILSON,ST,,WILSON STREET,674H1,PRIVATE STREET NAMES
1412,WOODLAWN,AVE,,WOODLAWN AVENUE,671J5,PUBLIC STREET NAMES
10095,WESTCLIFF,DR,,WESTCLIFF DRIVE,529E4,PUBLIC STREET NAMES
1419,WOODHILL CANYON,ROAD,,WOODHILL CANYON ROAD,562G6,PUBLIC STREET NAMES
10857,WALNUT,ROAD,,WALNUT ROAD,481J4,PRIVATE ROADWAY NAMES
1595,WESTMINSTER,PL,,WESTMINSTER PLACE,672C2,PUBLIC STREET NAMES
1740,WABASH,AVE,,WABASH AVENUE,635B3,PUBLIC STREET NAMES
73,WILLOW,ST,,WILLOW STREET,NA,PRIVATE STREET NAMES
80,WESTWOOD,PZ,,WESTWOOD PLAZA,632A1,PRIVATE STREET NAMES
1576,WESTWIND,CT,,WESTWIND COURT,702A2,PUBLIC STREET NAMES
1739,WADDELL,ST,,WADDELL STREET,562E1,PUBLIC STREET NAMES
85,WESTCHESTER,DR,,WESTCHESTER DRIVE,560C4,PRIVATE STREET NAMES
10279,WEST 37TH,PL,,WEST 37TH PLACE,674A1,PRIVATE ROADWAY NAMES
1563,WHEATLAND,PL,,WHEATLAND PLACE,503B7,PUBLIC STREET NAMES
1484,WIMBERLY,AVE,,WIMBERLY AVENUE,481J7,PUBLIC STREET NAMES
94,WEDDINGTON,ST,,WEDDINGTON STREET,561B2,PRIVATE STREET NAMES
61,WORLD,WAY,,WORLD WAY,NA,PRIVATE STREET NAMES
1551,WHITE HOUSE,PL,,WHITE HOUSE PLACE,634A1,PUBLIC STREET NAMES
65,WOODHILL CANYON,ROAD,,WOODHILL CANYON ROAD,562G6,PRIVATE STREET NAMES
1674,WAVE CREST,AVE,,WAVE CREST AVENUE,671G6,PUBLIC STREET NAMES
10737,WHITE STONE,CT,,WHITE STONE COURT,560G1,PRIVATE STREET NAMES
1428,WOODCREST,DR,,WOODCREST DRIVE,561G6,PUBLIC STREET NAMES
1600,WESTLAND,AVE,,WESTLAND AVENUE,532F3,PUBLIC STREET NAMES
10115,WESTERN HERITAGE,WAY,,WESTERN HERITAGE WAY,564B4,PUBLIC STREET NAMES
1716,WALNUT,CT,,WALNUT COURT,672A4,PUBLIC STREET NAMES
10072,WEEPING BANYAN,LANE,,WEEPING BANYAN LANE,559J1,PRIVATE ROADWAY NAMES
1726,WALDRAN,AVE,,WALDRAN AVENUE,565B6,PUBLIC STREET NAMES
1573,WESTWOOD,BLVD,,WESTWOOD BOULEVARD,632A2,PUBLIC STREET NAMES
75,WHITES POINT,DR,,WHITES POINT DRIVE,NA,PRIVATE STREET NAMES
1513,WILLARD,ST,,WILLARD STREET,532G2,PUBLIC STREET NAMES
1639,WELLER,DR,,WELLER DRIVE,559G3,PUBLIC STREET NAMES
1441,WONDER VIEW,DR,,WONDER VIEW DRIVE,563E7,PUBLIC STREET NAMES
1423,WOODGLADE,LANE,,WOODGLADE LANE,529C5,PUBLIC STREET NAMES
1665,WEALTHA,AVE,,WEALTHA AVENUE,502J4,PUBLIC STREET NAMES
1366,WYOMING,AVE,,WYOMING AVENUE,631J5,PUBLIC STREET NAMES
1514,WILLAMAN,DR,,WILLAMAN DRIVE,632J1,PUBLIC STREET NAMES
1648,WEINBERG,ST,,WEINBERG STREET,499H4,PUBLIC STREET NAMES
1371,WYNDHAM,ROAD,,WYNDHAM ROAD,592J3,PUBLIC STREET NAMES
1626,WESCOTT,AVE,,WESCOTT AVENUE,503G2,PUBLIC STREET NAMES
1529,WILBUR,AVE,,WILBUR AVENUE,480F7,PUBLIC STREET NAMES
1500,WILLOW CREST,PL,,WILLOW CREST PLACE,563A6,PUBLIC STREET NAMES
71,WIMER COUNTRY,ROAD,,WIMER COUNTRY ROAD,503A4,PRIVATE STREET NAMES
1682,WATERLOO,ST,,WATERLOO STREET,634D1,PUBLIC STREET NAMES
10587,WISTFUL VISTA,WAY,,WISTFUL VISTA WAY,500E6,PRIVATE ROADWAY NAMES
1693,WARREN,ST,,WARREN STREET,634J4,PUBLIC STREET NAMES
1488,WILSON,AVE,,WILSON AVENUE,671J6,PUBLIC STREET NAMES
1673,WAVE CREST,CT,,WAVE CREST COURT,671G6,PUBLIC STREET NAMES
1544,WHITLEY,AVE,,WHITLEY AVENUE,593E3,PUBLIC STREET NAMES
1494,WILMINGTON,AVE,,WILMINGTON AVENUE,704G3,PUBLIC STREET NAMES
1613,WESTDALE,AVE,,WESTDALE AVENUE,565A7,PUBLIC STREET NAMES
57,WYNGATE,ST,,WYNGATE STREET,504A3,PRIVATE STREET NAMES
1388,WOOSTER,ST,,WOOSTER STREET,632J3,PUBLIC STREET NAMES
1574,WESTWIND,ST,,WESTWIND STREET,701J2,PUBLIC STREET NAMES
1386,WORNOM,AVE,,WORNOM AVENUE,503C5,PUBLIC STREET NAMES
10053,WHITEHALL,LANE,,WHITEHALL LANE,529D5,PUBLIC STREET NAMES
1572,WETHERLY,DR,,WETHERLY DRIVE,592H5,PUBLIC STREET NAMES
1694,WARREN,AVE,,WARREN AVENUE,672A3,PUBLIC STREET NAMES
1571,WETONA,DR,,WETONA DRIVE,NA,PUBLIC STREET NAMES
1466,WINNETKA,CIR,,WINNETKA CIRCLE,560E4,PUBLIC STREET NAMES
1718,WALLIS,LANE,,WALLIS LANE,560C1,PUBLIC STREET NAMES
1510,WILLETTA,AVE,,WILLETTA AVENUE,593F3,PUBLIC STREET NAMES
1644,WELCH,PL,,WELCH PLACE,594A3,PUBLIC STREET NAMES
1658,WEBSTER,AVE,,WEBSTER AVENUE,594C5,PUBLIC STREET NAMES
92,WEIDLAKE,DR,,WEIDLAKE DRIVE,593F2,PRIVATE STREET NAMES
1461,WINSLOW,DR,,WINSLOW DRIVE,594C6,PUBLIC STREET NAMES
83,WESTERN AVENUE CANYON,ROAD,,WESTERN AVENUE CANYON ROAD,593J1,PRIVATE STREET NAMES
1605,WESTHAVEN,ST,,WESTHAVEN STREET,633C7,PUBLIC STREET NAMES
1609,WESTERN HEIGHTS,WALK,,WESTERN HEIGHTS WALK,633H6,PUBLIC STREET NAMES
1649,WEIGAND,AVE,,WEIGAND AVENUE,704H5,PUBLIC STREET NAMES
10433,WILLOWBEND,LANE,,WILLOWBEND LANE,482A6,PRIVATE ROADWAY NAMES
1730,WALCOTT,WAY,,WALCOTT WAY,594F5,PUBLIC STREET NAMES
1732,WAKEFIELD,AVE,,WAKEFIELD AVENUE,532A1,PUBLIC STREET NAMES
1685,WATER,ST,,WATER STREET,824E1,PUBLIC STREET NAMES
99,WARNER CENTER,LANE,,WARNER CENTER LANE,560B2,PRIVATE STREET NAMES
1585,WESTRIDGE,ROAD,,WESTRIDGE ROAD,591C7,PUBLIC STREET NAMES
9896,WORTHING,LANE,,WORTHING LANE,591G3,PRIVATE STREET NAMES
88,WEST,WAY,,WEST WAY,481J2,PRIVATE STREET NAMES
1486,WILTON,DR,,WILTON DRIVE,633G1,PUBLIC STREET NAMES
9744,WESTVIEW,LANE,,WESTVIEW LANE,630J6,UNOFFICIAL PRIVATE STREET NAMES
1542,WHITLEY TERRACE,SP,,WHITLEY TERRACE STEPS,531G5,PUBLIC STREET NAMES
1620,WESTBORO,ST,,WESTBORO STREET,631E2,PUBLIC STREET NAMES
1619,WESTBROOK,AVE,,WESTBROOK AVENUE,593B1,PUBLIC STREET NAMES
1671,WAWONA,PL,,WAWONA PLACE,564J6,PUBLIC STREET NAMES
1654,WEEBURN,LANE,,WEEBURN LANE,560F5,PUBLIC STREET NAMES
1552,WHITEGATE,LANE,,WHITEGATE LANE,503H4,PUBLIC STREET NAMES
1415,WOODLAND,WAY,,WOODLAND WAY,593E3,PUBLIC STREET NAMES
1612,WEST EDGEWARE,ROAD,,WEST EDGEWARE ROAD,634E1,PUBLIC STREET NAMES
10496,WALT DISNEY,DR,,WALT DISNEY DRIVE,561F7,PRIVATE ROADWAY NAMES
1602,WEST KENSINGTON,ROAD,,WEST KENSINGTON ROAD,634E1,PUBLIC STREET NAMES
1439,WONDER VIEW,PZ,,WONDER VIEW PLAZA,563D7,PUBLIC STREET NAMES
1450,WITZEL,DR,,WITZEL DRIVE,562B6,PUBLIC STREET NAMES
1606,WESTGATE,AVE,,WESTGATE AVENUE,631G2,PUBLIC STREET NAMES
1478,WINDSOR,BLVD,,WINDSOR BOULEVARD,593G7,PUBLIC STREET NAMES
1733,WAINWRIGHT,AVE,,WAINWRIGHT AVENUE,794H6,PUBLIC STREET NAMES
1636,WELLESLEY,AVE,,WELLESLEY AVENUE,631G5,PUBLIC STREET NAMES
1480,WINDOM,ST,,WINDOM STREET,529G4,PUBLIC STREET NAMES
1489,WILSHIRE,PL,,WILSHIRE PLACE,634A3,PUBLIC STREET NAMES
1621,WEST ALBION,ST,,WEST ALBION STREET,NA,PUBLIC STREET NAMES
1445,WOLFSKILL,ST,,WOLFSKILL STREET,502A1,PUBLIC STREET NAMES
1437,WOOD,TER,,WOOD TERRACE,594C2,PUBLIC STREET NAMES
1709,WALSH,AVE,,WALSH AVENUE,672D6,PUBLIC STREET NAMES
1607,WESTFALL,PL,,WESTFALL PLACE,561E6,PUBLIC STREET NAMES
1503,WILLOW BROOK,AVE,,WILLOW BROOK AVENUE,594B6,PUBLIC STREET NAMES
9547,WOLFE,WAY,,WOLFE WAY,560C4,PRIVATE STREET NAMES
1549,WHITE OAK,AVE,,WHITE OAK AVENUE,501A1,PUBLIC STREET NAMES
77,WHITE,ST,,WHITE STREET,NA,PRIVATE STREET NAMES
10760,WATERFALL,LANE,,WATERFALL LANE,502D6,PRIVATE ROADWAY NAMES
81,WEST OBSERVATORY,DR,,WEST OBSERVATORY DRIVE,NA,PRIVATE STREET NAMES
1447,WOLCOTT,PL,,WOLCOTT PLACE,501J2,PUBLIC STREET NAMES
102,WANDA PARK,DR,,WANDA PARK DRIVE,592C3,PRIVATE STREET NAMES
1456,WISCONSIN,PL,,WISCONSIN PLACE,674A2,PUBLIC STREET NAMES
55,WYNWOOD,LANE,,WYNWOOD LANE,675B1,PRIVATE STREET NAMES
10207,WOOD RANCH,ROAD,,WOOD RANCH ROAD,481A6,PUBLIC STREET NAMES
1688,WASHINGTON,PL,,WASHINGTON PLACE,672D4,PUBLIC STREET NAMES
10708,WHITAKER,AVE,,WHITAKER AVENUE,531D4,PRIVATE STREET NAMES
1578,WEST VIEW,ST,,WEST VIEW STREET,633D6,PUBLIC STREET NAMES
1599,WESTLAWN,AVE,,WESTLAWN AVENUE,672D5,PUBLIC STREET NAMES
1736,WADSWORTH,AVE,,WADSWORTH AVENUE,674E2,PUBLIC STREET NAMES
1432,WOODBURN,DR,,WOODBURN DRIVE,631H2,PUBLIC STREET NAMES
1684,WATERBURY,ST,,WATERBURY STREET,559H5,PUBLIC STREET NAMES
62,WORKMAN,ROAD,,WORKMAN ROAD,481J1,PRIVATE STREET NAMES
1633,WELLWORTH,AVE,,WELLWORTH AVENUE,632B3,PUBLIC STREET NAMES
1476,WINDWARD,AVE,,WINDWARD AVENUE,672C3,PUBLIC STREET NAMES
1462,WINSFORD,AVE,,WINSFORD AVENUE,702J2,PUBLIC STREET NAMES
1642,WELDON,AVE,,WELDON AVENUE,594G1,PUBLIC STREET NAMES
1402,WOODROW WILSON,DR,,WOODROW WILSON DRIVE,593D1,PUBLIC STREET NAMES
1715,WALNUT,DR,,WALNUT DRIVE,503B5,PUBLIC STREET NAMES
13,WESTWIND,MALL,,WESTWIND MALL,702A2,PEDESTRIAN MALL NAMES
1399,WOODSHILL,TR,,WOODSHILL TRAIL,593A4,PUBLIC STREET NAMES
10910,WILLOW PARK,DR,,WILLOW PARK DRIVE,481J5,PRIVATE ROADWAY NAMES
1387,WORKMAN,ST,,WORKMAN STREET,595A7,PUBLIC STREET NAMES
1583,WEST ROSE HILL,DR,,WEST ROSE HILL DRIVE,595C6,PUBLIC STREET NAMES
1457,WIOTA,ST,,WIOTA STREET,565C6,PUBLIC STREET NAMES
1506,WILLOUGHBY,AVE,,WILLOUGHBY AVENUE,593F6,PUBLIC STREET NAMES
1372,WYCLIFF,PL,,WYCLIFF PLACE,823H6,PUBLIC STREET NAMES
1490,WILSHIRE,BLVD,,WILSHIRE BOULEVARD,634E4,PUBLIC STREET NAMES
1425,WOODFIELD,DR,,WOODFIELD DRIVE,561G6,PUBLIC STREET NAMES
10272,WESTOVER,PL,,WESTOVER PLACE,530E7,PRIVATE STREET NAMES
1597,WESTMINSTER,AVE,,WESTMINSTER AVENUE,672E1,PUBLIC STREET NAMES
1735,WAGNER,ST,,WAGNER STREET,672E5,PUBLIC STREET NAMES
1594,WESTMONT,DR,,WESTMONT DRIVE,824B1,PUBLIC STREET NAMES
1710,WALPOLE,DR,,WALPOLE DRIVE,504A5,PUBLIC STREET NAMES
10784,WHISTLER,WAY,,WHISTLER WAY,482C3,PRIVATE ROADWAY NAMES
1427,WOODED VISTA,,,WOODED VISTA,529C7,PUBLIC STREET NAMES
9554,WORKMAN,ROAD,,WORKMAN ROAD,481J1,PRIVATE STREET NAMES
1438,WONDER VIEW,SQ,,WONDER VIEW SQUARE,563D7,PUBLIC STREET NAMES
1385,WORTH,ST,,WORTH STREET,635D2,PUBLIC STREET NAMES
1443,WONDERLAND,AVE,,WONDERLAND AVENUE,592J2,PUBLIC STREET NAMES
10564,WILLOWGREEN,LANE,,WILLOWGREEN LANE,481J2,PRIVATE ROADWAY NAMES
1501,WILLOW CREST,AVE,,WILLOW CREST AVENUE,533B6,PUBLIC STREET NAMES
1404,WOODMONT,DR,,WOODMONT DRIVE,480G7,PUBLIC STREET NAMES
1420,WOODHAVEN,DR,,WOODHAVEN DRIVE,593F1,PUBLIC STREET NAMES
1477,WINDTREE,DR,,WINDTREE DRIVE,592A1,PUBLIC STREET NAMES
9765,WEST VAIL,DR,,WEST VAIL DRIVE,529F3,PRIVATE ROADWAY NAMES
1520,WILEY POST,AVE,,WILEY POST AVENUE,702H2,PUBLIC STREET NAMES
1516,WILKINS,AVE,,WILKINS AVENUE,632D2,PUBLIC STREET NAMES
1681,WATERMAN,WAY,,WATERMAN WAY,NA,PUBLIC STREET NAMES
1525,WILD OAK,DR,,WILD OAK DRIVE,593H2,PUBLIC STREET NAMES
1481,WINDERMERE,AVE,,WINDERMERE AVENUE,564J5,PUBLIC STREET NAMES
1504,WILLOWBRAE,AVE,,WILLOWBRAE AVENUE,500A2,PUBLIC STREET NAMES
70,WINNETKA,AVE,,WINNETKA AVENUE,500E2,PRIVATE STREET NAMES
9996,WINGED FOOT,WAY,,WINGED FOOT WAY,480E7,PRIVATE STREET NAMES
1554,WHITE,ST,,WHITE STREET,533A2,PUBLIC STREET NAMES
1557,WHISTLER,AVE,,WHISTLER AVENUE,481C4,PUBLIC STREET NAMES
1703,WANDERER,DR,,WANDERER DRIVE,823G6,PUBLIC STREET NAMES
10178,WOODLEY,LANE,,WOODLEY LANE,561E4,PRIVATE STREET NAMES
1539,WHITMORE,AVE,,WHITMORE AVENUE,594F5,PUBLIC STREET NAMES
1511,WILLENS,AVE,,WILLENS AVENUE,559G4,PUBLIC STREET NAMES
1596,WESTMINSTER,CT,,WESTMINSTER COURT,671G6,PUBLIC STREET NAMES
1662,WEAVER,ST,,WEAVER STREET,595C1,PUBLIC STREET NAMES
1464,WINNIE,DR,,WINNIE DRIVE,563D7,PUBLIC STREET NAMES
1707,WALTON,AVE,,WALTON AVENUE,634A5,PUBLIC STREET NAMES
10547,WINDMERE,DR,,WINDMERE DRIVE,481J6,PRIVATE ROADWAY NAMES
1392,WOODWARD,AVE,,WOODWARD AVENUE,503H2,PUBLIC STREET NAMES
10056,WISCASSET,DR,,WISCASSET DRIVE,529D3,PUBLIC STREET NAMES
1737,WADENA,ST,,WADENA STREET,595F5,PUBLIC STREET NAMES
103,WALDO,PL,,WALDO PLACE,NA,PRIVATE STREET NAMES
1540,WHITMAN,AVE,,WHITMAN AVENUE,501F2,PUBLIC STREET NAMES
1584,WESTRIDGE,TER,,WESTRIDGE TERRACE,631D2,PUBLIC STREET NAMES
1408,WOODLEY,PL,,WOODLEY PLACE,531F1,PUBLIC STREET NAMES
1564,WHEATLAND,AVE,,WHEATLAND AVENUE,503C1,PUBLIC STREET NAMES
9746,WILSHIRE,CT,,WILSHIRE COURT,NA,UNOFFICIAL PRIVATE STREET NAMES
1587,WEST POINT,DR,,WEST POINT DRIVE,595A5,PUBLIC STREET NAMES
1553,WHITEGATE,AVE,,WHITEGATE AVENUE,503H2,PUBLIC STREET NAMES
1391,WOODWARDIA,DR,,WOODWARDIA DRIVE,592A1,PUBLIC STREET NAMES
1567,WEYMOUTH,AVE,,WEYMOUTH AVENUE,823J5,PUBLIC STREET NAMES
91,WENTWORTH,ST,,WENTWORTH STREET,503F2,PRIVATE STREET NAMES
1435,WOODALE,AVE,,WOODALE AVENUE,501J3,PUBLIC STREET NAMES
1725,WALGROVE,AVE,,WALGROVE AVENUE,671J3,PUBLIC STREET NAMES
1668,WAYNE,AVE,,WAYNE AVENUE,594B2,PUBLIC STREET NAMES
1656,WEDGEWOOD,PL,,WEDGEWOOD PLACE,593E3,PUBLIC STREET NAMES
1577,WESTWANDA,DR,,WESTWANDA DRIVE,592B3,PUBLIC STREET NAMES
1670,WAWONA,ST,,WAWONA STREET,564H6,PUBLIC STREET NAMES
1459,WINTER,ST,,WINTER STREET,635C4,PUBLIC STREET NAMES
1468,WINNEBAGO,AVE,,WINNEBAGO AVENUE,501J3,PUBLIC STREET NAMES
1579,WEST SILVER LAKE,DR,,WEST SILVER LAKE DRIVE,594D4,PUBLIC STREET NAMES
1400,WOODS,DR,,WOODS DRIVE,593A4,PUBLIC STREET NAMES
9543,WILLOW,ST,,WILLOW STREET,NA,PRIVATE STREET NAMES
1460,WINSTON,ST,,WINSTON STREET,634G5,PUBLIC STREET NAMES
1483,WINANS,DR,,WINANS DRIVE,593G2,PUBLIC STREET NAMES
1591,WESTMOUNT,AVE,,WESTMOUNT AVENUE,673E4,PUBLIC STREET NAMES
9914,WETHERBY,LANE,,WETHERBY LANE,591G3,PRIVATE STREET NAMES
9551,WOODHILL CANYON,ROAD,,WOODHILL CANYON ROAD,NA,PRIVATE STREET NAMES
10426,WHITE,DR,,WHITE DRIVE,823H7,PRIVATE ROADWAY NAMES
1560,WHEELING,WAY,,WHEELING WAY,595D3,PUBLIC STREET NAMES
10894,WEST ICON,CIR,,WEST ICON CIRCLE,702D1,PRIVATE ROADWAY NAMES
86,WEST BASIN,AVE,,WEST BASIN AVENUE,NA,PRIVATE STREET NAMES
1507,WILLIS,AVE,,WILLIS AVENUE,501J4,PUBLIC STREET NAMES
1667,WAYNECREST,DR,,WAYNECREST DRIVE,592F4,PUBLIC STREET NAMES
1374,WYANDOTTE,ST,,WYANDOTTE STREET,533A4,PUBLIC STREET NAMES
9902,WESTPARK,ROAD,,WESTPARK ROAD,562B7,PRIVATE STREET NAMES
1406,WOODMAN,AVE,,WOODMAN AVENUE,501J3,PUBLIC STREET NAMES
58,WORNOM,AVE,,WORNOM AVENUE,503C5,PRIVATE STREET NAMES
1531,WICOPEE,AVE,,WICOPEE AVENUE,565C6,PUBLIC STREET NAMES
1672,WAVERLY,DR,,WAVERLY DRIVE,594D3,PUBLIC STREET NAMES
1724,WALKER,AVE,,WALKER AVENUE,823J4,PUBLIC STREET NAMES
1692,WARRINGTON,DR,,WARRINGTON DRIVE,481B6,PUBLIC STREET NAMES
1608,WESTFALL,DR,,WESTFALL DRIVE,561E6,PUBLIC STREET NAMES
1519,WILFRID,CIR,,WILFRID CIRCLE,482B1,PUBLIC STREET NAMES
9878,WILDWOOD,PL,,WILDWOOD PLACE,499J2,PRIVATE STREET NAMES
1734,WAGON MOUND,ROAD,,WAGON MOUND ROAD,481E2,PUBLIC STREET NAMES
10145,WOODLEY PARK,LANE,,WOODLEY PARK LANE,561F4,PRIVATE STREET NAMES
1625,WESLEY,AVE,,WESLEY AVENUE,674B4,PUBLIC STREET NAMES
9811,WILLOWTREE,LANE,,WILLOWTREE LANE,500H3,PRIVATE STREET NAMES
10112,WINFORD,DR,,WINFORD DRIVE,560H6,PRIVATE STREET NAMES
1721,WALLABI,AVE,,WALLABI AVENUE,482E1,PUBLIC STREET NAMES
96,WAYS,ST,,WAYS STREET,824E5,PRIVATE STREET NAMES
1714,WALNUT,DR,,WALNUT DRIVE,593A4,PUBLIC STREET NAMES
10210,WOODMAN,CYN,,WOODMAN CANYON,562C5,PUBLIC STREET NAMES
1455,WISCONSIN,ST,,WISCONSIN STREET,674A2,PUBLIC STREET NAMES
1589,WESTON,PL,,WESTON PLACE,560G5,PUBLIC STREET NAMES
1588,WESTPARK,DR,,WESTPARK DRIVE,532F7,PUBLIC STREET NAMES
1558,WHISPERING PINES,CT,,WHISPERING PINES COURT,560J5,PUBLIC STREET NAMES
1631,WENLOCK,ST,,WENLOCK STREET,673A1,PUBLIC STREET NAMES
1712,WALNUT,ST,,WALNUT STREET,674F1,PUBLIC STREET NAMES
1623,WEST,BLVD,,WEST BOULEVARD,633F3,PUBLIC STREET NAMES
1384,WORTHEN,AVE,,WORTHEN AVENUE,594F3,PUBLIC STREET NAMES
1652,WEID,PL,,WEID PLACE,593F2,PUBLIC STREET NAMES
11005,WEST SEAGLASS,CIR,,WEST SEAGLASS CIRCLE,702E1,PRIVATE ROADWAY NAMES
97,WATERMAN,DR,,WATERMAN DRIVE,531E3,PRIVATE STREET NAMES
66,WOODHILL CANYON,PL,,WOODHILL CANYON PLACE,562G6,PRIVATE STREET NAMES
1615,WESTCHESTER,PL,,WESTCHESTER PLACE,633G4,PUBLIC STREET NAMES
1628,WERBEL,PL,,WERBEL PLACE,824A2,PUBLIC STREET NAMES
1458,WINTHROP,AVE,,WINTHROP AVENUE,481C4,PUBLIC STREET NAMES
1381,WRIGHT,ST,,WRIGHT STREET,634C5,PUBLIC STREET NAMES
1545,WHITFIELD,AVE,,WHITFIELD AVENUE,631B4,PUBLIC STREET NAMES
9897,WEYBRIDGE,LANE,,WEYBRIDGE LANE,591G3,PRIVATE STREET NAMES
1370,WYNGATE,ST,,WYNGATE STREET,504B3,PUBLIC STREET NAMES
9742,WATTLES,DR,,WATTLES DRIVE,593C3,UNOFFICIAL PRIVATE STREET NAMES
84,WESTDALE,AVE,,WESTDALE AVENUE,564J7,PRIVATE STREET NAMES
1637,WELLER,ST,,WELLER STREET,NA,PUBLIC STREET NAMES
1452,WIT,PL,,WIT PLACE,594B5,PUBLIC STREET NAMES
56,WYNGLENN,LANE,,WYNGLENN LANE,635A7,PRIVATE STREET NAMES
1543,WHITLEY,TER,,WHITLEY TERRACE,593E3,PUBLIC STREET NAMES
63,WOODWARDIA,DR,,WOODWARDIA DRIVE,592A1,PRIVATE STREET NAMES
1706,WAMEDA,AVE,,WAMEDA AVENUE,565C5,PUBLIC STREET NAMES
1632,WENDOVER,DR,,WENDOVER DRIVE,592C1,PUBLIC STREET NAMES
1704,WANDA PARK,DR,,WANDA PARK DRIVE,592C2,PUBLIC STREET NAMES
1505,WILLOW,ST,,WILLOW STREET,634J5,PUBLIC STREET NAMES
60,WORLD WAY,CIR,,WORLD WAY CIRCLE,NA,PRIVATE STREET NAMES
9743,WELLER,ROAD,,WELLER ROAD,565A7,UNOFFICIAL PRIVATE STREET NAMES
74,WHOLESALE,ST,,WHOLESALE STREET,634H6,PRIVATE STREET NAMES
10271,WELLINGTON,WAY,,WELLINGTON WAY,530E7,PRIVATE STREET NAMES
1645,WELBY,WAY,,WELBY WAY,532J5,PUBLIC STREET NAMES
1418,WOODLAKE,AVE,,WOODLAKE AVENUE,529F2,PUBLIC STREET NAMES
1365,WYSTONE,AVE,,WYSTONE AVENUE,500G2,PUBLIC STREET NAMES
1566,WEYMOUTH,PL,,WEYMOUTH PLACE,823J5,PUBLIC STREET NAMES
1559,WHIPPLE,ST,,WHIPPLE STREET,563C5,PUBLIC STREET NAMES
10779,WILD OLIVE,ST,,WILD OLIVE STREET,481G2,PRIVATE STREET NAMES
1448,WOKING,WAY,,WOKING WAY,594B2,PUBLIC STREET NAMES
1393,WOODVIEW,DR,,WOODVIEW DRIVE,563G7,PUBLIC STREET NAMES
1691,WARWICK,AVE,,WARWICK AVENUE,635F1,PUBLIC STREET NAMES
1485,WILTON,PL,,WILTON PLACE,593G3,PUBLIC STREET NAMES
1634,WELLS,DR,,WELLS DRIVE,560J3,PUBLIC STREET NAMES
1541,WHITLOCK,AVE,,WHITLOCK AVENUE,702B4,PUBLIC STREET NAMES
90,WESLIN,AVE,,WESLIN AVENUE,562C7,PRIVATE STREET NAMES
1407,WOODMAN,AVE,,WOODMAN AVENUE,501J3,PUBLIC STREET NAMES
1537,WHITSETT,AVE,,WHITSETT AVENUE,532F2,PUBLIC STREET NAMES
1701,WARBLER,WAY,,WARBLER WAY,592H4,PUBLIC STREET NAMES
69,WOLFE,WAY,,WOLFE WAY,560C4,PRIVATE STREET NAMES
1467,WINNETKA,AVE,,WINNETKA AVENUE,500E4,PUBLIC STREET NAMES
87,WEST ADAMS,GDNS,,WEST ADAMS GARDENS,634B7,PRIVATE STREET NAMES
1524,WILDOMAR,ST,,WILDOMAR STREET,630J5,PUBLIC STREET NAMES
1492,WILMOT,ST,,WILMOT STREET,634B6,PUBLIC STREET NAMES
1565,WEYSE,ST,,WEYSE STREET,634H2,PUBLIC STREET NAMES
10337,WILLOW,TER,,WILLOW TERRACE,794A3,PRIVATE ROADWAY NAMES
1493,WILMINGTON,BLVD,,WILMINGTON BOULEVARD,794D4,PUBLIC STREET NAMES
1383,WORTSER,AVE,,WORTSER AVENUE,532D2,PUBLIC STREET NAMES
1643,WELCOME,ST,,WELCOME STREET,634D2,PUBLIC STREET NAMES
1696,WARNER,AVE,,WARNER AVENUE,632B1,PUBLIC STREET NAMES
1397,WOODSIDE,DR,,WOODSIDE DRIVE,595B4,PUBLIC STREET NAMES
82,WEST HILLS,DR,,WEST HILLS DRIVE,NA,PRIVATE STREET NAMES
1555,WHITAKER,AVE,,WHITAKER AVENUE,501D2,PUBLIC STREET NAMES
1376,WRIGHTWOOD,LANE,,WRIGHTWOOD LANE,563A7,PUBLIC STREET NAMES
1413,WOODLAWN,AVE,,WOODLAWN AVENUE,674C2,PUBLIC STREET NAMES
1604,WEST HILLS,DR,,WEST HILLS DRIVE,NA,PUBLIC STREET NAMES
1717,WALNUT,AVE,,WALNUT AVENUE,672A5,PUBLIC STREET NAMES
1517,WILHELMINA,AVE,,WILHELMINA AVENUE,559E1,PUBLIC STREET NAMES
93,WEEPAH,TER,,WEEPAH TERRACE,NA,PRIVATE STREET NAMES
1389,WOOLSEY CANYON,ROAD,,WOOLSEY CANYON ROAD,499E7,PUBLIC STREET NAMES
1697,WARNALL,AVE,,WARNALL AVENUE,632D2,PUBLIC STREET NAMES
10209,WINNETKA,PL,,WINNETKA PLACE,560E3,PRIVATE STREET NAMES
1369,WYNKOOP,ST,,WYNKOOP STREET,702G1,PUBLIC STREET NAMES
1618,WESTBURY,DR,,WESTBURY DRIVE,481B5,PUBLIC STREET NAMES
1515,WILKINSON,AVE,,WILKINSON AVENUE,532F2,PUBLIC STREET NAMES
1624,WESLIN,AVE,,WESLIN AVENUE,562C6,PUBLIC STREET NAMES
1729,WALDO,CT,,WALDO COURT,595D6,PUBLIC STREET NAMES
1527,WILCOX,PL,,WILCOX PLACE,593E5,PUBLIC STREET NAMES
1593,WESTMORELAND,AVE,,WESTMORELAND AVENUE,594A5,PUBLIC STREET NAMES
1472,WINGO,ST,,WINGO STREET,502F4,PUBLIC STREET NAMES
1442,WONDERLAND PARK,AVE,,WONDERLAND PARK AVENUE,592G2,PUBLIC STREET NAMES
1426,WOODFIELD,CT,,WOODFIELD COURT,592A1,PUBLIC STREET NAMES
1536,WHITTIER,BLVD,,WHITTIER BOULEVARD,634J6,PUBLIC STREET NAMES
1512,WILLAT,AVE,,WILLAT AVENUE,NA,PUBLIC STREET NAMES
1433,WOODBRIDGE,ST,,WOODBRIDGE STREET,563C5,PUBLIC STREET NAMES
1473,WINGED FOOT,CIR,,WINGED FOOT CIRCLE,480F7,PUBLIC STREET NAMES
1580,WESTSIDE,AVE,,WESTSIDE AVENUE,673F1,PUBLIC STREET NAMES
9745,WEYBURN,AVE,,WEYBURN AVENUE,632A3,UNOFFICIAL PRIVATE STREET NAMES
10214,WARNER PLAZA,DR,,WARNER PLAZA DRIVE,NA,PRIVATE STREET NAMES
11021,WRIGHT,LANE,,WRIGHT LANE,593D2,LIMITED ACCESS AREA NAMES
9549,WOODBINE,ST,,WOODBINE STREET,NA,PRIVATE STREET NAMES
1720,WALLACE,AVE,,WALLACE AVENUE,634E1,PUBLIC STREET NAMES
1675,WATTLES,DR,,WATTLES DRIVE,593C3,PUBLIC STREET NAMES
1523,WILD ROSE,LANE,,WILD ROSE LANE,NA,PUBLIC STREET NAMES
1603,WESTHOLME,AVE,,WESTHOLME AVENUE,632B2,PUBLIC STREET NAMES
1727,WALDON,PL,,WALDON PLACE,595B6,PUBLIC STREET NAMES
1424,WOODFIELD,PL,,WOODFIELD PLACE,561G6,PUBLIC STREET NAMES
1373,WYCLIFF,AVE,,WYCLIFF AVENUE,823H4,PUBLIC STREET NAMES
1436,WOODACRES,ROAD,,WOODACRES ROAD,40E4,PUBLIC STREET NAMES
1638,WELLER,PL,,WELLER PLACE,559F3,PUBLIC STREET NAMES
1417,WOODLAND,DR,,WOODLAND DRIVE,824A5,PUBLIC STREET NAMES
1528,WILCOX,AVE,,WILCOX AVENUE,593E3,PUBLIC STREET NAMES
1556,WHISTLER,LANE,,WHISTLER LANE,481C4,PUBLIC STREET NAMES
1570,WEXFORD,DR,,WEXFORD DRIVE,504B6,PUBLIC STREET NAMES
1405,WOODMAN,PL,,WOODMAN PLACE,532C4,PUBLIC STREET NAMES
1569,WEXFORD,PL,,WEXFORD PLACE,504B6,PUBLIC STREET NAMES
1502,WILLOWBROOK,AVE,,WILLOWBROOK AVENUE,704G5,PUBLIC STREET NAMES
1465,WINNETKA,CT,,WINNETKA COURT,560E4,PUBLIC STREET NAMES
1719,WALLINGFORD,DR,,WALLINGFORD DRIVE,592C1,PUBLIC STREET NAMES
1641,WELK,AVE,,WELK AVENUE,502D1,PUBLIC STREET NAMES
9546,WINNETKA,AVE,,WINNETKA AVENUE,NA,PRIVATE STREET NAMES
1495,WILL ROGERS STATE PARK,ROAD,,WILL ROGERS STATE PARK ROAD,631C4,PUBLIC STREET NAMES
1677,WATSONIA,CT,,WATSONIA COURT,593E3,PUBLIC STREET NAMES
1592,WESTMORELAND,BLVD,,WESTMORELAND BOULEVARD,633H5,PUBLIC STREET NAMES
1454,WISH,AVE,,WISH AVENUE,481C7,PUBLIC STREET NAMES
1449,WIXOM,ST,,WIXOM STREET,533B3,PUBLIC STREET NAMES
10438,WEST VALLEY,WAY,,WEST VALLEY WAY,530A7,PRIVATE ROADWAY NAMES
1470,WINLAW,AVE,,WINLAW AVENUE,482B1,PUBLIC STREET NAMES
1731,WALAVISTA,ROAD,,WALAVISTA ROAD,632E7,PUBLIC STREET NAMES
9747,WILSON,WAY,,WILSON WAY,635D1,UNOFFICIAL PRIVATE STREET NAMES
10491,WYSTONE,AVE,,WYSTONE AVENUE,500G7,PRIVATE STREET NAMES
1499,WILLOW GLEN,ROAD,,WILLOW GLEN ROAD,593B2,PUBLIC STREET NAMES
1561,WHEELER,PL,,WHEELER PLACE,502G1,PUBLIC STREET NAMES
10283,WEST 34TH,ST,,WEST 34TH STREET,674A1,PRIVATE ROADWAY NAMES
1582,WEST RUSTIC,ROAD,,WEST RUSTIC ROAD,631B6,PUBLIC STREET NAMES
67,WOODBINE,ST,,WOODBINE STREET,NA,PRIVATE STREET NAMES
1661,WEBB,AVE,,WEBB AVENUE,532G1,PUBLIC STREET NAMES
1364,WYTON,DR,,WYTON DRIVE,632C1,PUBLIC STREET NAMES
10417,WATERFRONT,DR,,WATERFRONT DRIVE,672G7,PRIVATE STREET NAMES
11157,WILSHIRE VISTA,LANE,,WILSHIRE VISTA LANE,633C4,LIMITED ACCESS AREA NAMES
11147,WEEKS,WAY,,WEEKS WAY,530E1,PRIVATE ROADWAY NAMES
11051,WILLOW,LANE,,WILLOW LANE,532B4,LIMITED ACCESS AREA NAMES
11175,WILLOUGHBY,LANE,,WILLOUGHBY LANE,480D7,PRIVATE STREET NAMES
11080,W C FIELDS,DR,,W C FIELDS DRIVE,563C7,PRIVATE ROADWAY NAMES
11079,W C FIELDS,DR,,W C FIELDS DRIVE,563C7,PUBLIC STREET NAMES
11177,WINDSOR,LANE,,WINDSOR LANE,480D7,PRIVATE STREET NAMES
11105,W C FIELDS,DR,,W C FIELDS DRIVE,563B6,PRIVATE STREET NAMES
11226,WICKS,PL,,WICKS PLACE,502H5,PUBLIC STREET NAMES
11230,WATT,LANE,,WATT LANE,482C5,PRIVATE ROADWAY NAMES
11231,WARNICK,WAY,,WARNICK WAY,482C5,PRIVATE ROADWAY NAMES
11264,WISTERIA,CT,,WISTERIA COURT,500C1,PRIVATE STREET NAMES
