Street ID,Street Name,Street Suffix,Street Suffix Direction,Official Street Name,Thomas Brothers Map,Street Type
1307,ZOO,DR,,ZOO DRIVE,564A4,PUBLIC STREET NAMES
1312,ZITOLA,WALK,,ZITOLA WALK,702B3,PUBLIC STREET NAMES
10616,ZELDINS,WAY,,ZELDINS WAY,591G1,PRIVATE ROADWAY NAMES
1318,ZELZAH,AVE,,ZELZAH AVENUE,480J6,PUBLIC STREET NAMES
1323,ZANE,ST,,ZANE STREET,595D6,PUBLIC STREET NAMES
1324,ZAMORA,ST,,ZAMORA STREET,674F3,PUBLIC STREET NAMES
1306,ZORADA,CT,,ZORADA COURT,593B2,PUBLIC STREET NAMES
1314,ZEUS,DR,,ZEUS DRIVE,593A2,PUBLIC STREET NAMES
1321,ZAYANTA,DR,,ZAYANTA DRIVE,702C2,PUBLIC STREET NAMES
52,ZELZAH,AVE,,ZELZAH AVENUE,481A7,PRIVATE STREET NAMES
1305,ZORADA,DR,,ZORADA DRIVE,593B2,PUBLIC STREET NAMES
1325,ZAMORA,AVE,WEST,ZAMORA AVENUE WEST,704F5,PUBLIC STREET NAMES
1311,ZITTO,LANE,,ZITTO LANE,504C5,PUBLIC STREET NAMES
1309,ZOMBAR,AVE,,ZOMBAR AVENUE,531H3,PUBLIC STREET NAMES
1326,ZAMORA,AVE,EAST,ZAMORA AVENUE EAST,704F5,PUBLIC STREET NAMES
1329,ZACHAU,PL,,ZACHAU PLACE,503J2,PUBLIC STREET NAMES
1308,ZONAL,AVE,,ZONAL AVENUE,635A2,PUBLIC STREET NAMES
1310,ZOLA,ST,,ZOLA STREET,481B5,PUBLIC STREET NAMES
1319,ZELLA,PL,,ZELLA PLACE,635E1,PUBLIC STREET NAMES
51,ZUNIGA,LANE,,ZUNIGA LANE,635C3,PRIVATE STREET NAMES
1316,ZEPHYR,AVE,,ZEPHYR AVENUE,793J6,PUBLIC STREET NAMES
1328,ZALVIDEA,ST,,ZALVIDEA STREET,634D1,PUBLIC STREET NAMES
1330,ZACA,PL,,ZACA PLACE,564H7,PUBLIC STREET NAMES
1313,ZITOLA,TER,,ZITOLA TERRACE,702B3,PUBLIC STREET NAMES
1320,ZEILER,AVE,,ZEILER AVENUE,532C1,PUBLIC STREET NAMES
1317,ZENO,PL,,ZENO PLACE,671J6,PUBLIC STREET NAMES
1327,ZAMORA,AVE,,ZAMORA AVENUE,704F5,PUBLIC STREET NAMES
1315,ZEPHYR,CT,,ZEPHYR COURT,671G6,PUBLIC STREET NAMES
1304,ZORANA,PL,,ZORANA PLACE,823H4,PUBLIC STREET NAMES
1322,ZANJA,ST,,ZANJA STREET,672B5,PUBLIC STREET NAMES
11210,ZOHAR,DR,,ZOHAR DRIVE,530H7,LIMITED ACCESS AREA NAMES
